name;address;rate;comments;type;lat;lon;errors
Lola Floristeria;Añadir sitio web;3.8;8;;41.379776;2.1868277;
Floristeria Rosistirem;C/ de Rull, 3, 08002 Barcelona;5.0;570;;41.3796607;2.175454;
Floristeria Montserrat;Añadir número de teléfono;;;;41.3791389;2.1768654;
Cactus;Añadir horario;1.0;1;;41.3830954;2.1750728;
Mumka;Carrer de Ferran, 43, 45, 08002 Barcelona;4.3;10;;41.3819934;2.173869;
Parfois;Edificio Maremagnum, Moll d'Espanya, 5, 08039 Barcelona;4.1;19;;41.3753016;2.1808057;
MRW;Carrer de Cervantes, 6, 08002 Barcelona;2.8;64;;41.3813111;2.1753672;
STUDIO ROMAN IZQUIERDO BOULDSTRIDGE;Passeig d'Isabel II, 6, 08003 Barcelona;;;;41.3815786;2.1805847;
Maremagnum Barcelona;Moll d'Espanya, 5, 08039 Barcelona;4.2;34081;;41.375186;2.1806783;
Kaprichos;Añadir sitio web;3.5;4;;41.3783488;2.186961;
BOXBARCELONA;Carrer de Pontevedra, 51, 08003 Barcelona;4.2;49;;41.3771596;2.1885613;
Estanco Bové - 57 BCN;Añadir sitio web;3.9;18;;41.3781035;2.186697;
Amarre 69;Passeig de Joan de Borbó, 69, 08003 Barcelona;4.2;603;;41.3759228;2.187059;
Barna Electrónic;Añadir sitio web;4.0;3;;41.3783908;2.1871647;
Premmia Mercat;Añadir número de teléfono;3.0;17;;41.3774589;2.1880737;
Oysho;MAREMAGNUM, Moll d'Espanya, 5, 08039 Barcelona;4.0;73;;41.3752089;2.1811753;
Kurz&Gut;Añadir horario;4.4;96;;41.3763451;2.1870179;
Farmàcia Ramón Torelló;Passeig de Joan de Borbó, 72, 08003 Barcelona;3.2;10;;41.3757034;2.1871556;
Boardriders Quiksilver Billabong Roxy Element DC Shoes RVCA;Carrer de la Drassana, 10, 08003 Barcelona;4.1;150;;41.3755297;2.1878763;
Forn de Pa Montserrat;Añadir sitio web;3.5;13;;41.3765147;2.1874921;
Kanna Flors;Añadir sitio web;4.3;24;;41.3853549;2.1769155;
Carolina;Añadir horario;5.0;10;;41.382186;2.1699282;
La Florería;Carrer de la Pescateria, 2, 08003 Barcelona;4.5;8;;41.3841559;2.1814949;
Botanicum Atelier Floral;Carrer dels Banys Vells, 7, 08003 Barcelona;4.8;30;;41.3845577;2.1784518;
La Flor de la Rambla;La Rambla, 65, 08002 Barcelona;4.4;31;;41.382594;2.1700704;
Mandaflor - La Botella De Nur;Carrer dels Banys Nous, 10, 08002 Barcelona;5.0;6;;41.3822783;2.1728593;
Herbs Floristería;Añadir número de teléfono;5.0;2;;41.3853366;2.1804959;
Arte Japones Ramblaflor;Añadir sitio web;5.0;1;;41.382616;2.1698703;
María Ángeles Santaella Cuenca;Añadir horario;;;;41.3851505;2.1711396;
Flors Maria;Añadir número de teléfono;;;Floristería;41.3824313;2.1700453;
Flors Laura;Plaça Nova, 5, 08002 Barcelona;;;;41.3844691;2.1728079;
Flors Ana;C/ de Joaquim Rubió i Ors, 206, 08940 Cornellà de Llobregat, Barcelona;4.5;37;Floristería;41.3675639;2.1044699;
La Femme Floral;Carrer de l'Esparteria, 6, 08003 Barcelona;5.0;7;;41.3839583;2.180793;
BARCELONA FLOWER STUDIO;La Rambla, 89, 08002 Barcelona;5.0;42;;41.3819515;2.1701527;
Floristería Cortés;Añadir horario;;;;41.3851505;2.1711396;
Santa Maria Grow Shop;Carrer de Sant Antoni dels Sombrerers, n.7, 08003 Barcelona;4.7;34;;41.3842559;2.1796281;
Boogaloo;Añadir número de teléfono;4.7;6;;41.3830026;2.1723865;
Ocaña;Plaça Reial, 13-15, 08002 Barcelona;4.0;2308;;41.3797288;2.173322;
L'Arca @larcabarcelona;Carrer dels Banys Nous, 20, Bajos, 08002 Barcelona;4.7;64;;41.3828179;2.172433;
María Teresa Marca Puig;Añadir número de teléfono;5.0;1;;41.3828034;2.1761928;
Sabater Hnos. Fábrica de Jabones;Plaça de Sant Felip Neri, 1, 08002 Barcelona;4.3;196;;41.3832608;2.1729373;
Mumka;Carrer de la Llibreteria, 19, 08002 Barcelona;4.2;24;;41.3833968;2.1753375;
Barcelona Seed Center;Carrer d'Avinyó, 29, 08002 Barcelona;4.3;41;;41.3805482;2.1762527;
Florencia Shop - Ferran;Carrer de Ferran, 47, 08002 Barcelona;;;;41.3820511;2.1739137;
Floristeria Olimpia;Ronda de Sant Pau, 17, 08015 Barcelona;4.1;62;;41.3759831;2.1640585;
Noval Noval Plantas Y Flores;Añadir sitio web;3.1;7;;41.3753127;2.1680704;
Dent de Lionne;Carrer del Roser, 08004 Barcelona;5.0;4;;41.3742033;2.1649949;
Anabel Floristeria;Añadir número de teléfono;;;;41.3753127;2.1680704;
Pastelería La Estrella;Añadir sitio web;4.8;102;;41.3781837;2.1710288;
Farmàcia La Rambla Barcelona;La Rambla, 44, 08002 Barcelona;3.7;10;;41.3795691;2.1727155;
Gironès Saderra, Montserrat;Carrer dels Escudellers, 8, 08002 Barcelona;4.7;3;;41.3792327;2.1738595;
Fauzia Ropa;Añadir sitio web;4.3;13;;41.3788984;2.1697393;
Centre de Perruqueria i estètica Pels Pèls;Añadir sitio web;4.1;60;;41.3777766;2.1707897;
Tabacs Estanc nº 123;Carrer de Sant Pau, 96, 08001 Barcelona;4.5;36;;41.376737;2.1673293;
DIA;Carrer Nou de la Rambla, 18, 08001 Barcelona;3.1;98;Supermercado;41.3787;2.1650353;
Solo 10€;Añadir sitio web;3.8;84;;41.378148;2.1710109;
OCHOTECO;C/ Riereta, 32, 08001 Barcelona;4.7;7;;41.3771958;2.1674841;
Cerámica Mariano Leal;Añadir sitio web;5.0;5;;41.3786151;2.1714224;
Distribuidora Popular;Carrer de la Unió, 28, 08001 Barcelona;4.5;53;;41.3792997;2.1708845;
Time Out Barcelona;18, 1er pis, Plaça Reial, 08002 Barcelona;3.9;24;;41.379775;2.1729993;
Unió General de Treballadors de Catalunya;Rambla de Santa Mònica, 10, 08002 Barcelona;3.0;20;;41.3776757;2.1743453;
Coviran;Carrer de Sant Ramon, 08001 Barcelona;4.8;4;Tienda de ultramarinos;41.3776955;2.1677792;
PAELLERAS BARCELONA;Añadir sitio web;;;;41.378538;2.1714153;
ELECTROFOTO;Carrer Nou de la Rambla, 22, 08001 Barcelona;4.0;1;;41.3784976;2.1713709;
Kama Lino;Carrer de Guàrdia, 6, 08001 Barcelona;5.0;3;;41.377985;2.1714786;
FARMACIA-ORTOPEDIA NIETO CALM, M.DOLORS;Añadir sitio web;2.7;6;;41.3782198;2.1710916;
Sun Tattoo Barcelona;Carrer Nou de la Rambla, 9, 08001 Barcelona;4.7;49;;41.3786651;2.1717446;
Vestidos, trajes de Novia en Barcelona . MAFER NOVIAS;Añadir horario;4.2;41;;41.3780277;2.1710456;
Thot Llibres;Carrer del Marquès de Barberà, 13, 08001 Barcelona;5.0;1;;41.3786361;2.1703488;
Lady Green;08003, Carrer de Montanyans, 6, 08003 Barcelona;4.6;23;;41.3873901;2.1779341;
Marea Verde - Laboratorio Botánico;Ronda de Sant Pere, 40, 08010 Barcelona;4.8;16;;41.389929;2.17358;
Jorge’s Green Gallery;Carrer del Comerç, 15, 08003 Barcelona;5.0;1;;41.3873086;2.1798799;
Flamingo.Studio🦩🌿;Ronda de Sant Pere, 58, 08010 Barcelona;4.7;6;Floristería;41.3906876;2.1755799;
Passage Flowers;Carrer de Trafalgar, 26, 08003 Barcelona;;;;41.3887303;2.1737684;
CASA IDEA;Añadir sitio web;5.0;2;;41.3876029;2.1755895;
Lagutti Concept Boutique;Añadir sitio web;5.0;2;;41.3871682;2.1799546;
Laura Bofill Tormo;Añadir horario;;;;41.3852656;2.1785427;
Simply Basic Bomarket;Añadir número de teléfono;3.3;12;;41.3854416;2.1805683;
La Central del MUHBA;Añadir número de teléfono;4.5;71;;41.383752;2.1758043;
Cereria Subirà;Baixada de la Llibreteria, 7, 08002 Barcelona;4.6;132;;41.383824;2.1758833;
Coco Books;Añadir horario;;;;41.3906418;2.1755739;
Veneno en la piel;Carrer del Rec, 41, 08003 Barcelona;4.0;165;;41.385576;2.1804693;
Sans & Sans;Carrer de l'Argenteria, 59, 08003 Barcelona;4.5;171;;41.383601;2.1788183;
AL CARRER SKATE SHOP;Carrer d'en Tantarantana, 2, 08003 Barcelona;4.8;148;;41.3875785;2.178542;
Eugen Steier Joyas Jewelry Schmuck Joies;Carrer del Portal Nou, 24, 08003 Barcelona;5.0;133;;41.3887828;2.1786269;
🌷Ramos de flores HERBS BARCELONA;Carrer de Bergara, 10, 08002 Barcelona;4.5;35;;41.3861756;2.1662401;
Petit Jardí;Carrer Comtal, 26, 08002 Barcelona;4.6;27;;41.3866088;2.1715582;
The MUHBA Central;Baixada de la Llibreteria, 7, 08002 Barcelona;5.0;3;;41.3837943;2.1758317;
Floristeria Racó Verd Barcelona;Añadir sitio web;4.8;25;;41.3865862;2.1599875;
Floristeria Berta;Carrer de València, 147, 08011 Barcelona;4.1;63;;41.3876093;2.1541867;
Floristería Cattleya BCN;Carrer del Comte d'Urgell, 169, Local, 08036 Barcelona;4.3;6;;41.3878537;2.148539;
Noves Flors;Carrer de Casanova, 189, 08036 Barcelona;5.0;7;;41.3924316;2.1468644;
Pasanau Flors;Carrer del Rosselló, 114, 08036 Barcelona;4.2;28;;41.3885836;2.1490465;
Au nom de la rose Barcelona;Carrer de València, 203, 08007 Barcelona;4.4;119;;41.3901929;2.1574557;
K-Fló;Añadir sitio web;4.7;6;;41.3878876;2.1485192;
Floristeria;Añadir número de teléfono;;;Floristería;41.3879074;2.1419531;
Floristeria;Añadir número de teléfono;;;Floristería;41.3879074;2.1419531;
SOMIAFLORS;Añadir sitio web;;;;41.386808;2.1526639;
Bossvi;Carrer de París, 172, 08036 Barcelona;4.8;59;;41.3927756;2.1500968;
La Ventana Natural El Ninot;Añadir sitio web;4.8;6;;41.3878561;2.1525998;
Via Dolça;Carrer de Provença, 184, 08036 Barcelona;4.8;5;;41.3890698;2.1521165;
Mercadona;Carrer de Mallorca, 135 Mercat Municipal del Ninot, 08036 Barcelona;4.1;1900;;41.388032;2.1519303;
MUY MUCHO CASANOVA S.L.;Añadir horario;4.1;243;;41.3897171;2.1514263;
Floristeria Paris;Carrer de París, 50, BAJO, 08029 Barcelona;4.4;70;;41.3862658;2.1414292;
Floristería Vilaplana;Gran Via de les Corts Catalanes, 489, 08015 Barcelona;4.4;73;;41.380515;2.1538014;
Floristeria Contxa Márquez;C/ d'Aragó, 124, 08011 Barcelona;4.1;31;;41.384496;2.1528503;
Floristería Fiori - Venta de Flores a Domicilio;C/ d'Entença, 126, 08015 Barcelona;4.6;20;;41.381315;2.1464573;
Laura flors;C. del Consell de Cent, 103, 08015 Barcelona;4.6;29;;41.3805721;2.1492434;
Aro Verd;Carrer de València, 76, 08015 Barcelona;4.3;30;;41.3818968;2.1469852;
Mr. Florist Barcelona;Carrer de Viladomat, 144, 08015 Barcelona;4.9;20;;41.3824564;2.1517113;
Regalarflores.net Barcelona;Carrer de París, 50, 08029 Barcelona;2.8;5;;41.3861841;2.1416131;
María Concepción Márquez Ruiz;Añadir horario;1.0;1;;41.38449;2.1529998;
Floristería Navarro;Carrer de València, 320, 08009 Barcelona;4.3;3779;;41.3953974;2.1648931;
⭐ Floristería en Barcelona Ladyflor Servicio Interflora flores a domicilio;C/ de Bailèn, 169, 08037 Barcelona;4.0;37;;41.4005892;2.1632766;
Floristeria Ballester FB;Añadir sitio web;5.0;4;;41.4015478;2.1730843;
Floristería M. Carmen;Añadir sitio web;4.6;21;;41.3992387;2.1746703;
🌷 Flores a domicilio Herbs Barcelona;Carrer de Balmes, 171, 08006 Barcelona;4.4;248;;41.395876;2.1516343;
Floristeria María;Pg. de Sant Joan, 23, 08010 Barcelona;3.9;47;;41.392764;2.17571;
Floristeria Mari-Rosse Magallón;Carrer d'Aragó, 313-317 Mercat de la Concepció - Parada, 2E, 08009 Barcelona;5.0;1;;41.3961245;2.1659561;
Floristería Lloveras;Carrer de Pau Claris, 188, 08037 Barcelona;4.5;24;;41.3966386;2.1600005;
Muguet;Carrer de Puigmartí, 5, 08012 Barcelona;4.8;92;;41.4013846;2.1566085;
ANNABEL Floristeria;Añadir sitio web;3.8;30;;41.4016114;2.1510651;
Flores Navarro;Mercat de la Concepció, Carrer de València, 332, Parada, 1E, 08009 Barcelona;4.2;179;;41.3960141;2.1656589;
pètals;Carrer de Casp, 174, 08013 Barcelona;4.7;18;;41.3974358;2.1794473;
HORTEN FLORS;Añadir sitio web;5.0;7;;41.3986936;2.1710986;
Zelinda Milano;Carrer de Milà i Fontanals, 28, 08012 Barcelona;4.8;18;;41.4009267;2.160459;
Flor de Lis;Carrer del Cigne, 15, 08012 Barcelona;4.7;15;;41.4004688;2.1516611;
Flors Farrés;Añadir sitio web;4.1;23;;41.394888;2.1645382;
Flors Lloveras;Carrer de Pau Claris, 188, 08037 Barcelona;5.0;1;;41.3964591;2.1602033;
Espai de Teràpia Floral;Añadir horario;;;;41.3978722;2.1682022;
Valenflor S.A.;Añadir sitio web;;;;41.3953925;2.1656622;
Abril Flores Mil;Añadir horario;;;;41.3957043;2.1603973;
Mercat Y Floristeria;Añadir número de teléfono;;;;41.3958722;2.1659764;
Luxury Flower Shop In Barcelona Maison Des Fleurs;C/ d'Aragó, 317, 08009 Barcelona;5.0;31;;41.395955;2.1671491;
Fliristeria;Añadir número de teléfono;;;;41.3971016;2.161625;
Parking gratuito Floristería Navarro;Añadir sitio web;;;;41.3956565;2.1648777;
Navarro Florista;Carrer de Sancho de Ávila, 7, 08018 Barcelona;4.4;58;;41.3970403;2.1853614;
Marina Art Floral;Carrer de la Marina, 112, 08018 Barcelona;4.4;23;;41.3946808;2.1853103;
Flors i Plantes Mari Carmen;Añadir número de teléfono;3.0;2;;41.3992718;2.1746784;
Floristeria Al Detall S.L.;Añadir sitio web;3.4;40;;41.377671;2.157968;
Magda Flor SL;Carrer de Sepúlveda, 133, 08011 Barcelona;4.4;34;;41.3815472;2.1579281;
Ares Flors;Añadir sitio web;4.6;23;;41.3778037;2.1528135;
ROS Barcelona - Arte Floral;C. de Villarroel, 71, 08011 Barcelona;4.7;23;;41.3836794;2.1564249;
Bausà Flors s.l.u;Carrer de Viladomat, 60, 08015 Barcelona;4.9;40;;41.3776413;2.1580088;
Auro Floral Stories;Añadir número de teléfono;;;;41.381547;2.1579283;
@Rosesdeluxebcn;Añadir sitio web;;;;41.3807179;2.1576994;
Walkiflor Forné;Añadir sitio web;4.7;3;;41.3791356;2.1569955;
Masuniformes;Carrer de Sepúlveda, 109, 08015 Barcelona;4.2;536;;41.380631;2.1565729;
Fomento Profesional;Carrer del Comte Borrell, 115, 08015 Barcelona;3.7;15;;41.3801045;2.156477;
Floristería Tamarindo;Carrer de Rossend Arús, 18, Bajo, 08014 Barcelona;4.7;33;;41.373066;2.1351825;
Flors Yuca;Carrer de Sants Esquina Rambla de Badal, 259, 08028 Barcelona;4.1;33;;41.3753988;2.1280144;
Floristeria Emmy Sants;Carrer de Sant Medir, 5, 08028 Barcelona;4.0;10;;41.375011;2.1307023;
Doan Flores y Plantas;Añadir sitio web;4.4;28;;41.3618742;2.1375828;
Floristeria Veraflor;Añadir sitio web;4.4;20;;41.3752223;2.1539058;
Floristeria Lloveras Barceló;Añadir sitio web;4.6;82;;41.3752168;2.138341;
Flors Dolors;Añadir sitio web;3.5;4;;41.3749386;2.1416967;
SAUVAGE;Añadir horario;4.4;7;;41.3755079;2.1522177;
María Mercedes Barrios Paz;Añadir número de teléfono;3.3;6;;41.3772712;2.1319802;
FLORESTUDIO;Av. de Mistral, 71, 08015 Barcelona;4.7;26;;41.375686;2.1517223;
Delivrt. Comida a domicilio. Flores, Restaurantes, Moda, Fruta, etc;Añadir número de teléfono;4.8;6;;41.3772644;2.1488445;
Sala Flores Sants;Añadir horario;4.5;2;Centro de aprendizaje;41.3744761;2.1330506;
Domingo Domínguez Vasallo;Añadir horario;5.0;1;;41.3618168;2.1375339;
Emilio Rodríguez Ezcoriza;Añadir horario;;;;41.3718584;2.1464807;
Escola Disseny Floral i Paisatgisme;Carrer de Galileu, 11, 08028 Barcelona;4.5;14;;41.3766012;2.1334576;
Floristería Chavi Piñero;Añadir sitio web;4.5;4;;41.3612896;2.1376804;
BAUHAUS Barcelona;Passeig de la Zona Franca, 123, 08038 Barcelona;4.1;7676;;41.3577812;2.1383086;
María Dolores Padilla García;Añadir horario;;;;41.3623476;2.1375274;
Caprabo amb Eroski;Carrer de la Foneria, 14, 08038 Barcelona;3.6;105;;41.3596198;2.1349891;
Supermercados Charter;Passeig de la Zona Franca, 178, 180, 08038 Barcelona;3.0;1;;41.360438;2.1369713;
Estanco - Papelería Lage;Añadir sitio web;5.0;2;;41.3589921;2.1391456;
MRW;Avenida, Avinguda de la Granvia de l’Hospitalet, 13, 08908 L'Hospitalet de Llobregat, Barcelona;4.3;44;;41.3622062;2.1314213;
Mercat de la Marina;Passeig de la Zona Franca, 178, 08038 Barcelona;4.2;732;;41.3603896;2.1370014;
CLAREL;Carrer de la Mecànica, 17, 08038 Barcelona;3.9;21;;41.3590946;2.1354226;
L'anyada;Mercado de la Marina, Passeig de la Zona Franca, 178, 180, 08038 Barcelona;5.0;1;Tienda de ultramarinos;41.3604306;2.1370065;
Món Animal;Carrer de la Foneria, 43, 45, 08038 Barcelona;4.0;86;;41.3613011;2.1381941;
DBCN Shopping;Añadir horario;;;;41.3612225;2.1385966;
PELUTS;Añadir sitio web;;;;41.3592149;2.1389195;
Panaderia Macxipà;Añadir número de teléfono;4.4;13;;41.3624564;2.1354891;
Supermercados Sorli Sants-Montjuïc;Carrer de la Mare de Déu de Port, 291, 08038 Barcelona;3.8;174;;41.360145;2.1389582;
Pastisseria Forn Demaspan;Añadir número de teléfono;3.2;6;;41.3604885;2.1383393;
Xavier Poveda Pasamar;Añadir horario;4.9;13;;41.3657069;2.1248574;
Flores Manolo;Añadir horario;5.0;3;;41.3521649;2.1557608;
Hobby Flower;Añadir número de teléfono;5.0;3;;41.3462781;2.1168784;
Plantes i Flors Carmen;Añadir horario;4.0;1;;41.3657659;2.125084;
Condoms & Co;Añadir sitio web;2.8;15;;41.3586535;2.1271594;
Francisco Bravo Santos;Añadir horario;;;;41.3651902;2.1247852;
DESAYUNOS A DOMICILIO BY LAIA;TIENDA ONLINE, Gran Via de les Corts Catalanes, 149, 08014 Barcelona;4.8;78;;41.3663048;2.1346838;
Mercadona;Av. del Carrilet, 67, 08902 L'Hospitalet de Llobregat, Barcelona;3.9;2089;;41.3643084;2.1254438;
Mercadona;Passeig de la Zona Franca, 32, 08038 Barcelona;4.1;1245;;41.3540956;2.1421985;
Mercadona;Carrer d'Amadeu Torner, 24, 08902 L'Hospitalet de Llobregat, Barcelona;3.9;1170;;41.3596848;2.1221582;
MARFÀ & Co.;Avda. Gran Via, 75, 08908 L'Hospitalet de Llobregat, Barcelona;2.7;22;;41.3583782;2.1267729;
OBRADOR CANELA FINA SL;Añadir sitio web;4.9;23;;41.3613367;2.1245029;
Concesionario Oficial Hyundai Masterclas - Zona Franca;Passeig de la Zona Franca, 85, 08038 Barcelona;4.2;127;;41.3555437;2.1398196;
Cines Filmax Gran Vía - 4DX;Avinguda de la Granvia de l’Hospitalet, 75, 08908 L'Hospitalet de Llobregat, Barcelona;4.2;3851;;41.3587131;2.1271852;
Intimissimi;Añadir horario;4.2;31;;41.3587749;2.1273789;
LACOSTE;C.C. GRAN VÍA 2, Local B-61, Avinguda de la Granvia de l’Hospitalet, 75, 08908 L'Hospitalet de Llobregat, Barcelona;;;;41.3592321;2.1273732;
Play Extension;Local B82 (Q6, Avinguda de la Granvia de l’Hospitalet, 75, 08908 L'Hospitalet de Llobregat, Barcelona;4.3;74;;41.3592016;2.1279298;
TRAMAS HOSPITALET;Avinguda de la Granvia de l’Hospitalet, 75, local A86, 08908 Barcelona;4.1;39;;41.3593163;2.1280054;
Calzedonia;Calle De La Literatura, Calle Pedrosa A, 1-3 Local, A 061 Pol, 08908 L'Hospitalet de Llobregat, Barcelona;4.4;17;;41.3587749;2.1273789;
PACOMARTINEZ;Avinguda de la Granvia de l’Hospitalet, 1-3, 08908 L'Hospitalet de Llobregat, Barcelona;3.8;202;;41.3587202;2.1264445;
MOTOR LLANSÀ;Passeig de la Zona Franca, 61, 67, 08038 Barcelona;4.3;417;;41.3546158;2.1402462;
Mercadillo Zona Franca;Añadir número de teléfono;3.9;2447;;41.3523323;2.1344903;
Webycar;Passeig de la Zona Franca, 67, 08038 Barcelona;4.6;151;;41.3545596;2.1399492;
MRW;Carrer del Ferro, 6, 08038 Barcelona;3.4;45;;41.3520141;2.1361244;
Acciona Facility Services;Passeig de la Zona Franca, 69, 08038 Barcelona;3.2;56;;41.3550546;2.1401822;
Acciona Forwarding;Añadir horario;3.2;5;;41.3550106;2.1402279;
Casa Azul;Añadir horario;5.0;2;;41.3526902;2.138895;
Alvin Networks;Carrer del Cobalt, 16, 08038 Barcelona;4.6;11;;41.354213;2.1376951;
envialia;Añadir número de teléfono;;;;41.3540874;2.1413607;
Floristeria Cottage;Carrer del Parlament, 10, 08015 Barcelona;4.7;35;;41.375615;2.1594293;
Floristería;Añadir número de teléfono;;;Floristería;41.3771857;2.1645024;
La Merçe;Añadir sitio web;4.2;13;;41.3728162;2.1674543;
Floriservice;Paseo de La Exposición 87-91 PASSEIG DE L'EXPOSISCIO 91 PASSEIG DE L'EXPOSICIO 87, 08004 Barcelona;4.8;35;;41.3713898;2.1581688;
Floristeria Agarimo Barcelona;C/ de Violant d'Hongria Reina d'Aragó, 93, 08028 Barcelona;5.0;11;;41.3791891;2.1291049;
Floristeria Pl. Centre;Añadir sitio web;4.2;5;;41.3816589;2.1335041;
Jardí Marina;Carrer de Lluçà, 34, 08028 Barcelona;4.7;22;;41.3823334;2.1287615;
Flors i plantes Valls & Grau. Arranjaments terrasses Restaurants. Aquest es Can Punyetes. C/ciutat de balaguer 50;Rambla del Brasil, 40 Bis, Local 3, 08028 Barcelona;4.8;8;;41.3781721;2.1277947;
Floratelie;Av. de Madrid, 215, 08014 Barcelona;5.0;13;;41.3817966;2.1329334;
Floratelie;C/ de Violant d'Hongria Reina d'Aragó, 165, 08014 Barcelona;5.0;13;;41.3808955;2.1333654;
Plantas Bazar Oriental;Añadir número de teléfono;4.4;11;;41.3795252;2.13223;
Teleflora;Av. de Josep Tarradellas, 8, 10, 08029 Barcelona;;;;41.3813908;2.1405548;
Sweet & Flower;Añadir número de teléfono;4.8;19;;41.3825235;2.1295711;
Manantial de Salud;Carrer del Vallespir, 82, 08014 Barcelona;4.2;78;;41.3800085;2.1346094;
MEDICALSEEDS S.L.;Carrer de Galileu, 98, 08028 Barcelona;4.7;9;;41.3787539;2.1325808;
Minna no Kimono;Carrer de Rosés, 67-69, Entresuelo 6, 08028 Barcelona;4.9;81;;41.3787647;2.1321301;
Silviaribas;Añadir horario;5.0;1;;41.3790768;2.1341239;
Juguetes Tió Sam Galileu;Carrer de Galileu, 106, 08028 Barcelona;4.4;187;;41.37899;2.1324863;
Floristerías Neus II;Añadir sitio web;4.4;15;;41.3747339;2.1183637;
Floristería Sala;Carrer del Montseny, 51, 08903 L'Hospitalet de Llobregat, Barcelona;4.8;26;;41.3717257;2.1206304;
Flors Lin;Añadir número de teléfono;5.0;10;;41.3783799;2.1254984;
Flowers by Bornay;Añadir horario;4.5;92;;41.3786563;2.1300556;
Floristeria Deltaquari;Carrer de la Riera Blanca, 85, 87, 08028 Barcelona;5.0;4;;41.3727471;2.1238041;
World Trade Center Barcelona;1ª planta Edif. Este, Moll de Barcelona, s/n, 08039 Barcelona;4.1;1937;;41.3713114;2.1795183;
Rillo Suministros de Floristería;Añadir sitio web;;;;41.3303443;2.1345935;
Reilaflor S.A.;Añadir horario;;;;41.3306576;2.1130925;
Gros Mercat;C. Longitudinal, 7 A-26, Nau 22, 08040 Barcelona;3.6;30;;41.3305531;2.118699;
MRW;Carrer Major, s/n, 08040 Barcelona;1.0;1;;41.3314417;2.1134479;
Supermercados Charter;POLÍGONO IND. ZONA FRANCA, CARRER 29 DEL BZ, 50-62, 08040 Barcelona;3.7;6;;41.3360965;2.1289958;
Zeleris;Avinguda número 4 del Parc Logístic de la Zona Franca, 9-11, 08040, 08040, 08040, Barcelona;1.4;525;;41.339096;2.1275966;
FLORISTERÍa THE LOTUS FLOWER;Carrer de la Indústria, 171, 08025 Barcelona;4.8;18;;41.4105744;2.1732512;
Flors Elen;Carrer de los Castillejos, 354, 08025 Barcelona;4.7;20;;41.411318;2.1700173;
Flors i Plantes Mariona;Añadir horario;4.6;11;;41.4103188;2.1691116;
Floristeria Margaret;Carrer de València, 567, 08026 Barcelona;4.0;13;;41.407995;2.1812793;
FLORISTERÍA BOUQUETS & Co.;Carrer de los Castillejos, 250, local 2, 08013 Barcelona;4.8;60;;41.4058985;2.1771437;
Floristeria Hesp;Añadir sitio web;5.0;3;;41.4050309;2.1756652;
Floristeria Soriano;Avinguda de Gaudí, 6, 08025 Barcelona;4.0;23;;41.4050386;2.1723844;
Orquidea Flor;Añadir sitio web;3.7;11;;41.4071579;2.1692197;
Ātmā Flors & Art;Carrer de Padilla, 254, 08025 Barcelona;4.8;17;;41.4064077;2.1742577;
Floristeria La Primula;Añadir sitio web;4.6;30;;41.4099713;2.1623288;
Calendula Espai Floral;Añadir sitio web;5.0;14;;41.4099325;2.1782142;
Floristeria NUNE;Carrer de Sant Antoni Maria Claret, 42, 08025 Barcelona;4.8;77;;41.4047825;2.1639198;
Floristería Flowers Bcn;Carrer de Sant Antoni Maria Claret, 100, 08025 Barcelona;4.7;23;;41.4067401;2.1664702;
Tundra Flors, Floristeria;C/ d'Aragó, 458, 08013 Barcelona;4.7;51;;41.4028842;2.1772637;
OhFlor;Añadir número de teléfono;4.0;4;;41.4057635;2.1714808;
floristeria Petitmuguet Barcelona;Pg. de Sant Joan, 190, 08037 Barcelona;4.6;20;;41.4038336;2.1621041;
UkeFlors & BonBee: Flores a Domicilio en Barcelona;Carrer de Pi i Margall, 1, 08024 Barcelona;4.6;110;;41.406002;2.1605643;
Sucs. De S. Daranas Mayorista De Flores;Añadir número de teléfono;;;;41.4015926;2.1727907;
Fb Flors;Añadir horario;;;Floristería;41.4165302;2.1791918;
Sarria Flors;Carrer del Dr. Fleming, 29, 08017 Barcelona;4.3;9;;41.3948134;2.1319106;
Flors & GO!;Avinguda Diagonal, 557, 08029 Barcelona;4.1;130;;41.3894502;2.1326208;
Funeflor - Floristería para entierros y funerales;Av. de Joan XXIII, 17, 08028 Barcelona;1.0;1;;41.383766;2.1194567;
PLANTES I FLORS JOAN GÜELL;Añadir sitio web;4.0;17;;41.3829942;2.1293536;
Dendros - florista - jardiner;Añadir sitio web;5.0;2;;41.387303;2.1328253;
LA PLANTETA;Carrer de Sabino Arana, 12, 08028 Barcelona;4.8;6;;41.3854666;2.1236951;
Floristeria Safua;Carrer de Santa Amèlia, 45 Esquina, 08034 Barcelona;5.0;4;;41.3945919;2.1224441;
Singular Envit;Carrer de Manuel de Falla, 27, 08034 Barcelona;4.6;10;;41.3943557;2.1241864;
Plantas Pili;Añadir sitio web;5.0;4;;41.3947251;2.1188754;
Flores Pepe Oliva;Añadir sitio web;4.8;4;;41.3907019;2.1211538;
Tavola Floral Design;Carrer de Rafael Batlle, 26, 08017 Barcelona;4.6;34;;41.3964301;2.1247313;
Flores de Vida;Añadir horario;;;;41.3880025;2.1315001;
Azoca Concept Store;Añadir categoría;4.9;8;;41.395342;2.1223997;
FLOWERSBCN;Añadir horario;;;;41.3965447;2.1323833;
Barcelona Flower Delivery;Travessera de les Corts, 215, 08028 Barcelona;5.0;8;;41.3839867;2.1275687;
Quiosc BCN;Añadir sitio web;4.6;8;;41.3896943;2.1181101;
Kachafruit Barna;Passeig de Manuel Girona, 6, 08034 Barcelona;4.6;12;;41.3897863;2.1182936;
MRW;Carrer dels Doctors Trias i Pujol, 5-7, 08034 Barcelona;3.0;43;;41.3901065;2.1215232;
LUPPA SOLUTIONS S.L.;Añadir horario;5.0;2;;41.387964;2.1209513;
UPS Access Point;Añadir número de teléfono;3.0;2;;41.3898313;2.1227946;
Restaurante La Tagliatella | C/ Dr. Ferrán, Barcelona;Carrer del Dr. Ferran, 25, 27, 08034 Barcelona;3.9;1353;;41.3896539;2.1221286;
UPS Access Point;Añadir número de teléfono;1.0;1;Servicio de mensajería;41.39001;2.1215617;
Atelier Libros;Avinguda Diagonal, 684, 08034 Barcelona;3.6;17;;41.3877499;2.1186717;
🌷 Floristería a domicilio Herbs Barcelona;Carrer Major de Sarrià, 72, 08017 Barcelona;4.6;131;;41.3981932;2.1203902;
Rafael Riera I Aragó Jardiner S.L.;Añadir horario;4.0;4;;41.3978334;2.1204079;
Riera Aragó Flors;Carrer del Pedró de la Creu, 19, 08034 Barcelona;5.0;3;Floristería;41.3978387;2.1204011;
Conillas Garden Center;Av. d'Esplugues, 74, 08034 Barcelona;4.1;204;;41.3901477;2.1076515;
FLORS PADUA josepadillon@hotmail.com;Avinguda de la República Argentina, 19, 08023 Barcelona;4.6;9;;41.4078708;2.1454935;
Acanto Floristería Taller;Carrer de Sant Gervasi de Cassoles, 56, 08022 Barcelona;5.0;6;;41.4053175;2.1353417;
Floryou;Añadir horario;4.4;7;;41.4034752;2.1352198;
Vellut Floristes;Añadir sitio web;4.0;3;;41.4038703;2.147741;
L'Art Floral;Carrer de Balmes, 452, 08022 Barcelona;4.8;4;;41.4091338;2.1354127;
Gardenia - Arte Floral;Añadir sitio web;;;;41.4033986;2.1368361;
TIËSTO;Carrer de Balmes, 435, 08022 Barcelona;4.9;11;;41.4090323;2.1351191;
Lidia Torrijos Portas;Añadir sitio web;4.5;2;;41.4038963;2.1477782;
Atelier flors & GO!;Añadir horario;3.7;3;;41.4046798;2.1468263;
Putxet Centre De Jardinería;Ronda del General Mitre, 219, 08023 Barcelona;4.6;37;;41.4057081;2.1424277;
Basar Vallcarca Floristeria-Jardineria;Añadir número de teléfono;4.5;2;;41.408757;2.1467033;
Laura Martí Hermosilla;Añadir sitio web;5.0;1;;41.4033625;2.1368434;
Art Floral Flora Miserachs;Añadir horario;4.6;9;;41.400949;2.1188443;
El Jardinet de Sarrià;Añadir sitio web;4.9;13;;41.4000933;2.1193532;
Items Bao Bab SL;Pg. de la Bonanova, 77, 08017 Barcelona;4.2;5;;41.4024007;2.1239264;
Artesanies Carme Piquet;Carrer Major de Sarrià, 222, 08017 Barcelona;4.4;23;;41.403147;2.1158013;
Cocina Barcelona;Carrer Major de Sarrià, 172, 08017 Barcelona;5.0;3;Tienda de muebles;41.4016963;2.11781;
UNIFORMES DE COLEGIO;10-16, Carrer de Ramon Miquel i Planas, 08034 Barcelona;4.2;11;;41.4006929;2.117353;
UPS Access Point;Añadir número de teléfono;;;;41.4011835;2.1177898;
Greenflor;Plaça d'Alfonso Comín, 3, 08023 Barcelona;4.3;24;;41.4143144;2.1363333;
Floristeria Las 3 Orquídias;Carrer del Bisbe Sivilla, 15, 08022 Barcelona;4.0;4;;41.405202;2.1335983;
Flors Sant Gervasi;Avinguda de la República Argentina, 248, 08023 Barcelona;5.0;19;;41.4128626;2.1376567;
Floristeria Herba;Añadir sitio web;3.6;5;;41.4117981;2.1390202;
Floristería A. Navarro Pérez;Añadir sitio web;5.0;1;;41.4021044;2.1347585;
Floristería Carlos Poles;Añadir sitio web;3.4;5;;41.4029344;2.1317858;
FLORS PRAT, S.L.;Plaça de la Bonanova, 1, 08022 Barcelona;4.0;27;;41.4069514;2.1313255;
Flors Craywinckel;Añadir horario;4.7;12;;41.4119463;2.1372338;
Flors i Plantes;Añadir número de teléfono;;;;41.4021355;2.1347689;
the boj flowers;Carrer de Bigai, 5, 08022 Barcelona;4.6;39;;41.405152;2.1305163;
Mireya Goula, decoración floral;Añadir sitio web;5.0;3;;41.402713;2.1340248;
María José Fuentes Gamallo;Añadir horario;;;;41.4118785;2.1390569;
Raúl Gou Cerdá;Añadir horario;;;;41.413854;2.1354513;
Miranda Tocados;Añadir horario;4.2;5;;41.410001;2.1307363;
GRUPO ROSA CLARÁ | Head Quarters;Carrer dels Quatre Camins, 08022 Barcelona;4.1;29;;41.408845;2.1269036;
La salle bonanova;Añadir número de teléfono;4.0;1;;41.4111508;2.1287578;
Flowerswill (Horario Especial);Carrer de Laforja, 25, 08006 Barcelona;4.7;40;;41.3986679;2.1470224;
Flors floristeria- Floresinternet.es;Via Augusta, 120, 08006 Barcelona;4.1;22;;41.4013621;2.145481;
FLORSTER: Flores a domicilio en bici con video en Barcelona;Carrer de Laforja, 61, 08021 Barcelona;4.9;436;;41.3970903;2.1445623;
Floristeria Martínez;Carrer de Calaf, 19, 08021 Barcelona;5.0;7;;41.3972743;2.141848;
Flores y Plantas Bertrán;Carrer de Muntaner, 333, 08021 Barcelona;4.1;17;;41.3977707;2.1423292;
MAYFLOWER;Travessera de Gràcia, 67, 08006 Barcelona;4.3;28;;41.3967388;2.1481888;
Flors Zinnia;Av. de Pau Casals, 22, 08021 Barcelona;4.2;40;;41.3941374;2.1401346;
ART FLORAL BARCELONA;Añadir sitio web;4.9;9;;41.3991788;2.1437228;
Phlox Escenificacio Floral;Añadir sitio web;1.0;1;;41.3999644;2.1446666;
Àfrica Espai de flors;Añadir horario;;;;41.4008028;2.137369;
The Decoshopper;Añadir horario;;;;41.4003326;2.141214;
tree-nation.com;Añadir número de teléfono;;;;41.3955145;2.1466173;
Escofet Chicambiances;C/ Muntaner, 402, 08006 Barcelona;5.0;2;;41.4002468;2.1393577;
Gremi de Floristes I Floricultors de Catalunya;Añadir horario;4.0;2;;41.3936759;2.1490324;
Mitre & Mandri Flors;Ronda del General Mitre, 100, 08021 Barcelona;4.5;47;;41.4005436;2.1334719;
JARCLOS;Carrer de les Escoles Pies, 67, 08017 Barcelona;4.1;40;;41.4002036;2.1285276;
UPS Access Point;Añadir número de teléfono;;;;41.3976552;2.1284926;
Peluquería Llongueras Via Augusta;Via Augusta, 292, 08017 Barcelona;4.8;37;;41.3979771;2.1272203;
Is a boutique floral design company based in Barcelona.;Carrer d'Orellana, 3, 08017 Barcelona;3.4;5;;41.428094;2.0942288;
Troa - Garbí UIC;Carrer de la Immaculada, 22, 08017 Barcelona;5.0;3;;41.4059539;2.1214798;
Tanatori Sant Gervasi;Carrer de Carles Riba, 10, 12, 08035 Barcelona;4.1;37;;41.412104;2.1235703;
Uaala! Gelateria;Carrer de les Alberes, 29, 08017 Barcelona;4.7;168;;41.4143633;2.1036419;
El Forn De Vallvidrera;Añadir sitio web;5.0;5;;41.413376;2.1023662;
Floristeria Sanjuan;Passeig de la Vall d'Hebron, 58, 08023 Barcelona;4.7;30;;41.418529;2.1373011;
Floristería Jardinería J.González;Añadir sitio web;3.7;3;;41.431257;2.141825;
La Botanique;Carrer de Ticià, 25, 08023 Barcelona;5.0;53;;41.4172648;2.1358834;
ILUNION Tienda de prensa, regalos y flores (HOSPITAL VALL D HEBRON GENERAL);129, Passeig de la Vall d'Hebron, 119, 08035 Barcelona;;;Tienda de regalos;41.4288078;2.1398318;
Anabel Floristeria;Añadir sitio web;4.0;23;;41.4028748;2.1511435;
flors & GO! Rambla del Prat;Rambla de Prat, 12, 08012 Barcelona;4.3;39;;41.4016542;2.1499669;
AMAZONICA de GISELAFLORS;Carrer d'Astúries, 34, 08012 Barcelona;4.7;14;;41.4034854;2.1523986;
Plantes 8H;Carrer de Verdi, 26, 08012 Barcelona;;;Floristería;41.403932;2.1551501;
Josefa Nicolás Vera;Añadir número de teléfono;;;;41.4011626;2.1554854;
Floristeria I Jardineria El Gorg S.l.;Añadir número de teléfono;;;;41.4055621;2.1620342;
Floristeria online. Flores y Plantas a domicilio con envío gratuiro;Plaça del Sol, 17, 08012 Barcelona;;;Floristería;41.3988164;2.1529564;
Azahar Flower Boutique;Travessera de Gràcia, 231, 08012 Barcelona;5.0;14;;41.4038022;2.159379;
Timram;Añadir horario;;;;41.4009365;2.160535;
Arianna Flors i Detalls;Carrer de la Providència, 72, 08024 Barcelona;5.0;1;;41.4072264;2.1559405;
voyverde plantas flores;Carrer del Torrent de l'Olla, 30, 08012 Barcelona;5.0;12;;41.3994665;2.1581944;
Atmosfera Barcelona;Plaça del Sol, 17, 08012 Barcelona;4.3;2805;;41.4017956;2.1543102;
Ana Vivero;Carrer de Ramón y Cajal, 56, 08012 Barcelona;5.0;1;;41.4028846;2.156978;
Amantis;Carrer del Torrent de l'Olla, 145, 08012 Barcelona;4.2;69;;41.4036605;2.1532115;
La Bescara. Taller + Galería + Joyería;Carrer de les Guilleries, 3, 08012 Barcelona;5.0;6;;41.4029378;2.1548291;
Antonieta;Carrer de Torrijos, 15, 08012 Barcelona;4.5;59;;41.4030457;2.1569835;
MacxiPa;Añadir número de teléfono;2.0;3;;41.4030687;2.1556076;
8H studio;Carrer de Verdi, 26, 08012 Barcelona;5.0;4;;41.403932;2.1551501;
Flores Carmen;Añadir sitio web;4.1;10;;41.4108605;2.1554496;
Floristería ARTE JAPONÉS;Carrer de l'Escorial, 139, 143, 08024 Barcelona;4.2;26;;41.4094479;2.1569981;
Floristería ARTE JAPONÉS;Carrer de l'Escorial, 139, 143, 08024 Barcelona;4.2;26;;41.4094479;2.1569981;
CASA PROTEA Plant Collectors Studio;Carrer de Ramón y Cajal, 124, 08024 Barcelona;4.7;39;;41.4046095;2.1598178;
Floristeria;Añadir número de teléfono;;;Tienda de artículos para el hogar;41.4046175;2.1598178;
Floristeria Jacaranda Barcelona;Travessera de Dalt, 21, 08024 Barcelona;4.4;52;;41.4085667;2.1497733;
Flors Carmen;Añadir número de teléfono;;;;41.4142889;2.1603354;
Floristeria Carrasco;Añadir sitio web;4.4;9;;41.4238181;2.1533062;
Floristeria Flora;Carrer del Santuari, 24, 08032 Barcelona;3.8;12;;41.4201578;2.1487405;
Flors Chelo;Añadir sitio web;4.9;8;;41.4229188;2.1537558;
Regalar Flores Net Barcelona;Añadir número de teléfono;;;;41.4218603;2.124393;
Supermercado Consum Barcelona Ronda Guinardó;Ronda del Guinardó, 52, 08025 Barcelona;3.9;283;;41.4121683;2.1653705;
Talleres GA-ES. Taller mecánico en Barcelona;Carrer de Taxdirt, 61, 08025 Barcelona;4.5;55;;41.410407;2.1657933;
Floristería Barcelona el Jardi de Maragall;Passeig de Maragall, 43, 08041 Barcelona;4.6;38;;41.4153377;2.1782317;
Floristería Flortique;Añadir sitio web;4.4;14;;41.4157122;2.1732003;
Floristeria Vitamina Natura;Añadir sitio web;4.3;4;;41.417066;2.1725558;
Flors i Plantes Maruja;Añadir sitio web;4.7;32;;41.4227416;2.1769289;
Flors I Violes;Añadir número de teléfono;;;;41.4204581;2.17749;
Cactusss;Av. de la Mare de Déu de Montserrat, 230, 08041 Barcelona;;;;41.4218969;2.1723111;
DADAflor;Añadir horario;4.7;6;;41.4249321;2.1663494;
DADAflor;Añadir horario;;;;41.4249074;2.1665577;
carpinteria Carmelo Ortega Flores e Hijos;Añadir horario;5.0;1;;41.4170821;2.1607749;
Drogueria;Añadir número de teléfono;;;Farmacia;41.4058345;2.1427547;
Supermercado Consum Barcelona Mare de Déu de Montserrat;Av. de la Mare de Déu de Montserrat, 19, 08024 Barcelona;3.9;466;;41.4140347;2.159542;
Farmàcia Moratalla Nohales;Carrer de Queixans, 4, 08032 Barcelona;5.0;11;;41.4203004;2.1561903;
Caprabo supermercado;Carrer de la Conca de Tremp, 110, 08032 Barcelona;3.5;40;;41.4198149;2.1553397;
Art d'Horta Floristes;Añadir sitio web;4.2;19;;41.4307543;2.1590354;
IFLORYOU Taller Floral;Añadir horario;;;;41.4319267;2.1584343;
Botanica flower shop;Horta, 08032 Barcelona;5.0;6;;41.4319728;2.1539759;
Plants and Flowers by Susan Pitzer;Carrer de Berruguete, 46, 08035 Barcelona;5.0;5;;41.4332755;2.146961;
Floristeria Martínez;Añadir sitio web;4.3;9;;41.4295705;2.1578544;
Floristeria De Horta Cristher-2;Carrer del Tajo, 75, 08032 Barcelona;3.7;3;;41.4296146;2.1574682;
La Patapouf;Añadir sitio web;4.4;34;;41.4278064;2.1642967;
L'hivernacle d'Horta;Carrer Marcel·li, 08035 Barcelona;4.2;456;;41.4299644;2.1511397;
Joieria Castilla;Añadir sitio web;3.6;48;;41.4269315;2.1533586;
Casa Sucre | Pastelería online & Catering para eventos;Añadir sitio web;5.0;3;;41.4274662;2.1523708;
Copistería Copyvan Serveis Grafics Professionals;Carrer de Serrallonga, 1, 08032 Barcelona;4.6;66;;41.4267888;2.1528294;
Perfumeria i Drogueria Hnos. Martín;Carrer de Dante Alighieri, 108, 08032 Barcelona;3.5;16;;41.427213;2.1533685;
Pastisseria Forn Artesá;Añadir número de teléfono;4.0;1;;41.4267187;2.1529905;
Farmàcia Jordi Altirriba Gutiérrez;Carrer de Porto, 30, 08032 Barcelona;4.6;5;;41.4305276;2.1544319;
Restaurante Kenko II;Carrer del Dos de Maig, 250, 08013 Barcelona;3.9;748;Restaurante;41.4173561;2.1553686;
Bar Los Extremeños;Carrer de Dante Alighieri, 120, 08032 Barcelona;4.5;128;;41.4267475;2.152824;
Xiquets BCN;Añadir sitio web;3.7;6;;41.4267475;2.152824;
Solmanía;Carrer de Dante Alighieri, 94, 08032 Barcelona;4.4;50;;41.4273901;2.153987;
Flores y Plantas Martín;Añadir sitio web;5.0;6;;41.4386595;2.1677107;
Floristeria Fàbregas;Passeig de Verdum, 47, 08042 Barcelona;3.5;4;;41.4371849;2.1708901;
Flors I Plantes;Añadir número de teléfono;;;;41.4372354;2.1708027;
Floristería Adelaida;Añadir sitio web;4.3;3;;41.4343828;2.1702608;
Taller Floral Cami de Roses - Arte Floral;Carrer de Pablo Iglesias, 117, 08016 Barcelona;4.7;19;;41.446244;2.1808233;
Floristería Marín;Añadir sitio web;4.8;25;;41.4597546;2.2006458;
Floristeria Bienvenida;Añadir horario;4.3;9;;41.4471731;2.1740659;
Floristeria Moyano;Añadir sitio web;4.0;21;;41.4739377;2.1630562;
Floristeria Lopi;Añadir horario;4.7;3;;41.4595896;2.2003124;
Floristería Palmira;Añadir horario;5.0;1;;41.4705912;2.1820801;
Csrretera Cementerio;Añadir número de teléfono;;;;41.474014;2.1629613;
All verd;Añadir horario;;;Establecimiento de comida preparada;41.422309;2.1684673;
Mercadona;Carrer de les Torres, 2, 08042 Barcelona;4.1;1527;;41.4472618;2.1777848;
Mercadona;Av. Pallaresa, 26, 08921 Santa Coloma de Gramenet, Barcelona;4.0;1175;;41.4525345;2.1999032;
Mercadona;Passeig de Santa Coloma, 21-23, 08030 Barcelona;4.2;1033;;41.4454748;2.186809;
Supermercados Charter;Carrer de Simancas, 78, 82, 08024 Barcelona;3.9;88;;41.44548;2.1710773;
Mercadona;Passeig de Santa Coloma, 23, 08030 Barcelona;4.0;181;;41.4451215;2.1874201;
Consum;Añadir número de teléfono;4.2;21;Supermercado;41.4451413;2.180854;
Supermercados Charter;Av. dels Rasos de Peguera, 186, 08033 Barcelona;4.5;2;;41.4599567;2.1701769;
Supermercado Consum Barcelona Chafarinas;Carrer de las Chafarinas, 08033 Barcelona;4.3;222;;41.4482633;2.1816471;
Tanatorio de Santa Coloma;Carretera de La Roca, Km 4,650, 08924 Santa Coloma de Gramenet, Barcelona;3.0;8;;41.4614186;2.1893746;
Mercadona;Carrer Petúnies, 08110, Barcelona;4.1;868;;41.4633576;2.1686042;
Mercat de Ciutat Meridiana;Carrer de Costabona, 4, 08033 Barcelona;3.8;130;;41.4616335;2.1758043;
La Fauna Meridiana S.C.P.;Añadir sitio web;3.9;58;;41.4623183;2.1751012;
Óptica Isis;Carrer Masia, 3, 08110 Montcada i Reixac, Barcelona;4.3;4;;41.4697833;2.1818416;
Magasalfa;Pol. Ind. Can Cuiàs. C./ Arquitectura 4, Nave 2, 08110 Montcada i Reixac, Barcelona;4.8;5;;41.4667919;2.1640105;
UPS Access Point;Añadir número de teléfono;;;;41.4599492;2.1739614;
MAPFRE;Av. dels Rasos de Peguera, 27, 08033 Barcelona;5.0;1;;41.4609879;2.1755442;
AIRES DE JARDIN - Pérgolas de Madera en Barcelona;Añadir horario;4.7;7;;41.463668;2.1665603;
Flors Eugenia Art floral;Añadir sitio web;4.5;28;;41.439719;2.1723081;
Roser;Passeig de Valldaura, 186, 08042 Barcelona;;;Frutería;41.4382742;2.167885;
Aves Barceló;Passeig de Valldaura, 186, 08042 Barcelona;;;Tienda de aves de corral;41.4382956;2.1679091;
Neus;Passeig de Valldaura, 186, 08042 Barcelona;;;;41.4382191;2.1678574;
El Voraviu;Añadir sitio web;5.0;16;;41.4383293;2.1679125;
Peixos Conchita;Passeig de Valldaura, 186, 08042 Barcelona;;;;41.4382191;2.1678574;
Cándido Alvarez Moriano;Passeig de Valldaura, 186, 08042 Barcelona;4.0;1;;41.4382191;2.1678574;
Consum;Carrer d'Alcúdia, 43, 08016 Barcelona;4.2;325;;41.435958;2.1720277;
ADMINISTRACIÓN DE LOTERÍAS EL JOKER 185;Carrer del Pintor Alsamora, 83, 08016 Barcelona;4.3;8;;41.4365828;2.1728783;
Nando Barcelona;NUESTRA OFICINA, Passeig Universal, 35-37, Local 1, 08031 Barcelona;4.7;17;;41.4374577;2.1592663;
La Tienda de Mama- Venta de productos para Bebe en Barcelona;Carrer de l'Artesania, 10, 08016 Barcelona;4.4;71;;41.4388503;2.1737512;
Bar Restaurante Casa Meva;Añadir número de teléfono;;;;41.4401705;2.1726343;
Mercadona;Mercat de, Passeig de Valldaura, 186, 08042 Barcelona;4.0;1534;;41.4383172;2.1679104;
Floristeria M. Soler;Añadir sitio web;3.5;6;;41.4377374;2.1772857;
Flores Plantas;Añadir número de teléfono;3.0;2;;41.4312065;2.1776442;
Flow'rspace;Carrer dels Garrofers, 36, 08016 Barcelona;5.0;3;;41.4377398;2.1772842;
Silvia López Martínez;Añadir sitio web;4.6;5;;41.4312155;2.1775513;
Carmina Ricart - Diseño Floral;Añadir horario;;;;41.4358771;2.1825787;
El Corte Inglés Can Dragó;Passeig d'Andreu Nin, 51, 08016 Barcelona;4.1;9484;;41.4361736;2.1792208;
Lefties;Avinguda de Rio de Janeiro, 42, 08016 Barcelona;4.1;859;;41.4352479;2.1782616;
Parfois;d'Andreu, Passeig d'Andreu Nin, 51, 08016 Barcelona;3.7;38;;41.4361613;2.1795671;
Belros;Añadir horario;4.0;33;;41.434845;2.1787453;
Sfera;Can Drago, Planta 3 Corte Ingles, 08016 Barcelona;3.5;2;;41.4365837;2.1792023;
Salsa Jeans;Añadir número de teléfono;4.0;3;;41.4361736;2.1792208;
CINESA SOM MULTIESPAI 3D;Añadir número de teléfono;3.9;4330;;41.4354278;2.1785931;
UNED Barcelona;Avinguda de Rio de Janeiro, 56, 08016 Barcelona;3.8;46;;41.4361125;2.1784111;
Marta floristas;Carrer Gran de Sant Andreu, 385, 08030 Barcelona;4.5;45;;41.4390576;2.1864493;
Floristería Serrano Desde 1971;Añadir sitio web;4.8;37;;41.4423734;2.1786647;
Les flors de mary;Añadir sitio web;5.0;1;;41.441921;2.1862634;
Concesionario Oficial HONDA M-Car - Barcelona;Ciudad de Asunción, 55-61, 08030 Barcelona;4.0;150;;41.4415505;2.1975818;
La Cubana;Passeig de Santa Coloma, 41, 08030 Barcelona;5.0;4;;41.4458815;2.1892715;
HEMA;Carrer de Potosí, 2, 08030 Barcelona;4.2;1272;Tienda de artículos para el hogar;41.4393026;2.1963238;
Equivalenza Rio Janeiro;Avinguda de Rio de Janeiro, 73, Local 2, 08016 Barcelona;3.5;21;Perfumería;41.4225027;2.166342;
Les tres pometes;Añadir número de teléfono;;;;41.4456809;2.1714068;
Fnac;Carrer de Potosí, 2, 08030 Barcelona;4.0;4814;;41.4405658;2.1966597;
Druni Perfumerías ®;C, Via Júlia, 7, 08042 Barcelona;4.0;154;;41.4393565;2.1729457;
EXPO VALLDAURA S.A.;Añadir horario;4.2;24;;41.442902;2.1787391;
Floristeria Emmy;Añadir sitio web;3.3;13;;41.4509355;2.2070402;
Floristería Cyca's;Carrer de Sant Ramon, 24, BAJO, 08922 Santa Coloma de Gramenet, Barcelona;4.5;21;;41.4496596;2.2108507;
Flors Lorena;Añadir sitio web;3.6;48;;41.4506809;2.2047546;
Xanus;Añadir sitio web;4.0;4;;41.454246;2.2041277;
Floristería;Añadir número de teléfono;2.0;1;Floristería;41.4511748;2.1645841;
Bazar Tot Per la Lllar;Añadir sitio web;4.8;6;;41.4355252;2.2032876;
Mercado de la Trinidad;C/ de la Pedrosa, 21, 08033 Barcelona;3.9;194;;41.4486616;2.1820469;
Control de Plagas y Desratizaciones Lasher España;Añadir sitio web;;;;41.4545634;2.1893772;
Bcn Cookies;Añadir horario;4.3;4;;41.4510586;2.183522;
Macxipa;Añadir número de teléfono;4.3;24;;41.4500615;2.1879965;
UPS Access Point;Añadir número de teléfono;;;;41.450757;2.188937;
Meroil;Avinguda Meridiana, 666, 08033 Barcelona;3.8;605;;41.4480084;2.1861155;
Perfumería Mercería Nova;Añadir sitio web;;;;41.4321764;2.1638845;
Mercadona;Carrer d'Aneto, 16, 08031 Barcelona;4.3;900;;41.4319576;2.1695822;
Sanimar control de plagas;Añadir sitio web;;;;41.433472;2.1683521;
Farmacia Barceló;Añadir sitio web;4.2;5;;41.4347331;2.1630401;
Catering Alcalá;Carrer de Santa Amàlia, 1, 08031 Barcelona;4.4;24;Servicio de catering;41.4183521;2.1602865;
UPS Access Point;Añadir número de teléfono;;;;41.431844;2.1672013;
Flors Riera;Añadir sitio web;4.6;14;Comercio;41.483193;2.1720789;
Quiosco Pablo Flores;Añadir horario;4.0;4;;41.450833;2.2054543;
Macxipa;Av. de la Generalitat, 19, 08922 Santa Coloma de Gramenet, Barcelona;3.8;31;;41.4492107;2.2082118;
Ise 40;Añadir sitio web;4.3;30;;41.4474067;2.2058193;
Tallers MC Montcada;Carrer Bifurcació, s/n, 08110 Montcada i Reixac, Barcelona;4.7;26;;41.4703046;2.1795808;
DOLS AROMA;Carrer d'Almansa, 20, 08042 Barcelona;5.0;7;;41.4419928;2.1741234;
Supermercado Consum Barcelona Sant Francesc Xavier;Carrer de Sant Francesc Xavier, 8, 08016 Barcelona;4.2;494;;41.4417043;2.1757076;
Herrero iluminación;Via Júlia, 45, 08042 Barcelona;4.5;56;;41.4405066;2.1739922;
Farigola del Estal;Añadir sitio web;;;;41.443327;2.1698195;
La Balear;Via Júlia, 141, 08042 Barcelona;3.1;17;;41.4431595;2.1758754;
Okane;Carrer de Casals i Cuberó, 256, local 3, 08042 Barcelona;4.7;31;Tienda de segunda mano;41.4338678;2.1705979;
HUMANA;Via Júlia, 72, 08016 Barcelona;4.0;195;;41.4411827;2.1752209;
Farmàcia Rubís;Carrer de Santa Engràcia, 73, 08016 Barcelona;4.3;16;;41.4410622;2.1763957;
MAPFRE;Carrer del Mas Duran, 56, 08042 Barcelona;4.5;2;;41.4443921;2.1754121;
Vitaldent;Via Júlia, 101, 08042 Barcelona;4.2;36;;41.442084;2.1747013;
Old School Tattoo;Carrer d'Almansa, 12, 08042 Barcelona;4.7;29;;41.4417735;2.1744332;
Farmacia Saz;Añadir sitio web;4.8;15;;41.442927;2.1734723;
Condis Supermercats;Carrer de Teresa de Cofrents, 23, 08042 Barcelona;3.5;74;;41.4430813;2.1742877;
Calzados Soriano;Via Júlia, 89, 08042 Barcelona;;;;41.4416618;2.1750097;
Agencia Generali Seguros;Carrer de Casals i Cuberó, 289, 291, 08042 Barcelona;5.0;2;;41.4432131;2.1752965;
Floristeria Laura;Local 2,, Passeig de Maragall, 227, 08032 Barcelona;4.6;23;;41.4256241;2.1729903;
Flors Sabadell;Passeig de Fabra i Puig, 264, 08031 Barcelona;4.7;21;;41.4304794;2.1722719;
Flores Fortuño;Passeig de Fabra i Puig, 270, 08031 Barcelona;4.6;38;;41.4304624;2.1712662;
Floristería Flor y Nata;Passeig de Maragall, 314, 08031 Barcelona;4.3;3;;41.4275246;2.166278;
Flor & Natta;Añadir horario;4.5;2;;41.4275246;2.166278;
Lilart Flors;Añadir horario;5.0;3;;41.4261654;2.1710484;
Floristeria Flors I Plantes;Añadir número de teléfono;3.5;2;;41.4279759;2.1691425;
Veronica Muñoz;Añadir número de teléfono;5.0;5;;41.4302328;2.1702195;
El Tarot de Yemayá, El Tarot de Cuba;Añadir horario;4.4;68;;41.4273756;2.1731094;
CLAREL;Carrer de Costa i Cuxart, 10, 08031 Barcelona;3.9;42;;41.4277168;2.1723681;
FERRETERIA FLORES;Carrer del Baró d'Esponellà, 18, 08031 Barcelona;4.8;97;;41.4287034;2.1709902;
Herboristeria de Mas;Añadir sitio web;4.7;6;;41.4281446;2.1692663;
Dox Style - Vestuario Laboral Barcelona;Carrer d'Arnau d'Oms, 35, 08016 Barcelona;4.1;41;;41.430087;2.1749883;
ELTANÍ;Plaça del Virrei Amat, 12, 08016 Barcelona;4.6;42;;41.429672;2.1730243;
Farmàcia Garrofé Pujol;Añadir sitio web;4.4;5;;41.4281329;2.1707475;
Luyol;Plaça del Virrei Amat, 9, 08016 Barcelona;4.6;13;;41.4301539;2.1730488;
IDEAS PATCH&QUILT;Avinguda dels Quinze, 62, 08016 Barcelona;4.5;15;;41.4284793;2.1725057;
J Pujol Maquinaria Y Confeccion SA;Avinguda dels Quinze, 62, Bajos, 08016 Barcelona;4.0;110;;41.428483;2.1725083;
Reciclo Compra Venta Empeño;Carrer de Felip II, 275, 277, 08016 Barcelona;4.6;185;;41.4286926;2.1736206;
DATO DIGITAL;Añadir número de teléfono;;;;41.4289369;2.1733051;
Escuela Infantil Nemomarlin;Añadir horario;4.4;9;;41.4268232;2.169594;
UPS Access Point;Añadir número de teléfono;3.0;2;;41.4283878;2.1740139;
MAPFRE;Carrer d'Arnau d'Oms, 21, 08016 Barcelona;4.6;14;;41.4294524;2.1749581;
FERRETERIA FLORES;Carrer del Baró d'Esponellà, 18, 08031 Barcelona;4.8;97;;41.4287034;2.1709902;
Confecciones María Esperanza;Añadir horario;;;;41.4286197;2.1704618;
Chicco Maquinista;Carrer de la Ciutat d'Asuncion, s/n, Centro Comercial Maquinista, 08030 Barcelona;4.4;7;;41.4408071;2.1953243;
Lacoste;C.Cial. La Maquinista, L-B-118, Carrer de Potosí, 2, 08003 Barcelona;4.3;93;;41.4402039;2.1955166;
Desigual;Añadir sitio web;4.2;623;;41.4410859;2.1965549;
Macxipa;Añadir número de teléfono;4.2;5;Panadería;41.4350947;2.1708555;
Pedro del Hierro (C.C. LA MAQUINISTA);Añadir horario;4.0;10;;41.440918;2.1961273;
Home Chef;Añadir horario;5.0;10;;41.4421456;2.2032182;
Cask Maresme;Añadir número de teléfono;5.0;1;;41.4453933;2.2018374;
Crack hogar;Carrer de Potosí, 8, 08030 Barcelona;4.4;434;;41.4428397;2.198735;
Mejora la Salud;Passeig de Santa Coloma, 55, Edificio A, 6º 4ª, 08030 Barcelona;;;;41.4465676;2.1909006;
Paco Martínez;C.C. LA MAQUINISTA C/ CIUDAD DE ASUNCIÓN, S/N, 08003 Barcelona;3.7;43;Tienda de ropa;41.4269031;2.1892185;
Comercial Lluch S.A.;Añadir número de teléfono;;;;41.4465489;2.2005593;
CEGE;Carrer de la Ciutat d'Asuncion, 42, 08030 Barcelona;4.0;4;;41.4421876;2.1978512;
Àrea Tècnica, Barcelona;Carrer de Maracaibo, 30, 08030 Barcelona;4.4;17;;41.4420396;2.2039055;
TPC Cocinas Barcelona;Passeig de Guayaquil, 47, 08030 Barcelona;4.0;202;;41.4462387;2.2010951;
Taco Bell - Abierto Take Away y Delivery;Carrer de Potosí, 2, 08030 Barcelona;3.7;1344;;41.4427718;2.1980432;
ReDecorArt;Carrer de Quito, 19, 08030 Barcelona;4.7;7;;41.446357;2.1978664;
Industrias Oriol 1942 S.L.;Carrer de la Ciutat d'Asuncion, 56, 08030 Barcelona;4.3;23;;41.4444119;2.1974359;
Floristeria Grow;Añadir sitio web;5.0;5;;41.4428521;2.2140611;
Floristeria Iris;Añadir sitio web;4.5;125;;41.434343;2.1872723;
Floristería Montserrat;Añadir sitio web;4.9;9;;41.4327582;2.1869208;
Floristería Ricart;Añadir número de teléfono;5.0;1;;41.4330634;2.18707;
Rams Design Bcn;Carrer de Coroleu, 42, 08030 Barcelona;;;;41.4329996;2.1850102;
Jardinerías Puigdevall;Añadir sitio web;4.4;36;;41.4334969;2.2127782;
Román Javierre Cebollero;Añadir horario;;;;41.4304766;2.1889236;
Leroy Merlin La Maquinista;La Maquinista, Carrer de Potosí, 2, 08030 Barcelona;3.9;6359;;41.4409185;2.1966891;
Northweek;Añadir número de teléfono;2.8;73;;41.4397364;2.1957817;
Natura;Carrer de Potosí, 2, 08030 Barcelona;4.1;157;;41.4411073;2.1952949;
Lidl;Carrer de Sant Adrià, 154, 162, 08030 Barcelona;4.3;263;Supermercado de descuentos;41.4411271;2.1887288;
La casa del cine para todos;Añadir número de teléfono;;;;41.4369282;2.1995817;
Parfois;Carrer de Potosí, 2, 08030 Barcelona;4.2;172;;41.4404252;2.1959019;
Comercial Lledo Mas;Carrer de la Costa Brava, 3, 5 Y 7, 08030 Barcelona;;;;41.4361443;2.1996386;
Kaotiko La Maquinista;La Maquinista, Carrer de Potosí, 2, Nivell 1, 08030 Barcelona;3.9;330;;41.4403839;2.1962809;
Oysho;Carrer de Potosí, 2, 08030 Barcelona;4.1;309;;41.440268;2.1963706;
Pepe Jeans;Carrer de Potosí, 2, 08030 Barcelona;4.4;47;;41.440735;2.1963338;
La Maquinista;Carrer de Potosí, 2, 08030 Barcelona;4.3;50687;;41.440847;2.1962933;
Instituto Rubió i Tudurí;Passeig de Mollerussa, 71, 08030 Barcelona;3.3;18;;41.4390504;2.2048018;
Supermercados Sorli Sant Andreu;Carrer de Sas, 21, 08030 Barcelona;4.1;21;;41.4369509;2.2020164;
Tecneplas Rotulos Barcelona;Carrer de la Costa Brava, 25, 08030 Barcelona;3.4;9;;41.4375332;2.1994947;
CORTIPLeC CORTINAS TÉCNICAS;Carrer d'Alfarràs, 7, 08030 Barcelona;5.0;2;;41.4365595;2.2028888;
Condis Supermercats;Carrer d'Alfarràs, 21-23, 08030 Barcelona;3.9;50;;41.4371944;2.2027511;
Merú Bakery;154 de la calle de Sant Adrià, Mercat del, 6-7, 08030 paradas;;;;41.4359321;2.2037405;
MAPFRE;Carrer d'Alfarràs, 25, 08030 Barcelona;1.0;1;;41.437423;2.2026902;
Floristeria Endrina;Añadir sitio web;4.0;34;;41.4216344;2.1855168;
Floristeria Laray;Avinguda Meridiana, 336, Pasillo Interior, 08027 Barcelona;4.3;34;;41.4261054;2.1843595;
Floristeria Flor & Natta;Añadir horario;3.7;3;;41.4255746;2.1826521;
Angels Flors;Añadir número de teléfono;;;;41.4208456;2.1783428;
Floristeria Koni;Añadir sitio web;4.5;4;;41.899309;1.8779463;
El Teix Floristes;Añadir sitio web;4.3;17;;41.897898;1.8759789;
Jessica Melero S.C.P.;Añadir horario;5.0;1;;41.899534;1.8766313;
Farmacia Òptica Maristany;Carr. de Berga, 59, 08670 Navàs, Barcelona;4.4;14;;41.899974;1.8760513;
Bisanon;Carr. de Berga, 59, 08670 Navàs, Barcelona;5.0;8;;41.899974;1.8760513;
Cafè de Cal Jaume;Añadir sitio web;4.3;162;;41.900174;1.8758513;
Jardineria i Forestal Font Husqvarna Navàs;Carrer Pau Casals, 08670 Navàs, Barcelona;4.9;8;;41.8996208;1.872374;
Artigas;Añadir sitio web;;;;41.8996472;1.8753507;
Rostisseria Cal Jaume;Añadir sitio web;4.2;49;;41.9001453;1.8756598;
Zamora Floristas;Añadir sitio web;4.3;24;;41.4289545;2.1821811;
Floristería Bogas;Añadir horario;4.6;17;;41.4397655;2.2189438;
"Floristeria ""la mimosa""";Añadir sitio web;;;;41.4222697;2.1948309;
Jardí Flors;Carrer del Bogatell, 34, 08930 Sant Adrià de Besòs, Barcelona;4.7;24;;41.4314198;2.2158929;
Kiosco de flores;Añadir número de teléfono;;;;41.4303065;2.1826234;
Mercadona;Carrer de l'Andana de l'Estació, 08030 Barcelona;4.0;964;;41.4373375;2.1901963;
Aveda Pastisseria;Carrer Gran de Sant Andreu, 303, 08030 Barcelona;4.5;116;;41.4366938;2.1874271;
Skechers;La Maquinista, Carrer de la República Dominicana, 2, LOCAL, C25, 08030 Barcelona;4.2;533;;41.4396601;2.1949152;
Skechers;LOCAL, Carrer de Potosí, 2, c25, 08030 Barcelona;4.1;39;;41.4397158;2.1949807;
Floristeria Kris;Añadir número de teléfono;4.7;11;;41.4196601;2.1941988;
Flors i plantes Rafel's;Añadir horario;4.7;12;;41.417619;2.1854295;
Flores y plantas Raffels;Añadir número de teléfono;;;;41.4175858;2.1854369;
La Floristeria - Gastronomia & Cultura;Añadir número de teléfono;5.0;1;;41.4246837;2.187615;
Floristería Jovi;Carrer de València, 666, 08026 Barcelona;4.7;60;;41.4121715;2.1872651;
Floristeria Ogima;Carrer del Concili de Trento, 55, 08018 Barcelona;4.5;63;;41.4128795;2.1921832;
Floristeria El Jardinet del Clot;Plaça del Mercat, 9, 08018 Barcelona;4.5;32;;41.4072276;2.1862461;
Floristeria Arantza (Art Floral Roba i Complements);Carrer de Biscaia, 329, 08027 Barcelona;4.5;15;;41.4150683;2.1868632;
Floristeria Ikebana;Avinguda Diagonal, 167, 08018 Barcelona;4.3;44;;41.405129;2.1931913;
Floristeria Díaz;Carrer de Cantàbria, 10-12, 08020 Barcelona;4.5;49;;41.4180681;2.2015709;
Floristeria i Regals Rosa María;Añadir sitio web;5.0;9;;41.4165689;2.1859492;
Floristeria iris;Añadir sitio web;4.5;32;;41.418472;2.1962412;
Floristeria Arantxa;Añadir número de teléfono;;;;41.4151569;2.1868506;
Flors Margarita;Plaça de Sant Bernat Calbó, 6, 7, 08005 Barcelona;4.5;89;;41.3995824;2.2029052;
Floristeria Rosa Ma;Añadir horario;4.5;2;;41.4165339;2.1859437;
La Torreta;Carrer de Lope de Vega, 85, 08005 Barcelona;4.1;14;;41.404283;2.2014223;
Flores y Plantas Bertrán;Carrer de Muntaner, 333, 08021 Barcelona;4.1;17;Floristería;41.3977667;2.1357632;
Rosa Rosae;Añadir horario;5.0;6;;41.3982514;2.2009848;
Flower Shop Barcelona;Carrer de Rossend Nobas, 3, 08018 Barcelona;4.6;18;;41.4080474;2.186628;
Alblanc atelier;Añadir horario;4.2;43;;41.3987901;2.193221;
Pajareria Floristeria Rodriguez;Añadir sitio web;4.3;33;;41.4141057;2.2149312;
Angel Bravo Asensio;Añadir horario;;;;41.4183218;2.2017376;
Ca l'Agustí;Carrer de Pere IV, 429, 08020 Barcelona;4.2;562;;41.414455;2.2040193;
Car VI Plant S L;Añadir número de teléfono;;;;41.4123888;2.1943488;
Ortopèdia Clot;Carrer del Clot, 82, 08018 Barcelona;4.5;24;;41.4084107;2.186353;
Mercadona;Carrer de la Muntanya, 8, 08026 Barcelona;4.1;1103;;41.4108943;2.1865395;
Taller Oficial SKODA Mogadealer - Aragó;C/ d'Aragó, 602, 08018 Barcelona;4.1;299;;41.4089824;2.1856276;
laFarmacoteca - Farmacia José Romero Reche;Carrer de Sant Joan de Malta, nº 43, 08018 Barcelona;4.7;40;;41.4089804;2.1901729;
Textura Interiors 🏠;Carrer de Gabriel y Galán, 16, 08026 Barcelona;4.2;75;;41.411687;2.1861373;
Quiosc del Clot;Añadir sitio web;5.0;2;;41.4080302;2.1863007;
Growbarato Barcelona Sant Pau;Añadir número de teléfono;;;Floristería;41.4107759;2.1770729;
Ferrdell Natura;Añadir número de teléfono;;;;41.4125865;2.1782619;
Miguel Mora Novias;Carrer de la Indústria, 268, 08026 Barcelona;4.3;61;;41.4132759;2.1771721;
Supermercat Consum Barcelona Rogent;Carrer de Rogent, 65, 08026 Barcelona;3.8;253;;41.411008;2.1798635;
Stradivarius;Añadir número de teléfono;4.5;2;Tienda de ropa;41.4078665;2.1854738;
Baobag;Carrer del Freser, 102, 08026 Barcelona;4.8;38;;41.4126019;2.1787758;
🌹 Floristeria EMI Barcelona;Carrer de las Navas de Tolosa, 300, 08027 Barcelona;4.6;35;;41.4164653;2.1834273;
Floristeria La Plata;Carrer de Ramon Turró, 160, 08005 Barcelona;4.8;38;;41.3972553;2.1975775;
FLORES AL INSTANTE, S.C.P.;Añadir horario;;;;41.4164984;2.1832823;
elnoidelesflors;Carrer taulat 2, Cementiri poblenou, 08005 Barcelona;;;;41.3953704;2.1995336;
Itzi Guridi diseño floral: envíos de flores a domicilio;C. d'Espronceda, 154, 08018 Barcelona;5.0;9;;41.408746;2.1985393;
Flora Vertical;Carrer de Marià Aguiló, 119, Local 2, 08005 Barcelona;5.0;42;;41.400245;2.2026334;
Floristeria La Elegancia;Añadir número de teléfono;2.6;5;;41.4016111;2.2005368;
Mercadona;C. de Provençals, 22, 08020 Barcelona;4.0;1138;;41.406564;2.2078533;
STANDAL Arquitectura, Reformas e Interiorismo;Passeig de Garcia Fària, 81, 08019 Barcelona;3.6;40;;41.4066099;2.214644;
Rostisseria Pio Pio;Añadir sitio web;4.5;39;;41.4061457;2.209239;
Flors i Més;Añadir sitio web;5.0;11;;41.3966802;2.1871094;
FLORISTERÍA SANCHO DE ÁVILA;Añadir número de teléfono;;;;41.3961946;2.1862958;
Las Pinedas S A T Ltda N;Añadir horario;;;;41.3971933;2.1855703;
La Núvia Pim Pam;Rambla del Poblenou, 53, 08005 Barcelona;4.7;84;;41.4002938;2.1999254;
O'Nails - Tienda de productos para uñas;Carrer de Ramon Turró, 181, 08005 Barcelona;4.1;42;;41.3995599;2.2000852;
MUNICH Showroom - Barcelona;Carrer de la Llacuna, 20, 08005 Barcelona;4.0;1;;41.3986829;2.2001761;
Farmacia Ortopedia M. Prats;Rambla del Poblenou, 46, 08005 Barcelona;4.7;13;;41.400118;2.2006233;
Horchatería El Tío Che;Rambla del Poblenou, 44, 46, 08005 Barcelona;4.4;3798;;41.400108;2.2007348;
Frikimania;Rambla del Poblenou, 47, 08005 Barcelona;4.6;15;;41.4000322;2.2002297;
El Atelier del Arte-Sano;SOLO CON CITA PREVIA!, Carrer de Bolívia, 239, 08020 Barcelona;5.0;26;;41.4122066;2.1995765;
Mercadona;C/ del Perú, 151, 08018 Barcelona;3.9;1600;;41.410383;2.1961823;
Anna Benito Solanes;Rambla de Prim, 244, 08020 Barcelona;5.0;2;;41.4247292;2.1999237;
Farmàcia Bosch Sagrera Sant Martí;Carrer de Menorca, 100, 08020 Barcelona;4.3;8;;41.4222591;2.1993844;
Perfumería Hermanos Martín;Carrer del Camp Arriassa, 87, 08020 Barcelona;4.5;6;;41.4239418;2.2014226;
Productos Mayte;222,, Rambla de Prim, 220, 08020 Barcelona;4.5;39;;41.4237298;2.20123;
Carnicería Tocineria Ana;Añadir sitio web;5.0;9;;41.421651;2.2004223;
Gasch Cansaladers;Carrer de Binèfar, 4, 08020 Barcelona;4.3;10;;41.4242958;2.2011714;
Caprabo;Guipúzcoa, 116, 08020 Barcelona;3.8;575;;41.4200363;2.2002456;
Caprabo;Rambla de Prim, 139, 08020 Barcelona;3.6;152;;41.4206282;2.2042686;
Caprabo;Carrer de Cantàbria, 62, 64, 08020 Barcelona;2.9;20;;41.4226079;2.1965262;
Farmàcia Salavert;Añadir número de teléfono;1.8;4;;41.421344;2.1985413;
ArgosFran arreglos de peleteria;Gran Via de les Corts Catalanes, 1176 bis, 08020 Barcelona;4.9;29;;41.419555;2.2071066;
Mobles la Paz Puigcerdà;249-251, Carrer de Puigcerdà, 08020 Barcelona;4.4;23;;41.4201347;2.2007894;
Vine i Mira;Carrer del Maresme, 253, 08020 Barcelona;4.8;20;;41.4215187;2.2005977;
La Balear;Rambla de Guipúscoa, 144, 08020 Barcelona;3.9;22;;41.4214985;2.2021075;
Macxipa Mestres Forners;Añadir horario;3.0;4;;41.4214345;2.2020232;
Antonio Broggi;Añadir sitio web;4.2;5;;41.4237122;2.2024071;
Carnicería Delgado;Añadir sitio web;4.4;9;;41.4230491;2.2021181;
Bluespace Rambla Guipúzcoa;Rambla de Guipúscoa, 157, 159, 08020 Barcelona;4.0;134;;41.4236646;2.2042306;
Cànem Barcelona Distribuciones;Añadir sitio web;4.1;11;;41.3940613;2.1899863;
TOT BARCELONA;Añadir horario;4.1;17;;41.3874248;2.1954593;
Bnails Barcelona;Carrer de Sardenya, 56, 08005 Barcelona;3.9;14;;41.3911311;2.1875588;
Penguinsbcn;Carrer de Joan d'Àustria, 61, 63, 08005 Barcelona;4.9;99;;41.393397;2.1885813;
PITAGORA;Carrer de Llull, 27, 39, 08005 Barcelona;4.6;18;;41.3930029;2.1887283;
Reinoxsa;C. de Pallars, 74, 08018 Barcelona;4.4;22;;41.394188;2.1866327;
Hotel Arts Barcelona;Cargadores de vehículos eléctricos;4.5;2967;;41.3867217;2.1945829;
UPS Access Point;Añadir número de teléfono;3.3;3;;41.3875284;2.1956278;
MAPFRE;Carrer de la Marina, 16, 08005 Barcelona;4.8;14;;41.38806;2.1954285;
