name;address;rate;comments;type;lat;lon;errors
Carrefour Express;Carrer d'Escuder, 10, 08003 Barcelona;3.8;177;Supermercado;41.3795375;2.1867045;
DIA;Carrer de la Comtessa de Sobradiel, 3, 08002 Barcelona;3.6;235;Supermercado;41.380854;2.1759213;
Condis Express Supermercats;Carrer de Ginebra, 33, 08003 Barcelona;3.5;136;Supermercado;41.3820194;2.1876639;
Barcelona Tech City;Plaça de Pau Vila, 1 Bloc A, Planta 3, Porta 3A1, 08003 Barcelona;4.5;209;Organización sin ánimo de lucro;41.381005;2.1832574;
Simply Basic;Carrer de Ferran, 46, 08002 Barcelona;2.7;20;Supermercado;41.3823178;2.1745682;
DIA;Carrer d'Andrea Dòria, 22, 08003 Barcelona;3.4;18;Supermercado;41.3803818;2.1885959;
Supermercat;Carrer de la Fusteria, 2, 08002 Barcelona;4.1;122;Supermercado;41.3813397;2.1785931;
DIA;Carrer de Balboa, 15, 08003 Barcelona;3.5;156;Supermercado;41.3843956;2.1806943;
bonÀrea;Carrer d'Escuder, 15, 17, 08003 Barcelona;4.1;170;Supermercado;41.3797128;2.1866327;
Alcampo Supermercado;Añadir número de teléfono;3.8;238;Supermercado;41.378516;2.176362;
Caprabo;Mercat Municipal de Plaça de la Font, 1, 08003 Barcelona;3.6;184;Supermercado;41.3805706;2.186687;
Miquel Alimentació Grup S.A.;Añadir horario;3.0;4;Supermercado;41.3785924;2.1880319;
Condis Express Supermercats;La Rambla, 14, 08002 Barcelona;2.3;3;Supermercado;41.3778646;2.1741822;
Supermarket;Carrer d'en Rauric, 17, 08002 Barcelona;4.8;8;Supermercado de descuentos;41.380854;2.1733623;
Supermercat Maquinista;Añadir sitio web;4.1;18;Supermercado;41.3806365;2.1858958;
Supermercat SPAR;CALLE BALUARD, 30Carrer, de Sant Miquel, 35, 08028 Barcelona;4.0;292;Supermercado;41.3801419;2.1861318;
Superservis;Carrer d'Avinyó, 11, 13, 08002 Barcelona;3.9;199;Supermercado;41.3812442;2.1744184;
Colom Supermercat;Añadir sitio web;1.0;1;Supermercado;41.3791546;2.1790038;
Mi Alcampo;Via Laietana, 4, 08003 Barcelona;2.3;3;Supermercado;41.3822625;2.1789901;
Supermercat;Añadir sitio web;1.0;2;Supermercado;41.4016382;2.1487334;
Premmia Mercat;Añadir número de teléfono;3.0;17;Supermercado;41.3774589;2.1880737;
Bon Pacub S.L.;Añadir horario;3.0;1;Supermercado;41.3787072;2.1860183;
Super;Añadir número de teléfono;3.6;10;Tienda de ultramarinos;41.374385;2.1860886;
Spar Supermarcat;Añadir número de teléfono;1.0;1;Tienda de ultramarinos;41.376803;2.1883652;
Bar Can Sardi;C/ de Pepe Rubianes, 25, 08003 Barcelona;4.8;294;Restaurante;41.3784216;2.1892449;
Amarre 69;Passeig de Joan de Borbó, 69, 08003 Barcelona;4.2;606;Bar de tapas;41.3759228;2.187059;
Dc Shoes;Añadir horario;4.5;2;Zapatería;41.3756515;2.1878613;
Farmàcia Ramón Torelló;Passeig de Joan de Borbó, 72, 08003 Barcelona;3.2;10;Farmacia;41.3757034;2.1871556;
Boardriders Quiksilver Billabong Roxy Element DC Shoes RVCA;Carrer de la Drassana, 10, 08003 Barcelona;4.1;149;Tienda de ropa;41.3755297;2.1878763;
DetailCar Joan De Borbó;Passeig de Joan de Borbó, s/n, 08039 Barcelona;2.5;4;Servicio de lavado de coches;41.374729;2.1864833;
Carrefour Market;Rambla dels Estudis, 113, 08002 Barcelona;4.1;8051;Supermercado;41.3839744;2.168562;
Supermercados Charter;Carrer de Jerusalem, 4, 08001 Barcelona;3.9;9;Supermercado;41.3811185;2.1694632;
DIA;Carrer Nou de la Rambla, 18, 08001 Barcelona;3.1;98;Supermercado;41.3787;2.1650353;
Spar;Carrer de la Canuda, 26, 08002 Barcelona;4.0;164;Supermercado;41.3848799;2.1710065;
Coaliment;Añadir número de teléfono;3.8;32;Supermercado;41.3837621;2.1818161;
Simply Basic;Carrer de la Unió, 9, 08001 Barcelona;4.0;65;Supermercado;41.3794302;2.1713193;
Condis Supermercats;Carrer de la Junta de Comerç, 19, 08001 Barcelona;4.0;88;Supermercado;41.379662;2.1696425;
Simply Basic Bomarket;Añadir número de teléfono;3.3;12;Supermercado;41.3854416;2.1805683;
Supermercat Boqueria;Añadir número de teléfono;3.7;3;Supermercado;41.381452;2.1713863;
Caprabo;Robrador, Carrer de Sant Rafael, 08001 Barcelona;2.8;16;Supermercado;41.3789535;2.1682636;
Aldi;Carrer del Comerç, 60, 08003 Barcelona;4.2;704;Supermercado de descuentos;41.3848461;2.1819574;
Veritas;Via Laietana, 28, 08003 Barcelona;4.0;646;Supermercado;41.3847278;2.1758161;
Carrefour Express;Carrer Nou de la Rambla, 60, 08001 Barcelona;3.6;488;Supermercado;41.3772231;2.1699941;
Nonstop 24h;Añadir sitio web;2.5;8;Supermercado;41.3807906;2.1724794;
Easxy Unión S.L.;Añadir horario;3.0;3;Supermercado;41.3830954;2.1750728;
Supermarket;Añadir sitio web;;;Supermercado;41.3828384;2.1764871;
Supermercado Italiano Tienda Italiana;Carrer de la Fusteria, 10, 08002 Barcelona;4.6;75;Supermercado italiano;41.3810367;2.1790486;
Colmado AfroLatino;Añadir sitio web;4.3;290;Tienda de ultramarinos;41.3826803;2.1779176;
Afrika & Latina Supermercat;Via Laietana, 15, 08003 Barcelona;4.0;4;Supermercado;41.3832656;2.1772425;
La tienda de dulce. Bombones;Añadir número de teléfono;;;Supermercado;41.3814405;2.1733753;
Sign Tronic S A;Añadir sitio web;;;Supermercado;41.3804268;2.1764341;
África & Latina;Añadir número de teléfono;3.7;3;Supermercado;41.383183;2.1772371;
Super Fresc;Añadir sitio web;4.1;12;Centro comercial;41.38144;2.1752366;
Tienda Rusa Troika;Añadir número de teléfono;4.3;331;Tienda de delicatessen;41.379887;2.1716653;
Kamal bhai shop home;Añadir número de teléfono;;;Tienda de ultramarinos;41.3804698;2.1738672;
Kosher store;Añadir número de teléfono;5.0;1;Tienda de ultramarinos;41.383122;2.1735659;
La Bordiny;Añadir sitio web;4.3;14;Tienda de ultramarinos;41.3832868;2.1755739;
DIA;Carrer de Sant Pau, 116, 08001 Barcelona;3.5;198;Supermercado;41.376467;2.1668491;
DIA;Carrer de l'Hospital, 131, 08001 Barcelona;2.8;89;Supermercado;41.3795717;2.1653995;
DIA;Carrer del Carme, 36, 08001 Barcelona;3.3;170;Supermercado;41.382194;2.1677613;
Condis Express Supermercats;Carrer de les Carretes, 16, 08001 Barcelona;3.5;56;Supermercado;41.3782301;2.1639386;
DIA;Ronda de Sant Pau, 38, 08001 Barcelona;3.4;64;Supermercado;41.376467;2.1668491;
Supermercado Consum Barcelona Ronda Sant Pau;Ronda de Sant Pau, 29, 08015 Barcelona;4.0;194;Supermercado;41.3764248;2.165294;
Supermercat coviran;Carrer de l'Arc del Teatre, 67, 08001 Barcelona;3.7;19;Supermercado de descuentos;41.375307;2.1708303;
DIA;Ronda de Sant Pau, 38, 08001 Barcelona;3.4;64;Supermercado;41.375315;2.1708303;
Supermercados Charter;Carrer de Salvà, 6, 08004 Barcelona;3.8;46;Supermercado;41.374558;2.1643067;
Coviran;Carrer de Sant Ramon, 08001 Barcelona;4.8;4;Tienda de ultramarinos;41.3745778;2.1577406;
Saddeva S.C.P.;Añadir número de teléfono;2.0;2;Supermercado;41.3776553;2.1733897;
Mercados Dias;Añadir número de teléfono;;;Tienda de ultramarinos;41.3786776;2.17157;
唐山行;Añadir número de teléfono;;;超市;41.3778225;2.1706643;
Supermarket patwary 2015 s.l;Carrer d'En Robador, 4, 08001 Barcelona;;;Supermercado;41.3800184;2.1680944;
Colmado la Monserratina;Añadir horario;4.0;1;Supermercado;41.377172;2.1727255;
23 Robadors;Añadir número de teléfono;4.4;817;Sala de conciertos;41.3794735;2.1686439;
china fruit shop;Carrer Nou de la Rambla, 9, 08001 Barcelona;3.6;10;Supermercado;41.3786542;2.1718214;
Muneb Traders International;Añadir sitio web;3.3;3;Supermercado;41.3790168;2.1734018;
Pajeet Store 8;Añadir número de teléfono;;;Tienda de ultramarinos;41.3776383;2.1734442;
Danish Alimenció;Añadir número de teléfono;3.0;2;Tienda de ultramarinos;41.3797553;2.1742703;
Abbul Rashid;Añadir horario;4.0;1;Tienda de ultramarinos;41.3766044;2.1671557;
J K Asian Food S L;Carrer de Sant Pau, 25, 08001 Barcelona;4.2;275;Tienda de alimentación;41.3792706;2.1701161;
Ramón Viure Espinasa;Añadir horario;;;Tienda de ultramarinos;41.3791573;2.1709195;
Torres - Vins i Licors - Wines & Spirits - www.vinosencasa.com;Carrer Nou de la Rambla, 25, 08001 Barcelona;5.0;1;Tienda de licores del estado;41.3780802;2.1711094;
Torres: Vinos y Licores / Wines & Spirits www.vinosencasa.com;Carrer Nou de la Rambla, 25, 08001 Barcelona;4.4;106;Tienda de vinos;41.378144;2.1711773;
Cerámica Mariano Leal;Añadir sitio web;5.0;5;Tienda de cerámica;41.3786151;2.1714224;
Centre de Perruqueria i estètica Pels Pèls;Añadir sitio web;4.1;60;Peluquería;41.3777766;2.1707897;
Aspasios Las Ramblas Apartments;Carrer Nou de la Rambla, 15, 08001 Barcelona;4.5;100;;41.378443;2.1714843;
MH Apartments Ramblas;Carrer Nou de la Rambla, 20, 08001 Barcelona;3.7;37;;41.3786569;2.1715519;
Pastelería La Estrella;Añadir sitio web;4.8;103;Pastelería;41.3781837;2.1710288;
Vestidos, trajes de Novia en Barcelona . MAFER NOVIAS;Añadir horario;4.2;41;Tienda de vestidos de novia;41.3780277;2.1710456;
Solo 10€;Añadir sitio web;3.8;84;Tienda de accesorios de moda;41.378148;2.1710109;
FARMACIA-ORTOPEDIA NIETO CALM, M.DOLORS;Añadir sitio web;2.7;6;Farmacia;41.3782198;2.1710916;
Simply Basic;Carrer dels Assaonadors, 35, 08007 Barcelona;3.9;28;Supermercado;41.386435;2.1794238;
Caprabo;Añadir sitio web;3.6;132;Supermercado;41.3862663;2.1760423;
DIA;Carrer de Freixures, 23, 08003 Barcelona;3.8;207;Supermercado;41.3865172;2.1750673;
DIA;Carrer del Comerç, 26, 08003 Barcelona;3.5;58;Supermercado;41.3948401;2.1702357;
Supermercados Charter;Carrer de Sant Pere Més Alt, 62, 08003 Barcelona;3.8;60;Supermercado;41.3889001;2.1754244;
Simply;Añadir horario;;;Supermercado;41.3862655;2.1789239;
Supermercat;Añadir número de teléfono;4.6;7;Supermercado;41.3918917;2.1690225;
Supermercado Coviran;Añadir sitio web;1.0;1;Supermercado;41.3884057;2.176577;
Condis el Teu Super;Carrer del Comerç, 19, 08003 Barcelona;4.0;115;Supermercado;41.3866175;2.1801913;
Raja Supermercat;Añadir sitio web;;;Supermercado;41.3858119;2.1760288;
Caprabo;Carrer de Freixures, 2, 08003 Barcelona;;;Supermercado;41.3868548;2.1748433;
Covirán;Añadir número de teléfono;;;Supermercado;41.3863551;2.177861;
Mi Alcampo;Añadir número de teléfono;3.8;38;Tienda de ultramarinos;41.3853385;2.1781621;
Supermercat i fruiteria R+H;Añadir sitio web;1.5;4;Supermercado;41.390619;2.1742975;
Simply Basic;Passeig del Born, 6, Bajo, 08003 Barcelona;;;Supermercado;41.384124;2.1803813;
De Tot Al Born;Passeig del Born, 17, 08003 Barcelona;4.2;28;Mercado;41.3847239;2.1804554;
Super;Añadir número de teléfono;;;Supermercado;41.3957322;2.1572595;
Super Market;Añadir sitio web;3.0;1;Tienda de ultramarinos;41.3865263;2.1798076;
Super Outlet;Añadir número de teléfono;;;Supermercado;41.3862131;2.1792693;
Xarxa De Consum Solidari;Plaça de Sant Agustí Vell, 15, 08003 Barcelona;4.2;10;Supermercado;41.3878596;2.1785007;
CLAREL;Plaça de Sant Agustí Vell, 2, 08003 Barcelona;3.6;30;Tienda de belleza y salud;41.387752;2.1782243;
Jaime J. Renobell;Passeig de Picasso, 34, 08003 Barcelona;4.6;535;Tienda de delicatessen;41.3862802;2.1823618;
Trady's Supermercats;Añadir número de teléfono;3.1;8;Comercio;41.3851719;2.1829948;
LA HAMACA ( Zumos naturales / smoothies / frutas y verduras ecológicas-orgánicas-bio/ açai bowl/ opciones veganas y sin gluten );Plaça de Sant Agustí Vell, 15, 08003 Barcelona;4.4;149;Tienda de zumos;41.387829;2.1785166;
DIA;Carrer d'Alí Bei, 3, 08010 Barcelona;3.9;238;Supermercado;41.3984157;2.1667141;
Condis Supermercats;Carrer de Roger de Flor, 18, 08018 Barcelona;3.0;1;Supermercado;41.3908386;2.1812664;
Merenda Sinoira;Añadir número de teléfono;4.7;9;Restaurante italiano;41.3887483;2.1790947;
MAX SUPERMERCADO;Añadir sitio web;3.9;25;Supermercado;41.3895488;2.1932092;
Caprabo;Carrer de Casp, 44, 08010 Barcelona;3.6;64;Supermercado;41.3907242;2.1705367;
Mercadona;Ronda de Sant Pere, 31, 08010 Barcelona;4.2;2573;Supermercado;41.3902861;2.1734235;
London Supermercado 24h;Añadir número de teléfono;2.6;115;Supermercado;41.3886284;2.1934589;
Supermercats Caliente;Añadir número de teléfono;3.9;14;Supermercado;41.3871292;2.1726148;
Zoo market;Añadir número de teléfono;5.0;2;Supermercado;41.3843195;2.1820054;
Supermercats Argenteria;Añadir número de teléfono;4.0;5;Supermercado;41.383871;2.1774368;
MiniMix Barceloneta - Tienda Rusa;Carrer de la Marquesa, 7, 08003 Barcelona;4.6;93;Supermercado;41.3831199;2.182956;
Zulma Barna;Añadir número de teléfono;1.8;4;Supermercado;41.3838635;2.1774096;
Productes Sabor;Añadir número de teléfono;4.5;6;Tienda de ultramarinos;41.3841101;2.1797531;
La Ribera, S.A.;Plaça Comercial, 11, 08003 Barcelona;4.4;180;Tienda de ultramarinos;41.3850549;2.1815449;
Vila Viniteca;Carrer dels Agullers, 7, 9, 08003 Barcelona;4.6;468;Tienda de vinos;41.3825219;2.1794195;
La Botifarreria de Santa Maria;Carrer de Santa Maria, 4, 08003 Barcelona;4.6;148;Delicatessen de carnicería;41.3835532;2.1800229;
Carrefour Express CEPSA;Carrer de Casanova, 89, 08011 Barcelona;4.1;50;Supermercado;41.3862414;2.1551764;
SUMA;C. de Villarroel, 199, 08036 Barcelona;2.8;28;Supermercado;41.4091311;2.1468358;
Condis Express Supermercats;Carrer del Comte d'Urgell, 258, 08036 Barcelona;2.6;11;Supermercado;41.3906097;2.1454073;
DIA;Carrer de Laforja, 12-14, 08006 Barcelona;3.3;28;Supermercado;41.3980467;2.1525483;
Condis Supermercats;Carrer del Rosselló, 184, 08008 Barcelona;3.3;174;Supermercado;41.3925414;2.1545025;
Condis Express Supermercats;Carrer de Casanova, 210, 08036 Barcelona;3.1;19;Supermercado;41.3919295;2.148133;
Caprabo;C. de Villarroel, 194, 08036 Barcelona;4.0;97;Supermercado;41.39122;2.1467989;
SUMA;C. de Villarroel, 199, 08036 Barcelona;2.8;28;Supermercado;41.4091311;2.1468358;
Condis Express Supermercats;Carrer de Mallorca, 138, 08036 Barcelona;3.6;36;Supermercado;41.3871375;2.1516603;
Bonpreu;Carrer de Provença, 185, 08036 Barcelona;4.3;750;Supermercado;41.3912711;2.1543155;
Mercadona;Carrer de Mallorca, 135 Mercat Municipal del Ninot, 08036 Barcelona;4.1;1930;Supermercado;41.388032;2.1519303;
DIA;Carrer de Provença, 106, 08029 Barcelona;3.3;61;Supermercado;41.3851108;2.1467053;
Suma;Carrer de València, 176, 08011 Barcelona;3.3;16;Supermercado;41.3849294;2.150879;
coaliment;Carrer de Mallorca, 212, 08008 Barcelona;2.4;11;Supermercado;41.390865;2.1566058;
Supercor Exprés;Carrer de París, 152, 08036 Barcelona;3.9;87;Supermercado;41.391782;2.1488818;
Supermercats Jespac;C. del Consell de Cent, 246, 08011 Barcelona;4.3;239;Supermercado;41.3868724;2.1581129;
Suma;Carrer del Rosselló, 183, 08036 Barcelona;4.3;6;Supermercado;41.3914694;2.1523132;
Supermercat disfriut;Calle, Av. de Roma, 139, 08011 Barcelona;3.9;11;Supermercado;41.3863942;2.1539433;
Supermercats Jespac;Carrer de Mallorca, 187, 08036 Barcelona;4.4;57;Supermercado;41.3895836;2.1556193;
Veritas;Carrer de Casanova, 142, 08036 Barcelona;4.1;96;Supermercado;41.38881;2.1533494;
bonÀrea;C. de Villarroel, 137, 08036 Barcelona;4.1;150;Supermercado;41.3867767;2.1534281;
Condis Express Supermercats;Carrer de Provença, 157, 08036 Barcelona;;;Supermercado;41.3895379;2.1522401;
Gust De L'orient;Añadir sitio web;4.3;32;Supermercado;41.387726;2.1532373;
Super market;Añadir número de teléfono;3.0;2;Tienda de ultramarinos;41.3831127;2.1463879;
FRUTERIA CON SUPERMERCADO EUROPA E LATINA;Añadir número de teléfono;;;Tienda de ultramarinos;41.3882597;2.1555559;
Condis el Teu Super;Carrer de Muntaner, 84, 08011 Barcelona;;;Supermercado;41.3880135;2.1556233;
Punto recogida Ulabox en Ninot;Añadir número de teléfono;;;Supermercado;41.3881369;2.1516758;
Super One;Añadir número de teléfono;;;Supermercado;41.3868879;2.1503769;
il Mercatino;Carrer de València, 161, 08011 Barcelona;4.6;27;Supermercado italiano;41.3880905;2.154826;
Chinese shop;Añadir horario;3.5;6;Supermercado;41.3877311;2.1533148;
Speed Express Supermercat;Añadir número de teléfono;;;Supermercado;41.3906026;2.1521502;
La Sirena;Carrer de Mallorca, 170, 08036 Barcelona;4.2;93;Tienda de congelados;41.3886578;2.1536834;
Ametller Origen;Carrer de València, 184, 08011 Barcelona;4.0;176;Tienda de alimentación;41.3876889;2.1547114;
Escofet Oliver;Carrer de Casanova, 144, 08036 Barcelona;3.2;19;Carnicería;41.388948;2.1522173;
Bacallaneria Perello - Mercat del Ninot;mallorca 135 parada 18-20, 08036 Barcelona;3.4;10;Tienda de ultramarinos;41.3877706;2.1518072;
Escofet Oliver;Carrer de Mallorca, 157, 08036 Barcelona;;;Tienda de fiambres;41.3943116;2.1367852;
Capricho Gourmet Francés;Carrer de Casanova, 136, 08036 Barcelona;4.9;10;Tienda de delicatessen;41.3887182;2.1526956;
Natura't el rebost de la fruita;Añadir sitio web;;;Frutería;41.388226;2.1521213;
Carrefour Market;Carrer de Berlín, 50, 54, 08029 Barcelona;3.9;806;Supermercado;41.3836501;2.137949;
Caprabo;Carrer de Vilamarí, 114, 08015 Barcelona;2.9;71;Supermercado;41.3804842;2.1455599;
Condis Supermercats;C/ d'Entença, 85, 08015 Barcelona;3.6;110;Supermercado;41.379432;2.1485449;
Supermercados COVIRAN;Añadir número de teléfono;3.2;17;Supermercado;41.3795969;2.1535488;
Supermercado Consum Barcelona Av. Roma;Av. de Roma, 32, 34, 08015 Barcelona;4.2;407;Supermercado;41.3815911;2.1443131;
Condis Supermercats;Carrer de Llança, 48, 08015 Barcelona;3.9;185;Supermercado;41.379634;2.1441595;
DIA;C. de Rocafort, 244, 08029 Barcelona;3.0;69;Supermercado;41.3861606;2.1422004;
DIA;Carrer del Comte d'Urgell, 71, 73, 08011 Barcelona;3.5;136;Supermercado;41.3828823;2.1574204;
Caprabo;C. de Rocafort, 241, 08029 Barcelona;3.0;60;Supermercado;41.3851094;2.1432251;
Condis Supermercats;CL, Gran Via de les Corts Catalanes, 515, 08015 Barcelona;3.6;42;Supermercado;41.39653;2.1609322;
Munni Supermercat S.L. 24Horas;Añadir número de teléfono;4.4;21;Supermercado;41.3811997;2.1411827;
Condis;C/ d'Aragó, 96-100, 08015 Barcelona;3.8;97;Supermercado;41.3834427;2.1513195;
Supermercado Boliviano;Añadir número de teléfono;5.0;2;Tienda de ultramarinos;41.3841838;2.1408866;
bonÀrea;Carrer de València, 31, 08015 Barcelona;4.2;226;Supermercado;41.381163;2.1456201;
Supermercados Sorli Eixample;Carrer de Provença, 49, 08029 Barcelona;3.8;56;Supermercado;41.3844039;2.1451762;
Mercadona;Carrer de Tarragona, 177, 08014 Barcelona;4.3;1100;Supermercado;41.3796082;2.140918;
Mercadona;Carrer de Calàbria, 129, 08015 Barcelona;4.0;2203;Supermercado;41.380914;2.1510273;
Supermarket Trady's;Añadir número de teléfono;5.0;1;Supermercado;41.383966;2.149776;
Supermercado europa e latina;Añadir sitio web;3.7;3;Supermercado;41.3834561;2.1499582;
Super Mercat;Añadir número de teléfono;3.7;3;Supermercado;41.3834467;2.1499915;
suma;Carrer de València, 67, 08015 Barcelona;3.2;6;Supermercado;41.3828792;2.1478329;
Consum;Añadir número de teléfono;2.8;4;Tienda de ultramarinos;41.3887661;2.1454651;
Open Super;Añadir número de teléfono;5.0;1;Supermercado;41.381672;2.1455858;
Fruites i verdures;Añadir número de teléfono;3.0;1;Supermercado;41.3845674;2.1459777;
SuperGlovo;Añadir número de teléfono;3.2;24;Supermercado;41.3818916;2.1508742;
Butt;Añadir sitio web;4.0;2;Supermercado;41.3847713;2.1501057;
Brooklyn Loft by Shoot Estudios;C. del Consell de Cent, 401, Bajos 2, 08009 Barcelona;4.6;31;Salón para eventos;41.3865985;2.1493959;
Glut End Tienda producto sin gluten;C. de Rocafort, 139, 08015 Barcelona;4.8;18;Supermercado;41.381072;2.1486368;
CLAREL;Carrer de Provença, 90, 08029 Barcelona;4.0;15;Tienda de belleza y salud;41.3844028;2.1459637;
La Sirena;C/ d'Entença, 135, 08015 Barcelona;4.2;48;Tienda de congelados;41.3818084;2.1453886;
Milar Electro Norma;Av. de Roma, 94, 96, 08015 Barcelona;4.1;103;Tienda de electrodomésticos;41.3838812;2.1500204;
Control i Gestió - TPV;Carrer de Mallorca, 51, 08029 Barcelona;4.8;4;Tienda de informática;41.3838014;2.1468332;
Carrefour Express;Carrer de Balmes, 62, 08007 Barcelona;3.6;247;Supermercado;41.3896927;2.1601221;
Condis Supermercats;Carrer de València, 420, 08013 Barcelona;3.6;52;Supermercado;41.4019244;2.1735564;
Supermercados Charter;Carrer de Mallorca, 354, 08013 Barcelona;3.9;74;Supermercado;41.4006047;2.1695613;
Caprabo;Carrer de Còrsega, 301, 08008 Barcelona;3.4;180;Supermercado;41.3949931;2.154738;
Caprabo;C/ d'Aragó, 313, 317, 08007 Barcelona;3.4;16;Supermercado;41.3955242;2.1667565;
Caprabo;Carrer de Provença, 385, 387, 08025 Barcelona;3.6;121;Supermercado;41.4022965;2.1691754;
Mercadona;Carrer de Sardenya, 229, 237, 08013 Barcelona;4.1;1638;Supermercado;41.4001984;2.1748057;
CondisLife Supermercats;Carrer del Bruc, 166, 08037 Barcelona;3.7;149;Supermercado;41.3988304;2.1615491;
SUPERMERCADO BAFANG;Carrer de Balmes, 10, 08007 Barcelona;4.2;157;Supermercado;41.3863613;2.1647069;
SUMA supermercat;Avinguda Diagonal, 325, 08009 Barcelona;3.1;17;Supermercado;41.3990707;2.168449;
Condis Express Supermercats;C. de Nàpols, 146, 08013 Barcelona;3.5;108;Supermercado;41.3970421;2.1752151;
Condis Express Supermercats;Carrer de Bonavista, 31-33, 08012 Barcelona;3.2;193;Supermercado;41.3987753;2.1581657;
Suma Supermercat;Añadir número de teléfono;1.8;8;Supermercado;41.4018863;2.1525259;
Condis Express Supermercats;C/ de Bailèn, 56, 08009 Barcelona;3.9;101;Supermercado;41.3946843;2.1717539;
Mercadona;C. del Consell de Cent, 366, 08009 Barcelona;4.1;1841;Supermercado;41.3945046;2.1682647;
Supercor Exprés;Pg. de Sant Joan, 138, 08037 Barcelona;3.6;103;Supermercado;41.401539;2.1651085;
Supermercados Sorli Eixample;Carrer de Casp, 143, 08013 Barcelona;3.6;54;Supermercado;41.3978466;2.1793367;
Carrefour Express;C/ de Bailèn, 33, 08010 Barcelona;3.9;101;Supermercado;41.3933169;2.1729932;
Condis Express Supermercats;C/ de Bailèn, 93, 08009 Barcelona;3.4;53;Supermercado;41.3968338;2.1683561;
Supercor Exprés;C/ d'Aragó, 308, 08009 Barcelona;3.9;87;Supermercado;41.3945086;2.1660487;
Trady's;Añadir sitio web;3.4;16;Supermercado;41.3957417;2.1612745;
Condis Express Supermercats;C. del Consell de Cent, 330, 08009 Barcelona;3.2;214;Supermercado;41.3926128;2.165718;
Super Mercado 24h;Añadir número de teléfono;3.0;1;Supermercado;41.3943511;2.1693828;
SUPERMERCAT 24H...;Añadir sitio web;3.4;42;Supermercado;41.3938084;2.1639665;
Trady's Supermerat;Añadir sitio web;4.1;26;Supermercado;41.3934625;2.1594842;
Suma;Añadir número de teléfono;3.3;3;Supermercado;41.3934705;2.1594842;
Bonpreu;Carrer d'Ausiàs Marc, 23, 08010 Barcelona;4.2;356;Supermercado;41.3910865;2.1727067;
Caprabo;Passeig de Valldaura, 218, 220, 08042 Barcelona;3.4;292;Supermercado;41.43792;2.1649853;
Proxim Supermercats;Añadir número de teléfono;3.0;1;Supermercado;41.3972983;2.1722768;
Organic Market Diagonal;Avinguda Diagonal, 430, 08037 Barcelona;4.1;159;Supermercado;41.397376;2.1597173;
Super Mercat;C/ d'Aragó, 314, 08009 Barcelona;1.0;1;Supermercado;41.394993;2.1667924;
Supermercado Fruites i verdures;Añadir sitio web;1.0;1;Supermercado;41.390495;2.1586948;
Supermercat Fruites I Verdures;Añadir número de teléfono;;;Supermercado;41.3959793;2.1672214;
Supermercados Sorli Eixample;Carrer de València, 213, 1, 08007 Barcelona;4.1;7;Supermercado;41.3905485;2.1581046;
Hello Supermercat Fruites I Verdures;Añadir número de teléfono;3.0;1;Supermercado;41.3951427;2.1681837;
Supermercat Express;Añadir número de teléfono;2.8;10;Supermercado;41.39268;2.1639229;
SPAR BCN BRUC;Carrer del Bruc, 107, 08009 Barcelona;4.1;100;Supermercado;41.3960419;2.1646943;
Supermercado italiano;Añadir número de teléfono;;;Supermercado;41.394808;2.1641648;
Baba Supermercat;Añadir número de teléfono;2.5;2;Supermercado;41.3933905;2.1690228;
Cibus Italia;Carrer de Roger de Llúria, 80, 08009 Barcelona;4.3;89;Supermercado italiano;41.3949622;2.1644733;
LONDON SUPERMERCAT;Añadir número de teléfono;2.0;11;Supermercado;41.3954009;2.1683591;
Carné Selección;Añadir horario;;;Supermercado;41.3940176;2.1679339;
A Taste of Home;Carrer de Roger de Llúria, 53, 08009 Barcelona;4.2;339;Tienda de ultramarinos;41.3934863;2.1660115;
La Sirena;Carrer del Bruc, 59, 08009 Barcelona;4.1;53;Tienda de congelados;41.3935204;2.1681261;
Ametller Origen;Carrer de Roger de Llúria, 92, 08009 Barcelona;4.3;20;Tienda de alimentación;41.395539;2.1636699;
Queviures Múrria;Carrer de Roger de Llúria, 85, 08009 Barcelona;4.2;17;Tienda de delicatessen;41.3947753;2.1643238;
Carrefour Express CEPSA;Junto A La Estación Cepsa, Carrer de Roger de Flor, 58, 08013 Barcelona;3.2;93;Supermercado;41.3927313;2.1787925;
Condis Supermercats;Carrer de Padilla, 175, 08013 Barcelona;3.7;97;Supermercado;41.4011861;2.1807336;
CondisLife Supermercats;C. de Nàpols, 107, 08013 Barcelona;4.2;177;Supermercado;41.3949308;2.1775108;
Caprabo;Pg. de Sant Joan, 38, 08010 Barcelona;3.6;10;Supermercado;41.3935608;2.1756054;
Caprabo;Añadir horario;5.0;1;Supermercado;41.3914669;2.1626914;
Supermercados Sorli Eixample;C. del Consell de Cent, 450, 08013 Barcelona;3.8;117;Supermercado;41.3987627;2.1739113;
Supermercados Sorli Eixample;Carrer de Roger de Flor, 69, 08013 Barcelona;4.3;25;Supermercado;41.3934619;2.1773256;
Caprabo Rapid Supermercado;Gran Via de les Corts Catalanes, 798, 08013 Barcelona;5.0;14;Supermercado;41.3914669;2.1626914;
Condis el Teu Super;Carrer de Casp, 171, 08013 Barcelona;3.4;77;Supermercado;41.3990207;2.181191;
Mercadona;C. de Ribes, 18, 08013 Barcelona;4.0;843;Supermercado;41.3959259;2.1802799;
Supermercat;Añadir número de teléfono;3.0;1;Supermercado;41.3971413;2.1708901;
Keisy SL;C. del Consell de Cent, 438, 08013 Barcelona;4.6;11;Supermercado;41.398092;2.1730356;
SD Supermercat;Añadir número de teléfono;3.7;3;Supermercado;41.3932681;2.1775058;
Lidl;Gran Via de les Corts Catalanes, 727, 08013 Barcelona;4.1;1452;Supermercado de descuentos;41.3983064;2.1772438;
Mercadona;C. de Nàpols, 110, 08013 Barcelona;3.9;919;Supermercado;41.3952697;2.1776955;
Supermercados Sorli Eixample;Carrer d'Ausiàs Marc, 86, 08013 Barcelona;4.3;21;Supermercado;41.3950058;2.1785093;
BARCELONA SUPERMARKET DIPUTACIO;Añadir número de teléfono;3.5;23;Supermercado;41.3987053;2.1761418;
Supermercados SorliNyam Gràcia;Carrer de la Marina, 143, 08013 Barcelona;3.7;29;Supermercado;41.3974268;2.1808361;
Sorli;Carrer de Casp, 148, 08013 Barcelona;;;Supermercado;41.3961433;2.1777023;
Keisy;C. de Nàpols, 166, 08013 Barcelona;4.3;279;Supermercado;41.3980333;2.1741823;
Sorli Nyam;C. de Nàpols, 156, 08013 Barcelona;3.9;55;Supermercado;41.3975365;2.1746335;
Oriental Market Barcelona;Carrer de Sicília, 212, 08013 Barcelona;4.3;557;Supermercado japonés;41.3981401;2.176265;
sicilia supermarket;Añadir sitio web;3.0;1;Supermercado;41.3968872;2.1771074;
Supermercat & carnisseria el pozo;Añadir número de teléfono;;;Supermercado;41.3953616;2.1814678;
Coaliment;Añadir número de teléfono;3.7;6;Tienda de ultramarinos;41.3962424;2.1741493;
Supermercat Europa;Añadir sitio web;4.0;15;Supermercado;41.3957791;2.1772167;
Superficies de Alimentación S. A.;Añadir horario;3.5;2;Supermercado;41.3978466;2.1793367;
Kai Feng 2;Añadir número de teléfono;2.5;2;Supermercado de descuentos;41.3972286;2.176042;
Gran Via Alimentació;Añadir número de teléfono;3.0;1;Supermercado;41.3972366;2.176042;
Barcelona Supermercat;Añadir número de teléfono;3.0;1;Tienda de ultramarinos;41.3970381;2.1797857;
Casp Alimentació;Carrer de Casp, 176, Bajo, 08013 Barcelona;5.0;2;Tienda de ultramarinos;41.3942715;2.1725698;
Mix Markt - Russian Food Store;135, Carrer de Sicília, 133, 08013 Barcelona;4.1;116;Tienda de ultramarinos;41.3969991;2.1770759;
La Sirena;Gran Via de les Corts Catalanes, 701, 08013 Barcelona;4.1;46;Tienda de congelados;41.3974162;2.176079;
La Sirena;Añadir número de teléfono;4.0;98;Restaurante chino;41.396932;2.1765918;
Carrefour Express;Carrer de la Marina, 265, 08025 Barcelona;3.9;415;Supermercado;41.404921;2.1715163;
Caprabo;Carrer de Provença, 498, 08025 Barcelona;3.9;16;Supermercado;41.4063899;2.1750135;
Supercor Exprés;Carrer de la Marina, 304, 08025 Barcelona;3.8;158;Supermercado;41.4055787;2.1712562;
DIA;Carrer de Padilla, 231, 08013 Barcelona;3.5;27;Supermercado;41.4015777;2.1524427;
Condis Express Supermercats;Carrer de Còrsega, 516, 08025 Barcelona;3.5;50;Supermercado;41.4053611;2.1690587;
Condis Supermercats;Carrer del Rosselló, 466, 08025 Barcelona;3.5;37;Supermercado;41.408068;2.1750913;
Bon Área;Carrer de Padilla, 277, 08025 Barcelona;3.9;165;Supermercado;41.406577;2.1736504;
Supermercado Consum Barcelona Rosselló;Carrer del Rosselló, 346, 08037 Barcelona;4.1;297;Supermercado;41.4028753;2.1681606;
Supermercado Consum Barcelona València;Carrer de València, 478, 08013 Barcelona;4.0;269;Supermercado;41.4037744;2.1761114;
Caprabo Castillejos;Carrer de los Castillejos, 320, 08025 Barcelona;3.8;217;Supermercado;41.40927;2.17268;
Supermercados Charter;Carrer de Cartagena, 293, 08025 Barcelona;4.0;177;Supermercado;41.4099242;2.1736382;
CondisLife Supermercats;Carrer de Mallorca, 505, 08026 Barcelona;4.3;142;Supermercado;41.4080956;2.1790698;
Dia & Go;Añadir número de teléfono;3.2;132;Supermercado;41.4058945;2.1716462;
Mercadona;Carrer de València, 531, 08013 Barcelona;4.1;2473;Supermercado;41.4063929;2.1792002;
CondisLife Supermercats;C/ d'Aragó, 520, 08013 Barcelona;3.9;113;Supermercado;41.4053297;2.1805852;
Mercadona;Carrer de la Indústria, 129, 08025 Barcelona;4.1;2225;Supermercado;41.4083098;2.1703883;
Condis Express Supermercats;Carrer de Padilla, 323, 08025 Barcelona;3.4;106;Supermercado;41.4089266;2.1705609;
Condis Supermercats;Carrer de Provença, 457, 08025 Barcelona;;;Supermercado;41.40516;2.1730023;
MARINA SUPERMERCAT EXPRESS;Carrer de la Marina, 294, 08025 Barcelona;2.8;6;Supermercado;41.4049587;2.1723876;
DIA;Carrer Gran de Gràcia, 103, 08012 Barcelona;3.6;115;Supermercado;41.3997072;2.1558855;
DIA;Carrer de Cartagena, 247, 08025 Barcelona;3.6;33;Supermercado;41.4080897;2.1759411;
Aldi;Carrer de Mallorca, 458, 08013 Barcelona;4.1;641;Supermercado de descuentos;41.405417;2.1761114;
Supermercado Lepanto;Añadir sitio web;3.8;4;Supermercado indio;41.4041204;2.1747356;
Condis;Añadir número de teléfono;1.0;1;Supermercado;41.4041284;2.1747356;
Supermercados Sorli Eixample;Carrer de Mallorca, 480, 484, 08013 Barcelona;4.0;81;Supermercado;41.4061586;2.1773118;
Keisy;Carrer de València, 490, 08013 Barcelona;4.4;284;Supermercado;41.4040784;2.1764691;
Dia Market;Añadir número de teléfono;4.0;3;Tienda de ultramarinos;41.4059412;2.1717423;
La Botiga Natural;Carrer del Rosselló, 441, 08025 Barcelona;4.8;23;Supermercado;41.4058127;2.1715687;
Especialidades P Boada;Añadir horario;;;Tienda de ultramarinos;41.405895;2.1745708;
Pacífico Market SL;Carrer de València, 462, 08013 Barcelona;4.8;26;Tienda de alimentación;41.4032019;2.1752349;
New Lucky Supermercat;Añadir número de teléfono;;;Tienda de ultramarinos;41.4056702;2.1770207;
Ametller Origen;Carrer de Padilla, 230, 08013 Barcelona;4.1;239;Tienda de alimentación;41.404926;2.1761788;
Super Fresh Supermercat;Carrer de la Marina, 240, 08013 Barcelona;2.5;4;Hipermercado;41.402539;2.1750163;
Abarrotes Doña Cuca;Passatge de Font, 4, 08013 Barcelona;4.5;150;Tienda de productos mexicanos;41.4024455;2.1734518;
TORRONS VICENS SAGRADA FAMILIA;Carrer de Provença, 427, 431, 08025 Barcelona;4.5;107;Tienda de delicatessen;41.4040207;2.1714775;
Gaudi Supermercat;Añadir número de teléfono;;;Supermercado;41.4103184;2.061966;
Carrefour Express;Carrer de Sant Antoni Abat, 6, 8, 08001 Barcelona;3.9;180;Supermercado;41.3795094;2.1633799;
Supermercados Charter;Gran Via de les Corts Catalanes, 544, 08011 Barcelona;3.8;58;Supermercado;41.3828055;2.1579756;
Condis Supermercats;Carrer de Sepúlveda, 177, 08011 Barcelona;3.5;55;Supermercado;41.3836302;2.1604301;
DIA;C. de Villarroel, 41-43, 08011 Barcelona;4.0;71;Supermercado;41.3822272;2.1517958;
Condis Express Supermercats;Ronda de Sant Antoni, 74, 08001 Barcelona;3.7;164;Supermercado;41.3832566;2.1617008;
Caprabo;Gran Via de les Corts Catalanes, 538, 08011 Barcelona;3.4;64;Supermercado;41.3826118;2.157527;
Supermercado Consum Barcelona;C/ d'Entença, 28, 08015 Barcelona;4.1;612;Supermercado;41.376714;2.1524613;
Caprabo;Carrer de Joaquín Costa, 64, 08001 Barcelona;3.4;70;Supermercado;41.3838228;2.1623617;
Condis Supermercats;CL, Gran Via de les Corts Catalanes, 460, 08015 Barcelona;3.2;54;Supermercado;41.3790963;2.1528505;
Supermercat Consum Barcelona Villarroel;C. de Villarroel, 15, 08011 Barcelona;4.2;1172;Supermercado;41.3808923;2.1601159;
DIA;Carrer de Viladomat, 65, 08015 Barcelona;3.6;22;Supermercado;41.3780224;2.1571631;
Condis Express Supermercats;Carrer de Floridablanca, 96, 08015 Barcelona;3.3;62;Supermercado;41.3791398;2.1573638;
Supermercat Jespac;Carrer de Floridablanca, 133, 08011 Barcelona;4.3;118;Supermercado;41.3815692;2.1601958;
DIA;Carrer del Parlament, 44, 08015 Barcelona;3.9;8;Supermercado;41.3769841;2.1615531;
Bonpreu;Carrer de Tamarit, 130, 08015 Barcelona;4.2;656;Supermercado;41.3773571;2.1572407;
Superficies de Alimentación S. A.;Gran Via de les Corts Catalanes, 497, 08015 Barcelona;3.6;8;Supermercado;41.381179;2.1544622;
Condis el Teu Super;Carrer de Sepúlveda, 90, 08015 Barcelona;3.0;67;Supermercado;41.378903;2.1550065;
Bonpreu;Carrer del Comte d'Urgell, 32, 48, 08011 Barcelona;4.4;272;Supermercado;41.3804994;2.1580287;
Lidl;Carrer del Comte d'Urgell, 1, 08011 Barcelona;4.2;1455;Supermercado de descuentos;41.3786209;2.1599805;
Gran Via Supermercat;Añadir número de teléfono;2.3;4;Supermercado;41.3786289;2.1599805;
SUPER MERCAT & FRUITES Y VERDURES;Añadir sitio web;;;Supermercado;41.3793195;2.1594838;
Consum;Añadir número de teléfono;4.3;4;Tienda de ultramarinos;41.3793275;2.1594838;
NANA Biosupermercats Sant Antoni;C, Carrer del Comte d'Urgell, 18, baixos, 08011 Barcelona;4.9;15;Supermercado;41.3798489;2.1596788;
AA nSUPERMERCAT;Añadir sitio web;;;Supermercado;41.3799886;2.1564002;
COSMO SHOP;Añadir sitio web;3.5;2;Supermercado asiático;41.3792422;2.159378;
La Sirena;Carrer de Tamarit, 185, 08011 Barcelona;4.3;76;Tienda de congelados;41.3798662;2.1602176;
Lajpal Supermercat;Añadir número de teléfono;;;Tienda de ultramarinos;41.3831177;2.1551045;
b2 estudi disseny;Añadir sitio web;;;Interiorista;41.3807688;2.1568941;
Masuniformes;Carrer de Sepúlveda, 109, 08015 Barcelona;4.2;540;Tienda de ropa de trabajo;41.380631;2.1565729;
DIA;Carrer d'Olzinelles, 41, 08014 Barcelona;3.8;99;Supermercado;41.372478;2.1347223;
Supermercados Charter;Carrer de la Riera Blanca, 195, 08014 Barcelona;4.0;138;Supermercado;41.3678991;2.1296272;
Caprabo;Carrer Martí Codolar, 45, 49, 08902 L'Hospitalet de Llobregat, Barcelona;3.4;79;Supermercado;41.3683959;2.1273859;
Caprabo;Constitucion, 46, 08014 Barcelona;3.8;31;Supermercado;41.3698897;2.1342572;
DIA;Rambla de Badal, 43, 08014 Barcelona;3.6;180;Supermercado;41.3674955;2.1158991;
Supermercado Consum Barcelona Juan Bravo;Carrer de Juan Bravo, 8, 10, 08014 Barcelona;4.1;312;Supermercado;41.3713543;2.136149;
Condis Supermercats;Carrer de Gavà, 21-23, 08014 Barcelona;3.9;135;Supermercado;41.3718168;2.1388874;
Supercor Exprés;Carrer Santa Eulàlia, 32, 08902 L'Hospitalet de Llobregat, Barcelona;3.8;105;Supermercado;41.3676665;2.1275163;
Caprabo;Ll Barcelona ES, Santa Eulàlia, 08902 Buenos Aires;3.4;149;Supermercado;41.3676745;2.1275163;
Caprabo;Carrer de Buenos Aires, 43, 08902 Barcelona;5.0;3;Supermercado;41.3656884;2.1282055;
Bonpreu;Av, Gran Via de les Corts Catalanes, 192 bis, 08004 Barcelona;4.3;349;Supermercado;41.3683559;2.138498;
Condis Supermercats;Carrer de Carreras i Candi, 101, 08028 Barcelona;4.0;143;Supermercado;41.3713551;2.1274835;
Condis Express Supermercats;Calle, Gran Via de les Corts Catalanes, 244, 08001 Barcelona;3.2;71;Supermercado;41.3704088;2.1412181;
Condis el Teu Super;Carrer de la Riera de Tena, 19-29, 08014 Barcelona;3.9;121;Supermercado;41.3713585;2.1313534;
Mercadona;Gran Via de les Corts Catalanes, 181, 191-203, 08014 Barcelona;4.1;1136;Supermercado;41.3713783;2.1247873;
bonÀrea;Rambla de Badal, 86, 08014 Barcelona;3.9;132;Supermercado;41.3695632;2.1308062;
Frutas Del Camp Verduras;Añadir número de teléfono;;;Supermercado;41.3677223;2.1316894;
CondisLife Supermercats;Rambla de Badal, 65, 08014 Barcelona;4.2;245;Supermercado;41.3683462;2.130676;
Supermercados Sorli Sants-Montjuïc;Carrer de Carreras i Candi, 88, 08028 Barcelona;3.8;86;Supermercado;41.3713924;2.1270333;
Supermercats Coaliment;Añadir número de teléfono;2.0;1;Supermercado;41.3730959;2.1376712;
Magoria supermercat - Fruites i verdures;Añadir número de teléfono;3.0;2;Supermercado;41.3695139;2.1368282;
L'Economat Social;Añadir número de teléfono;4.9;39;Tienda de ultramarinos;41.3695601;2.1326578;
CLAREL;Carrer, Rambla de Badal, 49, 51, 08014 Barcelona;2.9;14;Tienda de belleza y salud;41.3676394;2.1310851;
Bufet de Cuina Carol;Carrer de la Constitució, 96, 08014 Barcelona;4.2;122;Tienda de delicatessen;41.3697116;2.1326381;
La Sirena;Gran Via de les Corts Catalanes, 275, 08014 Barcelona;4.1;36;Tienda de ultramarinos;41.3715589;2.1418558;
Basar Jie;Añadir número de teléfono;4.5;2;Supermercado chino;41.3710216;2.1411727;
Lebara;Añadir sitio web;1.8;4;Supermercado;41.368855;2.1252892;
CLAREL;Gran Via de les Corts Catalanes, 228, 08004 Barcelona;;;Tienda de belleza y salud;41.3698473;2.1404543;
Delicias Extremeñas;Av. Francesc Ferrer i Guàrdia, 13, 08038 Barcelona;4.3;8;Tienda de delicatessen;41.368886;2.1444913;
Carrefour BIO;Carrer de Sants, 76, 08014 Barcelona;4.0;49;Supermercado;41.3754887;2.1348767;
DIA;Gran Via de les Corts Catalanes, 290, 292, 08004 Barcelona;3.3;211;Supermercado;41.3719524;2.1435264;
Caprabo;Carrer 26 de Gener de 1641, 7, 08014 Barcelona;3.6;83;Supermercado;41.3737142;2.1391978;
Supermercado Sant Fructuós 8;Añadir número de teléfono;3.7;3;Tienda de ultramarinos;41.3725036;2.1458765;
Mercadona;Gran Via de les Corts Catalanes, 373, 08015 Barcelona;4.1;1447;Supermercado;41.376271;2.1476213;
Supercor Exprés;Carrer de la Creu Coberta, 93, 08014 Barcelona;4.0;132;Supermercado;41.3750915;2.1414358;
Condis el Teu Super;C. del Consell de Cent, 26, 28, 08014 Barcelona;3.5;195;Supermercado;41.3762592;2.1432234;
Condis el Teu Super;Carrer de Sant Germà, 12, 08004 Barcelona;4.1;145;Supermercado;41.3719012;2.1441786;
Caprabo;Carrer del Sant Crist, 37, 08014 Barcelona;3.3;65;Supermercado;41.3745437;2.13655;
DIA;Carrer d'Hostafrancs de Sió, 22, 08014 Barcelona;3.4;103;Supermercado;41.374314;2.1421013;
Caprabo;Carrer de Sant Fructuós, 16, 18, 08004 Barcelona;3.3;34;Supermercado;41.3720914;2.1452996;
Super 24 Horas;Añadir número de teléfono;3.3;4;Supermercado;41.3775089;2.1437433;
Veritas;Gran Via de les Corts Catalanes, 373 - 385, 08015 Barcelona;4.1;138;Supermercado;41.379694;2.150046;
Lidl;C/ Nicaragua, Pça.Jardins de Málaga 29, 08029 Barcelona;4.3;778;Supermercado de descuentos;41.3797099;2.150046;
Caprabo;Carrer de Sants, 71, 08014 Barcelona;3.7;150;Supermercado;41.3752489;2.1352202;
Condis Supermercats;Carrer d'Ermengarda, 12, 08014 Barcelona;3.6;31;Tienda de ultramarinos;41.3761394;2.1394225;
Mini super;Añadir sitio web;3.5;4;Supermercado;41.3789575;2.1353204;
Condis Supermercats;Carrer de Rossend Arús, 16, 08014 Barcelona;4.1;12;Supermercado;41.3731841;2.1351441;
Super Mercats Sant Fructuós;Añadir sitio web;1.0;1;Supermercado;41.3725036;2.1458765;
SUPERMARKET 24H;Añadir sitio web;5.0;5;Supermercado;41.3752842;2.144834;
Autoservei BÓEC Alimentació;Añadir sitio web;;;Supermercado;41.373902;2.1434213;
bonÀrea;Carrer de Vilardell, 35, 08014 Barcelona;4.2;183;Supermercado;41.3747354;2.1427581;
Aldi;Plaça de Joan Pelegrí, 1, 08014 Barcelona;4.3;77;Supermercado de descuentos;41.376205;2.1404567;
singh narain alimentacion;Añadir sitio web;;;Supermercado;41.3739098;2.1433591;
Autoservei El Racó;Añadir sitio web;3.7;3;Supermercado;41.3757223;2.1415818;
Fruits Secs Sàndali;Añadir horario;;;Supermercado;41.3749507;2.1419833;
By Brasil Productos Importados;Carrer de la Creu Coberta, 112, 08014 Barcelona;2.0;1;Tienda de ultramarinos;41.3754156;2.1395813;
Ametller Origen;Añadir sitio web;4.0;59;Tienda de alimentación;41.3754197;2.1408957;
La Sirena;Carrer de l'Àliga, 45, 08014 Barcelona;4.3;19;Tienda de congelados;41.3750396;2.1410607;
Francisca Miarnau Font;Añadir horario;;;Tienda de ultramarinos;41.3749386;2.1416967;
Alimentación Dunav;C.VINT I SIS DE GENER de 1641nº 38, 08014 Barcelona;4.8;18;Tienda de alimentación;41.3748013;2.1393962;
L'Oliveria del Mercat;Añadir sitio web;5.0;3;Tienda de alimentos naturales;41.3749386;2.1416967;
Ibèrics d'Extremadura;Añadir sitio web;;;Tienda de alimentos naturales;41.3749386;2.1416967;
La Nova;Añadir horario;;;Tienda de ultramarinos;41.3921811;2.1415143;
Fruites i Verdures Naima;Añadir número de teléfono;3.7;7;Frutería;41.3755543;2.1417149;
Olives i conserves Merino;Añadir sitio web;4.2;5;Tienda de alimentos naturales;41.3749386;2.1416967;
Carrefour;Avinguda de la Granvia de l’Hospitalet, 75, 08908 L'Hospitalet de Llobregat, Barcelona;4.0;3167;Hipermercado;41.3586257;2.1277927;
CondisLife Supermercats;Passeig de la Zona Franca, 210, 08038 Barcelona;4.1;150;Supermercado;41.3620729;2.1360072;
Condis Express Supermercats;Carrer de l'Energia, 18, 08038 Barcelona;4.0;179;Supermercado;41.3587455;2.1340698;
DIA;PS. DE, Passeig de la Zona Franca, 216, 08038 Barcelona;3.9;81;Supermercado;41.3622961;2.1356023;
Supermercados Sorli Sants-Montjuïc;Carrer de la Mare de Déu de Port, 291, 08038 Barcelona;3.8;174;Supermercado;41.360145;2.1389582;
DIA;Carrer de la Mare de Déu de Port, 375, 08038 Barcelona;3.3;52;Supermercado;41.3908941;2.1232746;
DIA;Passeig de la Zona Franca, 138, 08038 Barcelona;3.5;83;Supermercado;41.3800219;2.1379899;
Bonpreu;Passeig de la Zona Franca, 244, 08038 Barcelona;4.1;295;Supermercado;41.3635953;2.1349754;
Condis el Teu Super;Passeig de la Zona Franca, 168, 08038 Barcelona;3.9;217;Supermercado;41.3598816;2.137341;
Caprabo amb Eroski;Carrer de la Foneria, 14, 08038 Barcelona;3.5;107;Supermercado;41.3596198;2.1349891;
CLAREL;Carrer de la Mare de Déu de Port, 258, 08038 Barcelona;4.3;7;Tienda de belleza y salud;41.3661241;2.1311362;
bonÀrea;Carrer d'Alts Forns, 63, 08038 Barcelona;4.2;184;Supermercado;41.3588488;2.1386869;
Autoservicio Ruiz;Añadir sitio web;4.5;4;Supermercado;41.357501;2.1345303;
Supermercados Sorli Sants-Montjuïc;Carrer de la Mineria, 1, 08038 Barcelona;3.9;329;Supermercado;41.3643226;2.1342912;
Verduras a casa;Añadir número de teléfono;;;Supermercado;41.3594696;2.1375926;
Mini Mart;Carrer de la Mare de Déu de Port, 305, 08038 Barcelona;;;Supermercado;41.3604697;2.1383367;
Supermercados Sorli;Añadir número de teléfono;4.0;17;Tienda de ultramarinos;41.3641322;2.1346026;
Spar minimarket;Añadir número de teléfono;5.0;1;Supermercado;41.3570826;2.1416437;
Supermercados Charter;Passeig de la Zona Franca, 178, 180, 08038 Barcelona;3.0;1;Tienda de alimentación;41.360438;2.1369713;
La Sirena;Passeig de la Zona Franca, 182, 184, 08038 Barcelona;4.2;59;Tienda de congelados;41.3609078;2.136575;
Hamza Alimentacion;Añadir número de teléfono;;;Tienda de ultramarinos;41.3590553;2.1404707;
L'anyada;Mercado de la Marina, Passeig de la Zona Franca, 178, 180, 08038 Barcelona;5.0;1;Tienda de ultramarinos;41.3604306;2.1370065;
Juan Cabestany Balcells;Añadir horario;5.0;2;Tienda de ultramarinos;41.360633;2.1385566;
Pablo Manuel Fernández Bustos;Añadir horario;;;Tienda de ultramarinos;41.3600254;2.1356044;
CLAREL;Carrer de la Mecànica, 17, 08038 Barcelona;3.9;21;Tienda de belleza y salud;41.3590946;2.1354226;
CLAREL;Carrer de la Mare de Déu de Port, 258, 08038 Barcelona;4.3;7;Tienda de belleza y salud;41.3616068;2.1376291;
Frutas y Verdures Xiao;Añadir número de teléfono;4.0;2;Mercado de productos agrícolas;41.3590964;2.138994;
CELLER La Marina;Añadir sitio web;4.9;45;Bodega;41.360826;2.1381423;
Pastisseria Forn Demaspan;Añadir número de teléfono;3.2;6;Panadería;41.3604885;2.1383393;
Mercadona;Passeig de la Zona Franca, 32, 08038 Barcelona;4.1;1264;Supermercado;41.3540956;2.1421985;
Zona Franca 24h;Añadir número de teléfono;3.0;4;Tienda de ultramarinos;41.3531525;2.13976;
con j de origen;Carrer del Plom, 5, 7, 08038 Barcelona;;;Distribuidor de comestibles;41.3521316;2.1338207;
CASA SANTIVERI, S.L.;Añadir número de teléfono;3.7;11;Oficinas de empresa;41.3532478;2.1460963;
Tienda Supercor Stop & Go;Añadir número de teléfono;;;Comercio;41.353047;2.1416384;
Mercadillo Zona Franca;Añadir número de teléfono;3.9;2467;Comercio;41.3523323;2.1344903;
Concept Pa El Pan De Cristal;Añadir número de teléfono;4.4;9;Panadería;41.351288;2.1362905;
Concessionari Mercedes Benz i Smart Autolica;Carrer dels Motors, 146, 08038 Barcelona;4.1;22;Concesionario Mercedes Benz;41.351638;2.1455673;
Rodi Motor Services;Esquina Motores, Passeig de la Zona Franca, 2. Bis, 08038 Barcelona;4.3;311;Taller de reparación de automóviles;41.35079;2.1440855;
Bomari;Plaça del Nou, 3, 08038 Barcelona;4.1;32;Perfumería;41.3532991;2.1389379;
MOTOR LLANSÀ;Passeig de la Zona Franca, 61, 67, 08038 Barcelona;4.3;419;Concesionario Nissan;41.3546158;2.1402462;
Concesionario Ferrari Cars Gallery;Passeig de la Zona Franca, 8, 08038 Barcelona;4.4;112;Concesionario de automóviles;41.3519484;2.1430891;
Concesionario Kia AR Motors;Passeig de la Zona Franca, 6, 08038 Barcelona;4.6;110;Concesionario Kia;41.3516934;2.1432756;
Webycar;Passeig de la Zona Franca, 67, 08038 Barcelona;4.6;153;Compraventa de automóviles;41.3545596;2.1399492;
Concesionario Oficial Hyundai Masterclas - Zona Franca;Passeig de la Zona Franca, 85, 08038 Barcelona;4.2;130;Concesionario Hyundai;41.3555437;2.1398196;
C. Printing Emotions;Carrer del Plom, 20, 08038 Barcelona;5.0;6;Imprenta;41.3523092;2.1361727;
MRW;Carrer del Ferro, 6, 08038 Barcelona;3.4;45;Servicio de mensajería;41.3520141;2.1361244;
Estación de Servicio Repsol;CL, Passeig de la Zona Franca, 35, 08038 Barcelona;3.8;294;Gasolinera;41.353047;2.1416384;
Carrefour Express CEPSA;Avinguda del Paral·lel, 179, 08004 Barcelona;3.8;96;Supermercado;41.3747645;2.1523351;
DIA;Avinguda del Paral·lel, 124, 08015 Barcelona;3.4;185;Supermercado de descuentos;41.3736502;2.155997;
Caprabo;Añadir número de teléfono;3.6;18;Supermercado;41.3729696;2.1681391;
CondisLife el Teu Super;Avinguda del Paral·lel, 93, 08004 Barcelona;4.0;730;Supermercado;41.3747703;2.1624016;
DIA;Avinguda del Paral·lel, 124, 08015 Barcelona;3.4;185;Supermercado de descuentos;41.3752861;2.1599119;
Supermercado Consum;Carrer del Comte Borrell, 9, 08015 Barcelona;4.1;432;Supermercado;41.3757321;2.1623924;
Musa Supermercat;Carrer del Marquès de Campo Sagrado, 9, 08015 Barcelona;4.6;5;Supermercado;41.3758075;2.1616013;
Condis Supermercats;Carrer de Manso, 14, 08015 Barcelona;3.6;61;Supermercado;41.3757056;2.1573597;
DIA;Carrer del Roser, 18, 20, 08004 Barcelona;3.0;41;Supermercado;41.3737813;2.1580783;
Supermercado Alimentación;Añadir número de teléfono;5.0;1;Supermercado;41.3725147;2.1560977;
Fine Food Supermercado S L;Añadir sitio web;3.1;9;Supermercado;41.3727037;2.1582479;
Suma Supermercat;Añadir número de teléfono;3.5;17;Supermercado;41.3726782;2.1583087;
Supermercat Jespac;Avinguda del Paral·lel, 106, 08015 Barcelona;4.3;276;Supermercado;41.3751816;2.1622127;
Condis Supermercats;Carrer d'Elkano, 51, 08004 Barcelona;3.9;125;Supermercado;41.3736984;2.1592813;
Lidl;Carrer de Vila i Vilà, 35, 37, 08004 Barcelona;4.1;1401;Supermercado de descuentos;41.3732224;2.1694757;
Condis Supermercats;Carrer de Ricart, 8-10, 08004 Barcelona;3.6;55;Supermercado;41.3743467;2.156023;
Jespac;Carrer de Jaume Fabra, 7, 9, 08004 Barcelona;4.3;174;Supermercado;41.3745173;2.1579227;
Condis el Teu Super;Carrer de Piquer, 32-36, 08004 Barcelona;3.8;262;Supermercado;41.3731712;2.1673657;
supermercado MUSA express;Carrer del Marquès de Campo Sagrado, 9, 08001 Barcelona;1.5;2;Supermercado;41.3758075;2.1616013;
Suma Supermercat express;Añadir horario;;;Tienda de ultramarinos;41.375847;2.1615933;
Alimentación Ansar S L;Carrer de Margarit, 29, 08004 Barcelona;3.0;1;Supermercado;41.3732888;2.1613685;
Zaki Supermercado;Añadir número de teléfono;;;Tienda de ultramarinos;41.3737081;2.1629067;
Bodega / Pa Usman Supermercat;Añadir número de teléfono;5.0;1;Supermercado;41.3735427;2.164513;
Mian Brothers;Añadir sitio web;5.0;2;Supermercado;41.3723774;2.1598025;
Bona Compra Alimentació Fruites i Verdures;Añadir horario;4.0;1;Tienda de ultramarinos;41.3725009;2.1656246;
Las de Muniente;Añadir horario;;;Supermercado;41.3731795;2.1613253;
Antonio Rodríguez Bermúdez;Añadir horario;;;Tienda de ultramarinos;41.3733868;2.164681;
Polleria Charcuteria Rosa Mari;Añadir sitio web;4.9;26;Tienda de ultramarinos;41.3736248;2.1660724;
Carniceria Ecologica Ca'l Colom;Añadir número de teléfono;5.0;6;Carnicería;41.3730513;2.1603896;
CLAREL;Carrer del Roser, 56-58, 08004 Barcelona;3.6;7;Tienda de belleza y salud;41.3724586;2.1637907;
Terra de Salut;Añadir sitio web;4.8;38;Herbolario;41.372689;2.1647898;
Suma;Carrer de Joan Güell, 80, 08028 Barcelona;4.0;36;Supermercado;41.3799639;2.1307477;
Condis Express Supermercats;Av. de Josep Tarradellas, 11, 08029 Barcelona;3.8;128;Supermercado;41.3818505;2.1399007;
CondisLife Supermercats;Passatge de Serra i Arola, 10, 08028 Barcelona;3.8;146;Supermercado;41.3763355;2.1330799;
Caprabo;Carrer de Joan Güell, 51, 08028 Barcelona;3.8;76;Supermercado;41.3783532;2.1310649;
Supermercat Consum Barcelona Berlín;Carrer de Berlín, 4, 08014 Barcelona;4.1;275;Supermercado;41.3820172;2.1347457;
DIA;Carrer de Joan Güell, 24, 08028 Barcelona;3.6;78;Supermercado;41.377113;2.1320936;
Caprabo;Rambla del Brasil, 85, 08028 Barcelona;3.4;40;Supermercado;41.3777281;2.1271926;
Condis Supermercats;Carrer de Joan Güell, 106, 08028 Barcelona;3.6;104;Supermercado;41.3813179;2.1300973;
Supermarket sants Supermercado;Añadir número de teléfono;3.4;39;Tienda de ultramarinos;41.376358;2.1346789;
Condis Express Supermercats;Plaça del Centre, 9, 08014 Barcelona;2.9;75;Supermercado;41.3822213;2.1335387;
Supermercado Latino Flores;Carrer de Galileu, 48, 08028 Barcelona;4.5;74;Supermercado;41.3770712;2.1334069;
DIA;Rambla del Brasil, 52, 08028 Barcelona;3.0;27;Supermercado;41.3790923;2.1277605;
Mercadona;Mercat de, Carrer de Sant Jordi, 6, 08028 Barcelona;4.0;911;Supermercado;41.374758;2.1315323;
Supermercats Consum;Carrer de Sants, 206, 210, 08028 Barcelona;4.1;393;Supermercado;41.375607;2.1290163;
Condis Express Supermercats;Rambla del Brasil, 32, 08028 Barcelona;3.6;17;Supermercado;41.3773801;2.1279486;
mix markit;Añadir sitio web;4.7;3;Supermercado;41.3790386;2.1340781;
La Cantonada Alimentació Fruites I Verdures;C. de Violant d'Hongria Reina d'Aragó, 149, 08014 Barcelona;5.0;1;Supermercado;41.3804245;2.1323616;
La Tienda Del Barri;Añadir sitio web;;;Tienda de ultramarinos;41.3766478;2.1369055;
Superverd;Carrer de Joan Güell, 89, 08028 Barcelona;4.7;7;Frutería;41.3799884;2.1304833;
Celler de Gelida;Carrer del Vallespir, 65, 08014 Barcelona;4.5;218;Tienda de vinos;41.3801239;2.1343322;
Eurosy Sa Internacional;Añadir horario;;;Tienda de ultramarinos;41.3783114;2.1327872;
Peixateria Fité;Carrer de Galileu, 83, 08028 Barcelona;4.5;27;Pescadería;41.3780047;2.13279;
MILAR BRUNET;Carrer de Galileu, 75, 77, 08028 Barcelona;4.2;76;Tienda de electrodomésticos;41.3777975;2.1328944;
Juguetes Tió Sam Galileu;Carrer de Galileu, 106, 08028 Barcelona;4.4;191;Juguetería;41.37899;2.1324863;
FastControl Plagas;Carrer del Vallespir, 30b, 08014 Barcelona;4.3;220;Empresa de fumigación y control de plagas;41.379102;2.1352253;
Carrefour Market;Carrer de Sants, 303, 08028 Barcelona;3.9;1386;Supermercado;41.3754608;2.1261388;
COVIRAN;Añadir horario;5.0;3;Supermercado;41.3773177;2.1173338;
Supermercados Charter;Carretera de Collblanc, 10, 08903 L'Hospitalet de Llobregat, Barcelona;3.8;262;Supermercado;41.3760543;2.1188854;
Suma;Carrer de la Riera Blanca, 54, 08903 Barcelona;3.7;28;Supermercado;41.3738408;2.1217705;
Coaliment 24h;Travessera de les Corts, 26, 08903 Barcelona;2.9;9;Supermercado;41.3766649;2.1173027;
Supermercado Consum Barcelona Av. Madrid, 46;Av. de Madrid, 46, 48, 08028 Barcelona;4.1;322;Supermercado;41.3772643;2.1234888;
Condis Supermercats;Av. de Madrid, 72, 08028 Barcelona;3.3;182;Supermercado;41.3779263;2.124652;
DIA;Carrer de Milà i Fontanals, 82, 08012 Barcelona;3.5;27;Supermercado;41.4027726;2.1518954;
DIA;Carrer de la Conca de Tremp, 57, 59, 08032 Barcelona;4.0;77;Supermercado;41.4028474;2.1256308;
Caprabo;Av. de Madrid, 5, 7, 08028 Barcelona;3.2;43;Supermercado;41.3760726;2.1209024;
Caprabo;Carrer de Sant Frederic, 23, 08028 Barcelona;3.4;87;Supermercado;41.3729508;2.1253739;
Coviran;Carrer del Doctor Martí Julià, 56, 08903 L'Hospitalet de Llobregat, Barcelona;3.6;12;Supermercado;41.3738186;2.1199459;
Carrefour Express;Cantonada, Travessera De Les Corts Catalanes, 50, Carrer de la Riera Blanca, 2, 08903 L'Hospitalet de Llobregat, Barcelona;3.6;232;Supermercado;41.3776463;2.1189866;
Coviran;Carrer de la Riera Blanca, 124, 08903 L'Hospitalet de Llobregat, Barcelona;4.5;8;Supermercado;41.3711243;2.1257508;
Caprabo;Carrer de Sants, 300, 304, 08028 Barcelona;3.5;134;Supermercado;41.3757455;2.1235529;
Suma;Carrer Francesc Layret, 17, 08903 L'Hospitalet de Llobregat, Barcelona;3.3;20;Supermercado;41.3757653;2.1169868;
Condis Supermercats;Carrer de la Riera Blanca, 77-79, 08028 Barcelona;3.8;38;Supermercado;41.3728301;2.1235739;
DIA;Avinguda d'Isabel la Catòlica, 111, 113, 08906 L'Hospitalet de Llobregat, Barcelona;3.8;162;Supermercado;41.3727001;2.1011525;
DIA;Carrer de la Riera Blanca, 53-55, 08034 Barcelona;2.1;17;Supermercado;41.3727389;2.0880203;
Lidl;Rambla de Badal, 151, 08028 Barcelona;3.8;1445;Supermercado de descuentos;41.3741851;2.128415;
Eurocity;Añadir número de teléfono;4.2;213;Supermercado;41.375634;2.1272473;
Rastro Remar;Añadir número de teléfono;4.0;4;Organización sin ánimo de lucro;41.3756689;2.1119264;
Heineken;Añadir número de teléfono;;;Supermercado;41.3727409;2.1249133;
Alimentació Llopart;Añadir horario;4.5;4;Supermercado;41.3735787;2.1243664;
La Sirena;Carrer de Carreras i Candi, 3, 7, 08028 Barcelona;4.0;37;Tienda de congelados;41.3752939;2.1241691;
Productos Gastronómicos Exclusivos;Añadir horario;;;Tienda de ultramarinos;41.3739931;2.1261537;
Pesca Salada i Xarcuteria;Añadir sitio web;5.0;6;Tienda de ultramarinos;41.375772;2.1242503;
CLAREL;Carrer de Sants, 334, 336, 08028 Barcelona;4.3;10;Tienda de belleza y salud;41.3757335;2.1219995;
CLAREL;Rambla de Badal, 157, 159, 08028 Barcelona;2.1;18;Tienda de belleza y salud;41.3746187;2.1281646;
Bona Fruita Busquets - Sants;Añadir sitio web;4.0;33;Frutería;41.3756697;2.125718;
Wolala Sants;Carrer de Sants, 254, 08028 Barcelona;4.5;33;Tienda de artículos para el hogar;41.3756662;2.1259777;
Restaurant Ametller Origen Commons - World Trade Center;World Trade Center, Moll de Barcelona, Local 26, 08039 Barcelona;3.9;92;Restaurante;41.3718204;2.1793873;
Neomarket;Añadir horario;1.0;3;Supermercado;41.3312519;2.1127422;
Mercados De Abastecimientos De Barcelona S A;Añadir horario;;;Supermercado;41.3344989;2.1155359;
海鲜批发市场;Añadir número de teléfono;;;超市;41.3330232;2.1129031;
Fruterías tony;Añadir número de teléfono;;;Supermercado;41.3296104;2.1187997;
Supermercados Charter;POLÍGONO IND. ZONA FRANCA, CARRER 29 DEL BZ, 50-62, 08040 Barcelona;3.7;6;Tienda de alimentación;41.3360965;2.1289958;
Coaliment Granollers S.A.;Añadir horario;4.5;2;Supermercado;41.3307018;2.1107966;
Cultivar Mercabarna Venta;Añadir número de teléfono;4.3;4;Supermercado;41.331934;2.1170323;
banaprim;Añadir número de teléfono;;;Supermercado;41.3307186;2.1197827;
Patatas Naturales S L;Añadir horario;;;Supermercado;41.3312155;2.1138231;
Víctor i Mercé 6001;Añadir número de teléfono;;;Supermercado;41.330983;2.1163894;
Spain France;Añadir número de teléfono;5.0;1;Supermercado;41.3306214;2.1194272;
Marina Bcn Distribucions,sl;Añadir sitio web;2.0;1;Supermercado;41.3279114;2.1192388;
Interfrost S A;Añadir horario;;;Supermercado;41.3306904;2.1128466;
Fruits CMR Almacenes Mercabarna;Añadir sitio web;5.0;7;Supermercado;41.3316234;2.114097;
Ad log;Añadir número de teléfono;;;Supermercado;41.329304;2.1163826;
Siemprecerca s.a;Añadir número de teléfono;;;Tienda de ultramarinos;41.3347072;2.1142228;
Romantics mimos de fruta;Añadir número de teléfono;;;Tienda de ultramarinos;41.327849;2.1163393;
Fumats I Congelats;pavello polivalemt, Mercabarna, Carrer Longitudinal 7, 08040 Barcelona;3.9;15;Tienda de ultramarinos;41.3298974;2.117142;
Frimercat 2;Añadir número de teléfono;;;Tienda de ultramarinos;41.3329588;2.1143387;
Bon Preu;Añadir número de teléfono;5.0;1;Pastelería;41.3307018;2.1107966;
Gm Fuel Stations Zona Franca;Calle 29 de la Zona Franca 50-62, 08040 Barcelona;4.4;111;Gasolinera;41.3361652;2.1288291;
Confortauto Neumáticos Soledad Zona Franca Taller y Estación de servicio;carrer 3 amb carrer 28, 08040 Barcelona;4.5;118;Tienda de neumáticos;41.3369334;2.1264016;
La Sirena;Añadir número de teléfono;4.4;16;Supermercado;41.4069332;2.1728563;
Bsm Super Mercat;Añadir número de teléfono;;;Supermercado;41.4063943;2.1737921;
Son Para Vos;Añadir sitio web;4.7;3;Supermercado;41.4065104;2.1752152;
Supermercat;Carrer de Padilla, 276, 08025 Barcelona;4.0;1;Tienda de ultramarinos;41.4065144;2.1752152;
Mercat Fresh Padilla;Añadir número de teléfono;5.0;1;Tienda de ultramarinos;41.4065123;2.1748499;
Tot Ibèrics;Añadir sitio web;4.7;46;Tienda de ultramarinos;41.405874;2.1760715;
CLAREL;Carrer de Padilla, 254, 08013 Barcelona;4.1;12;Tienda de belleza y salud;41.4063501;2.1756356;
Moniberic;Añadir número de teléfono;4.2;9;Delicatessen;41.4058779;2.1760614;
Drim;Carrer de Provença, 469, 08025 Barcelona;2.7;18;Juguetería;41.4057335;2.174865;
Fruites Ginesta Blanch S L;Añadir horario;;;Frutería;41.405893;2.1756652;
Miró Electrodomésticos Sagrada Familia;Carrer de Mallorca, 435, 08013 Barcelona;3.6;76;Tienda de electrónica;41.4051751;2.1762306;
Carrefour Market;Passeig de Manuel Girona, 51, 08034 Barcelona;3.9;600;Supermercado;41.3921773;2.124102;
DIA;Carrer de Santa Amèlia, 47, 08034 Barcelona;3.6;24;Supermercado;41.3997072;2.133943;
Condis Supermercats;Carrer de Trias i Giró, 15-19, 08034 Barcelona;3.8;166;Supermercado;41.3864963;2.1112909;
Caprabo;Passeig de Sant Joan Bosco, 45, 47, 08017 Barcelona;3.3;57;Supermercado;41.3943864;2.1252202;
Supermercado Consum Barcelona Travessera de les Corts;Travessera de les Corts, 230, 08028 Barcelona;3.9;184;Supermercado;41.384848;2.1299643;
CondisLife Supermercats;Carrer d'Europa, 18, 08028 Barcelona;4.0;122;Supermercado;41.3869438;2.1274731;
Caprabo;Carrer de Ricardo Villa, 2, 08017 Barcelona;3.2;44;Supermercado;41.3932235;2.1305041;
Super Mercado 24H;Añadir sitio web;;;Supermercado;41.3948816;2.1312191;
Supermercados Charter;Carrer de Santa Amèlia, 31, 08034 Barcelona;4.3;60;Supermercado;41.3940027;2.1213623;
Condis Shop;Av. d'Esplugues, 103, 08034 Barcelona;3.9;21;Supermercado;41.392893;2.1094223;
Caprabo;Avinguda Diagonal, 545, 08029 Barcelona;3.9;507;Supermercado;41.3892213;2.1316696;
Caprabo;Passeig de Claudi Güell, 9, 08034 Barcelona;3.7;21;Supermercado;41.391268;2.1190842;
Carrefour Express;Carrer dels Caponata, 10, 12, 08034 Barcelona;4.2;62;Supermercado;41.3957972;2.1196168;
Supermercado Fruta I Verdura;Añadir sitio web;2.3;6;Supermercado;41.3959462;2.1270088;
Veritas;Travessera de les Corts, 271, 08011 Barcelona;3.9;134;Supermercado;41.3860412;2.1312117;
Spar;Travessera de les Corts, 311, 08029 Barcelona;3.9;15;Supermercado;41.3878388;2.1344611;
Condis Express Supermercats;Calle, Gran Via de Carles III, 47-49, 08028 Barcelona;3.3;98;Supermercado;41.3825977;2.1255298;
Supermercado Consum Barcelona Lluçà;Carrer de Lluçà, 19, 08028 Barcelona;4.0;243;Supermercado;41.3826835;2.1282208;
Supercor Exprés;Carrer del Capità Arenas, 25, 08034 Barcelona;3.9;126;Supermercado;41.3909492;2.1234789;
Supermercado El Corte Inglés Diagonal;08028 Barcelona;4.1;82;Supermercado;41.390969;2.1169128;
Condis Supermercats;i Bosch, Carrer de Dolors Masferrer, 22, 08028 Barcelona;3.7;18;Supermercado;41.3852959;2.1262498;
Condis Express Supermercats;Carrer del Dr. Ferran, 43, 08034 Barcelona;3.2;5;Supermercado;41.3902005;2.121816;
Supermercados Champion S A;Añadir sitio web;;;Supermercado;41.3917875;2.124099;
Super B;Añadir sitio web;4.0;4;Supermercado;41.385579;2.1240778;
Fruta Fresca;Añadir número de teléfono;4.0;2;Supermercado;41.3898756;2.1184896;
L’Ecològic;Añadir sitio web;5.0;1;Supermercado;41.3900708;2.1212704;
Charcutería Activa S.L.;Añadir horario;;;Tienda de ultramarinos;41.3919177;2.1245872;
El Corte Inglés Diagonal;Avinguda Diagonal, 617, 08028 Barcelona;4.1;17149;Grandes almacenes;41.3878509;2.1257733;
Lindt;Avinguda Diagonal, 617, 08028 Barcelona;4.2;125;Tienda de productos de chocolate;41.387805;2.1258503;
Coaliment;Añadir número de teléfono;4.2;6;Comercio;41.3903449;2.1221804;
TERREAZUR - GROUPE POMONA;Carrer de Manila, 54, 08034 Barcelona;5.0;1;Proveedor mayorista de alimentos;41.390018;2.1247873;
El Corte Inglés Diagonal;Avinguda Diagonal, 617, 08028 Barcelona;4.1;17149;Grandes almacenes;41.390026;2.1247873;
Barça Store Camp Nou;C. d'Arístides Maillol, s/n, 08028 Barcelona;4.5;2698;Tienda de deportes;41.3802312;2.1186355;
Churrería - La Xurre;C. d'Arístides Maillol, 2, 08028 Barcelona;4.7;15;Churrería;41.3786422;2.119614;
Farmàcia Meresman Horisberger;Añadir sitio web;5.0;8;Farmacia;41.3789422;2.1114468;
Farmàcia Camp Nou Llic. Ana Salcedo Pujantell;Añadir sitio web;5.0;7;Farmacia;41.3784574;2.1177807;
Palau Blaugrana;Av. de Joan XXIII, s/n, 08028 Barcelona;4.5;3600;Polideportivo;41.3800555;2.1179432;
Fairmont Barcelona Rey Juan Carlos I;Cargadores de vehículos eléctricos;4.5;2775;;41.3812751;2.1064984;
CaixaBank;Av, C. d'Arístides Maillol, S-N, 08028 Barcelona;3.3;3;Banco;41.3787774;2.1187399;
Caprabo;Reina Elsenda, 9, 11, 08034 Barcelona;2.8;136;Supermercado;41.3992413;2.117748;
Condis Supermercats;Carrer de Bonaplata, 54, 08034 Barcelona;3.5;70;Supermercado;41.3958957;2.122287;
Caprabo;Passatge de Senillosa, 8, 10, 08034 Barcelona;3.3;247;Supermercado;41.3953285;2.1221435;
Veritas;Passatge de Senillosa, 3, 08034 Barcelona;3.8;63;Supermercado;41.3956007;2.1228403;
Superservis;Carrer Major de Sarrià, 85, 08017 Barcelona;3.9;30;Supermercado;41.3990725;2.1198696;
Veritas;Gran Via de Carles III, 55, 08028 Barcelona;4.0;90;Supermercado;41.3833225;2.1250115;
Bonpreu;Gran Via de Carles III, 59, 63, 08028 Barcelona;4.5;429;Supermercado;41.3833582;2.1252841;
bonÀrea;Carrer del Pedró de la Creu, 39, 08034 Barcelona;4.1;169;Supermercado;41.3973329;2.1195317;
Aldi;Passeig de Sant Joan Bosco, 45, 08017 Barcelona;4.2;217;Supermercado de descuentos;41.3943664;2.1252645;
coaliment supermercado;Añadir sitio web;;;Supermercado;41.3927811;2.1232985;
Supermercado Badulaque;Añadir sitio web;3.5;25;Tienda de alimentación;41.3874273;2.1116374;
Asturias Supermercados;Añadir sitio web;3.8;73;Supermercado;41.4036151;2.1475335;
DIA;Ronda del General Mitre, 185, 08023 Barcelona;3.4;69;Supermercado;41.4049269;2.1393739;
Supermercado Consum Barcelona Vallcarca;Avinguda de Vallcarca, 34, 08023 Barcelona;4.0;305;Supermercado;41.4091256;2.1463037;
Caprabo;Carrer d'Escipió, 22, 08023 Barcelona;4.0;181;Supermercado;41.4072262;2.1430891;
Caprabo;Ronda del General Mitre, 154, 08006 Barcelona;3.8;64;Supermercado;41.4038215;2.1376187;
Condis Express Supermercats;Avinguda de Vallcarca, 40, 08023 Barcelona;3.6;91;Supermercado;41.4094255;2.1459857;
Caprabo;Avinguda de la Riera de Cassoles, 37, 08012 Barcelona;3.5;38;Supermercado;41.4043695;2.1479708;
Jespac;Avinguda de la República Argentina, 179, 08023 Barcelona;4.3;99;Supermercado;41.4115031;2.1400348;
SUPER STORE (Proxim Balmes);Añadir sitio web;3.6;7;Supermercado;41.4037991;2.1398848;
DIA;Avinguda de la República Argentina, 31, 08023 Barcelona;3.9;112;Supermercado;41.4082603;2.1450729;
Caprabo;Carrer de Moragas, 15, 08022 Barcelona;3.7;121;Supermercado;41.408119;2.1344613;
Supercor Exprés;Carrer de Balmes, 418, 08022 Barcelona;3.8;96;Supermercado;41.4069691;2.1366048;
Caprabo;Avinguda de la República Argentina, 30, 32, 08023 Barcelona;3.2;103;Supermercado;41.4086228;2.1450981;
Condis Express Supermercats;Carrer de Balmes, 466, 08022 Barcelona;3.5;23;Supermercado;41.409934;2.1354413;
SUPERMERCAT;Añadir número de teléfono;4.0;3;Supermercado;41.4099538;2.1288752;
Supermercats Rapid;Añadir número de teléfono;2.8;5;Tienda de ultramarinos;41.4042815;2.1477069;
Jespac;Carrer d'Arimon, 11, 08022 Barcelona;4.2;100;Supermercado;41.4045177;2.134959;
Condis Supermercats;Carrer Mare de Déu del Carmel, 18, 08022 Barcelona;2.9;13;Supermercado;41.4111021;2.1374988;
Superservis;Carrer de Vallirana, 21, 08006 Barcelona;4.0;110;Supermercado;41.4034556;2.1464055;
SUPERMARKET VERONICA;Añadir número de teléfono;3.5;4;Supermercado;41.4070602;2.1468644;
Proxim;Añadir número de teléfono;3.0;1;Supermercado de descuentos;41.4054043;2.1425212;
Supermercado América;Carrer de l'Amistat, 28, 08005 Barcelona;5.0;2;Supermercado;41.4054674;2.1096906;
TAHIR JAVED;Añadir número de teléfono;;;Supermercado;41.4093783;2.1436348;
Eurostar;Añadir número de teléfono;5.0;2;Supermercado;41.4093981;2.1370687;
Carnisseria Montserrat;Avinguda de la República Argentina, 28, 08023 Barcelona;4.6;32;Carnicería;41.4084679;2.1452252;
Superverd;Avinguda de la República Argentina, 59, 61, 08023 Barcelona;4.1;37;Frutería;41.4094309;2.1442179;
Suma Supermercats;Carrer de Granados, 125, 08017 Barcelona;3.3;23;Supermercado;41.4063781;2.1141656;
Condis Express Supermercats;Calle, Via Augusta, 290, 08017 Barcelona;3.2;71;Supermercado;41.3979755;2.1273317;
Condis el Teu Super;PI De la, Pg. de la Bonanova, 57, 08017 Barcelona;3.9;41;Supermercado;41.4036083;2.1263031;
Fruites i Verdures Grup Dylan;Añadir horario;4.0;7;Supermercado;41.4029608;2.1249167;
Super Mercat;Añadir número de teléfono;;;Supermercado;41.3947402;2.1276754;
Organic Market Sarrià;Carrer del Pedró de la Creu, 24, 08034 Barcelona;4.0;248;Supermercado;41.3978317;2.1201536;
Superestalvi Sarrià;Passeig de la Reina Elisenda de Montcada, 8, 08034 Barcelona;;;Supermercado;41.3998767;2.1184881;
Fernando Casadejust Roig;Añadir horario;;;Tienda de ultramarinos;41.3995547;2.1196337;
Forn de pa Sarrià;Añadir sitio web;4.4;41;Panadería;41.3992502;2.1198858;
Rocío Discount;Añadir sitio web;4.3;7;Supermercado;41.3993037;2.1212415;
Supermercat Mestres;Añadir número de teléfono;;;Tienda de ultramarinos;41.3990615;2.119902;
Ametller Origen;Pg. de la Bonanova, nº 96, 08017 Barcelona;4.9;8;Tienda de alimentación;41.4012226;2.1212864;
KCH Supermarket;Passeig de la Reina Elisenda de Montcada, 7, 08034 Barcelona;;;Tienda de ultramarinos;41.3994441;2.1181506;
Rocío Discount;Añadir horario;4.2;6;Tienda de ultramarinos;41.4005394;2.1187263;
Escofet Oliver;Carrer Major de Sarrià, 89, 08017 Barcelona;3.7;18;Carnicería;41.3991707;2.1197557;
General Store;Añadir horario;;;Tienda de delicatessen;41.3988841;2.1206856;
Mercat de Sarrià;Passeig de la Reina Elisenda de Montcada, 8, 08034 Barcelona;4.1;456;Mercado de alimentos frescos;41.399795;2.1178424;
ProductoGastronomico;Carrer Major de Sarrià, 131, 08017 Barcelona;;;Tienda de delicatessen;41.4014993;2.1176364;
PicnicBCN;Carrer Major de Sarrià, 131, 08017 Barcelona;5.0;11;Tienda de delicatessen;41.4014993;2.1176364;
freefood;Carrer de Salvador Mundí, 2, 08017 Barcelona;4.9;17;Tienda de alimentos orgánicos;41.3991138;2.1201929;
Bokiva;Añadir sitio web;4.3;26;Yogurtería;41.3995158;2.117886;
Cookiteca Sarrià;Carrer Major de Sarrià, 74, 08017 Barcelona;4.4;14;Tienda de artículos de cocina;41.3983889;2.1201464;
Supermercado Consum Barcelona República Argentina;Avinguda de la República Argentina, 267, 08023 Barcelona;4.2;307;Supermercado;41.4132568;2.1365225;
Caprabo;Carrer de Bigai, 6, 08022 Barcelona;3.5;98;Supermercado;41.4049618;2.1307351;
Coaliment;Añadir número de teléfono;3.7;10;Supermercado;41.4037469;2.1313095;
DIA;Carrer de Craywinckel, 20, 08022 Barcelona;3.5;48;Supermercado;41.4118438;2.1366991;
CondisLife el Teu Super;Avinguda de la República Argentina, 257, 08023 Barcelona;4.0;283;Supermercado;41.4128105;2.1368185;
DIA;Carrer de Mandri, 33-35, 08022 Barcelona;3.9;14;Supermercado;41.4034984;2.1313741;
Carrefour Express CEPSA;Ronda del General Mitre, 128, 08021 Barcelona;3.8;67;Supermercado;41.4024818;2.1357175;
Bonpreu;Avinguda de la República Argentina, 238, 08023 Barcelona;4.1;584;Supermercado;41.4127218;2.1378995;
Caprabo;Carrer de Muntaner, 470, 474, 08021 Barcelona;3.0;68;Supermercado;41.4023876;2.1366276;
Veritas;Carrer de Mandri, 15, 08022 Barcelona;4.3;35;Supermercado;41.4022927;2.1325038;
bonÀrea;Carrer de Bigai, 4, 08022 Barcelona;4.1;98;Supermercado;41.404814;2.1306813;
Mercadona;Carrer de Sant Gervasi de Cassoles, 103, 08022 Barcelona;4.0;1691;Supermercado;41.406554;2.1323524;
Supermercados Sorli Sant Gervasi;Passeig de Sant Gervasi, 6-8, 08022 Barcelona;4.0;40;Supermercado;41.4073642;2.1320958;
Jespac;Carrer de Rosa Sabater, 1, 08022 Barcelona;4.6;68;Supermercado;41.4077032;2.1348235;
Superficies de Alimentación S.A.;Añadir horario;;;Supermercado;41.4073642;2.1320958;
Rosa Estrella Gourmet;Passeig de Sant Gervasi, 51, 08022 Barcelona;4.2;97;Supermercado;41.4104423;2.1351891;
Plusfresc Teodora Lamadrid;Carrer de Teodora Lamadrid, 21, 08022 Barcelona;4.4;116;Comercio;41.4063898;2.1350015;
Dani Super Mercat;Añadir número de teléfono;;;Tienda de ultramarinos;41.4085404;2.1322499;
Colmado;Añadir horario;3.7;9;Tienda de ultramarinos;41.4085602;2.1256838;
Pons, María;Añadir número de teléfono;4.0;1;Tienda de ultramarinos;41.40656;2.1227429;
Plaça de la Bonanova, 5;C44M+JP Barcelona;;;;41.4065731;2.1320895;
Sushifresh;Ronda del General Mitre, 169, local 1, 08022 Barcelona;4.5;972;Restaurante de sushi;41.4042072;2.104868;
Daniel Omar Bottini;Añadir sitio web;;;Tienda de ultramarinos;41.4048279;2.1472621;
CLAREL;Carrer de Teodora Lamadrid, 18, 08022 Barcelona;5.0;1;Tienda de belleza y salud;41.4065399;2.1350826;
Fruites Diaz;Añadir número de teléfono;5.0;2;Frutería;41.406581;2.1321047;
El Rebost de la Bonanova;Carrer de Muntaner, 560, 08022 Barcelona;4.0;2;Tienda de delicatessen;41.4058593;2.1323313;
Pastas Artesanas Elio Costanzo;Añadir sitio web;4.6;5;Tienda de pasta;41.408053;2.1325803;
Rosa Estrella Tasty House;Passeig de Sant Gervasi, 51, 53, 08022 Barcelona;5.0;5;Tienda de delicatessen;41.4104253;2.1351189;
Simonetta - Recetas de pasta fresca;Añadir sitio web;5.0;1;Tienda de pasta;41.408053;2.1325807;
KCH;Añadir horario;5.0;1;Frutería;41.406338;2.1320371;
DIA;Carrer de Laforja, 12-14, 08006 Barcelona;3.3;28;Supermercado;41.3997072;2.1393086;
Caprabo;Travessera de Gràcia, 72, 08006 Barcelona;3.8;126;Supermercado;41.3970892;2.1491261;
Caprabo;Carrer de Santaló, 13, 08021 Barcelona;4.4;9;Supermercado;41.394885;2.1444286;
Condis Express Supermercats;Avinguda Príncep d'Astúries, 4, 08012 Barcelona;3.8;35;Supermercado;41.4017159;2.1489602;
Caprabo;Carrer De Descartes, 26, 28, 08021 Barcelona;3.1;65;Supermercado;41.3990695;2.1389661;
Caprabo;Carrer de Calvet, 41, 45, 08021 Barcelona;3.4;80;Supermercado;41.395527;2.1399529;
Condis Express Supermercats;Carrer de Copèrnic, 47-49, 08006 Barcelona;3.3;46;Supermercado;41.400801;2.1378831;
Caprabo;C/ dels Madrazo, 100, 08021 Barcelona;3.7;81;Supermercado;41.3972856;2.1424906;
Mercadona;Carrer d'Aribau, 240, 08006 Barcelona;4.1;2393;Supermercado;41.3957192;2.1478337;
Veritas;Carrer del Mestre Nicolau, 19, 08021 Barcelona;4.4;130;Supermercado;41.3942698;2.1405723;
CondisLife Supermercats;Carrer de Prats de Molló, 2, 08021 Barcelona;4.2;192;Supermercado;41.4012877;2.1346111;
Supercor Exprés;Carrer de Santaló, 147, 08021 Barcelona;3.8;46;Supermercado;41.4002491;2.1376857;
DIA;Carrer de Laforja, 12-14, 08006 Barcelona;3.3;28;Supermercado;41.3980605;2.1507295;
DIA;Carrer de Marià Cubí, 166, 08021 Barcelona;3.7;16;Supermercado;41.395584;2.1428513;
Supermercados Sorli Sant Gervasi;Carrer de Balmes, 264, 08006 Barcelona;3.6;42;Supermercado;41.400572;2.1466342;
Supermercado Consum Barcelona María Cubí;Carrer de Marià Cubí, 70, 08006 Barcelona;4.2;137;Supermercado;41.397846;2.1466003;
Condis el Teu Super;C/ dels Madrazo, 86-88, 08012 Barcelona;3.8;41;Supermercado;41.3981431;2.1438924;
Suma;Carrer d'Aribau, 272, 08006 Barcelona;;;Supermercado;41.3975078;2.1457122;
Supermercat Coaliment;Añadir número de teléfono;2.9;21;Supermercado;41.3947769;2.1454884;
Supermercat;Añadir sitio web;4.0;2;Supermercado;41.3964319;2.1379301;
Spar Supermercado;Añadir número de teléfono;;;Supermercado;41.3899856;2.1354658;
Plusfresc Via Augusta;Via Augusta, 188, 08006 Barcelona;4.5;321;Supermercado;41.3984493;2.139578;
Euro Supermercat;Añadir número de teléfono;4.0;4;Supermercado;41.3961134;2.1445018;
Vilma;Añadir sitio web;4.6;7;Supermercado;41.3988651;2.1441024;
Kibom;Carrer d'Aribau, 308, 08006 Barcelona;4.6;118;Tienda de ultramarinos;41.3990403;2.1439348;
Condis El Teu Super;Añadir número de teléfono;;;Supermercado;41.3963949;2.1398817;
Drogueria Rovira;C/ dels Madrazo, 127, 08021 Barcelona;4.2;27;Supermercado;41.3969202;2.142554;
Ametller Origen;Via Augusta, 168, 08006 Barcelona;4.2;62;Tienda de alimentación;41.3990815;2.1409701;
asad abbas;Añadir horario;;;Tienda de ultramarinos;41.3974251;2.1412132;
La Sirena;Carrer de Laforja, 75, 08021 Barcelona;4.3;43;Tienda de congelados;41.3965528;2.1433883;
BenBen Kosher House;Carrer d'Aribau, 257, 08021 Barcelona;4.3;141;Restaurante kosher;41.3987814;2.1438625;
La Despensa de Laforja;Carrer de Laforja, 80, 08021 Barcelona;4.4;120;Tienda de ultramarinos;41.3974012;2.1446391;
bonÀrea;Carrer de Laforja, 81, 08021 Barcelona;4.3;92;Comercio;41.3960759;2.1426335;
JaponMarket;Carrer de Muntaner, 326, 08021 Barcelona;3.7;67;Comida a domicilio;41.3976168;2.1428832;
CaixaBank Store;Carrer de Santaló, 69, 08021 Barcelona;3.3;7;Banco;41.3973558;2.1413399;
Supermercado Consum Barcelona Via Augusta;Via Augusta, 256, 08017 Barcelona;4.1;345;Supermercado;41.3979689;2.1321169;
Caprabo;Carrer de Sant Màrius, 52, 54, 08022 Barcelona;3.7;157;Supermercado;41.4021825;2.133541;
El Teu súper 24H;Añadir número de teléfono;;;Supermercado;41.394895;2.1312184;
EL TEU SÚPER 24H;Añadir número de teléfono;;;Supermercado;41.3949666;2.1312484;
Cs Establiments De Proximitat S L;Añadir sitio web;3.5;2;Supermercado;41.4012877;2.1346111;
Rocio Discount;Añadir sitio web;4.3;3;Supermercado;41.402037;2.1257141;
Mercè;Añadir horario;3.0;1;Tienda de ultramarinos;41.3999243;2.1290881;
Eusebia Sierra Hurtado;Añadir horario;5.0;2;Tienda de ultramarinos;41.3971055;2.12684;
Natura Fruits Vergòs;Carrer dels Vergós, 6, 08017 Barcelona;4.5;6;Frutería;41.3997995;2.1286835;
CondisLife el Teu Super;Carrer dels Reis Catòlics, 1-3, 08017 Barcelona;3.8;240;Supermercado;41.4137059;2.1018292;
Cooperativa Santa Rosalia;Añadir sitio web;4.7;93;Tienda de ultramarinos;41.4345564;2.089181;
Enrique Tomás JAMON-TAPAS-VINO;Añadir horario;2.1;18;Jamonería;41.4215864;2.1175061;
Estanco tabaco;Añadir número de teléfono;;;Tienda de ultramarinos;41.4128981;2.1024519;
El Súper de Sant Genís;Añadir sitio web;4.6;14;Tienda de alimentación;41.4280875;2.1313942;
Ben & Jerry's;Añadir sitio web;3.9;14;Heladería;41.4220367;2.1175115;
ThermIQ España;Añadir horario;;;Centro de formación;41.4162075;2.1061308;
Carrefour Express;Carrer de l'Or, 48, 08012 Barcelona;4.2;26;Supermercado;41.4049586;2.1557478;
DIA;Carrer de Milà i Fontanals, 82, 08012 Barcelona;3.5;27;Supermercado;41.3997072;2.1393086;
Condis Supermercats;Carrer d'Astúries, 68, 08024 Barcelona;2.9;52;Supermercado;41.404696;2.1544131;
DIA;Carrer Gran de Gràcia, 103, 08012 Barcelona;3.6;115;Supermercado;41.4009318;2.1514877;
Condis Express Supermercats;Plaça Revolució de Setembre 1868, 12, 08012 Barcelona;2.4;7;Supermercado;41.4026626;2.1557418;
DIA;Travessera de Gràcia, 224, 226, 08024 Barcelona;3.1;81;Supermercado;41.4049885;2.1595605;
Caprabo;Carrer de Bellver, 5, 7, 08012 Barcelona;3.7;141;Supermercado;41.4059196;2.1512558;
Condis Express Supermercats;Carrer del Congost, 32, 08024 Barcelona;3.3;76;Supermercado;41.4065137;2.1567632;
Condis Express Supermercats;Carrer del Torrent d'En Vidalet, 30-36, 08012 Barcelona;3.3;70;Supermercado;41.4040959;2.1572442;
Condis Supermercats;Avinguda Príncep d'Astúries, 26, 08012 Barcelona;3.9;57;Supermercado;41.4029898;2.1480731;
CondisLife Supermercats;Carrer del Torrent de l'Olla, 220, 08012 Barcelona;4.0;694;Supermercado;41.406313;2.1504132;
Condis Express Supermercats;Carrer del Torrent de l'Olla, 180, 08012 Barcelona;3.4;58;Supermercado;41.4045101;2.1525024;
Condis Express Supermercats;Carrer de Puigmartí, 32, 08012 Barcelona;2.6;18;Supermercado;41.4018713;2.1577051;
Carrefour BIO;Travessera de Gràcia, 181, 08012 Barcelona;3.9;112;Supermercado;41.4020335;2.1565149;
Condis Express Supermercats;Carrer del Montseny, 20, 08012 Barcelona;3.1;56;Supermercado;41.4018863;2.1525259;
SPAR;Carrer de Verdi, 34, 08012 Barcelona;3.9;53;Supermercado;41.4040343;2.154601;
Tienda Clarel;Añadir número de teléfono;3.9;18;Supermercado;41.4013444;2.1567337;
Minori;Añadir sitio web;;;Supermercado;41.402244;2.1571713;
Super Meridiana SL;Añadir horario;4.0;2;Supermercado;41.4010441;2.156315;
Tante Emma - comida alemana;Añadir número de teléfono;4.6;19;Tienda de ultramarinos;41.4025254;2.1582808;
Le Regioni d'Italia S.l.;Carrer del Torrent de l'Olla, 119, 08012 Barcelona;3.0;42;Supermercado italiano;41.4026125;2.1542659;
Da Zhong Fu;Añadir sitio web;4.3;36;Supermercado asiático;41.4042633;2.1541944;
ORGANIC MARKET - GRÀCIA;Carrer d'Astúries, 22, 08012 Barcelona;4.2;445;Tienda de alimentos orgánicos;41.4030957;2.1519085;
Supermercats suma;Añadir horario;3.7;9;Tienda de ultramarinos;41.4033782;2.1576219;
Coaliment;Añadir número de teléfono;3.3;4;Tienda de ultramarinos;41.4066049;2.1479116;
Ultramarinos Hnos Guilarte;Añadir horario;;;Tienda de ultramarinos;41.4031832;2.1554698;
Manjares;Carrer del Torrent de l'Olla, 146, 08012 Barcelona;4.7;111;Carnicería;41.4031616;2.1539972;
Delicatessenclub Com;Añadir horario;;;Tienda de ultramarinos;41.4031832;2.1554698;
Tortilleria;Añadir número de teléfono;;;Tienda de ultramarinos;41.4038986;2.1556148;
Calle del Montseny, 43;C534+27 Barcelona;;;;41.4025568;2.1535224;
Condis;Añadir número de teléfono;1.0;1;Panadería;41.4009664;2.1514774;
CAPRABO;Añadir número de teléfono;5.0;2;Supermercado;41.4009979;2.1514774;
DIA;Carrer de los Castillejos, 361, 08025 Barcelona;3.6;58;Supermercado;41.4108513;2.1699688;
Supermercado Consum Barcelona Escorial;Carrer de l'Escorial, 120, 08024 Barcelona;4.0;208;Supermercado;41.4089378;2.1577978;
Caprabo;Carrer de Sicília, 406, 408, 08025 Barcelona;3.4;136;Supermercado;41.4065725;2.1649105;
Bonpreu;Carrer de Sicília, 370, 376, 08025 Barcelona;4.3;560;Supermercado;41.4049065;2.1670311;
DIA;Carrer de Pau Alsina, 64, 08024 Barcelona;3.4;48;Supermercado;41.4094624;2.1609535;
SUMA Supermercat;Carrer de Roger de Flor, 241, 08025 Barcelona;;;Supermercado;41.4027323;2.1649784;
Caprabo;Carrer de l'Encarnació, 86, 88, 08024 Barcelona;3.3;187;Supermercado;41.4074652;2.1597145;
Condis Supermercats;Carrer de Pau Alsina, 65, 08024 Barcelona;3.9;74;Supermercado;41.4093678;2.1607724;
DIA;Carrer del Torrent de les Flors, 132, 08024 Barcelona;3.9;59;Supermercado;41.3997072;2.1393086;
bonÀrea;Travessera de Gràcia, 354, 08024 Barcelona;4.2;381;Supermercado;41.4094682;2.1687449;
Caprabo;Carrer de la Providència, 160, 08024 Barcelona;3.4;144;Supermercado;41.4098334;2.1606883;
Bonpreu;Carrer de Pi i Margall, 22, 24, 08025 Barcelona;4.2;985;Supermercado;41.4066312;2.1613535;
Super Coloma Supermecat;Añadir sitio web;4.7;3;Supermercado;41.4077088;2.1625122;
Veritas;Carrer de Pau Alsina, 37, 39, 08025 Barcelona;4.0;123;Supermercado;41.4079316;2.1623299;
Superficies De Alimentación;Añadir horario;;;Supermercado;41.4075786;2.1609866;
Cermo Supermercat;Añadir número de teléfono;3.6;12;Supermercado;41.4051297;2.1638279;
Veritas;Carrer de Pau Alsina, 37, 39, 08025 Barcelona;4.0;123;Supermercado;41.4079316;2.1623299;
DIA;Carrer de la Conca de Tremp, 57, 59, 08032 Barcelona;4.0;77;Supermercado;41.4079514;2.1557638;
La Sirena;Carrer de Pi i Margall, 46, 08025 Barcelona;4.2;142;Tienda de congelados;41.407813;2.1616236;
Pròxim;Añadir número de teléfono;3.3;3;Tienda de ultramarinos;41.4068506;2.1597294;
lo vencill;Carrer de Ca l'Alegre de Dalt, 14, 08024 Barcelona;4.6;11;Supermercado;41.4076526;2.1605084;
Sense Intermediaris;Añadir horario;4.0;2;Tienda de ultramarinos;41.4078068;2.1612457;
Ametller Origen;31, Carrer de Pi i Margall, 29, 08024 Barcelona;4.1;225;Tienda de alimentación;41.4078023;2.1612347;
CLAREL;Añadir número de teléfono;3.9;18;Tienda de belleza y salud;41.4047877;2.1627023;
Carrefour Express;Carrer de les Camèlies, 10, 12, 08024 Barcelona;3.6;132;Supermercado;41.4107873;2.1566505;
Supermercat Bona Compra;Añadir sitio web;1.8;6;Supermercado;41.4123723;2.1524189;
Caprabo;Carrer de Verdi, 214, 08024 Barcelona;3.6;48;Supermercado;41.4092215;2.1497245;
Supermercado Consum Barcelona Mare de Déu de Montserrat;Av. de la Mare de Déu de Montserrat, 19, 08024 Barcelona;3.9;470;Supermercado;41.4140347;2.159542;
Supermercado Consum Barcelona Camelies;Carrer de les Camèlies, 39, 08024 Barcelona;4.0;281;Supermercado;41.4119571;2.1582739;
Condis Express Supermercats;Travessera de Dalt, 10, 08024 Barcelona;3.8;114;Supermercado;41.4081903;2.1496066;
DIA;Travessera de Dalt, 54, 58, 08024 Barcelona;3.7;50;Supermercado;41.4081983;2.1496066;
Condis el Teu Super;Carrer de les Camèlies, 43, 45, 08024 Barcelona;3.9;106;Supermercado;41.4120933;2.1586136;
Condis Express Supermercats;Carrer de Sant Salvador, 113, 08024 Barcelona;2.6;10;Supermercado;41.4085148;2.1537146;
Supermercat Consum Barcelona Travessera de Dalt;Travessera de Dalt, 34, 08024 Barcelona;3.9;343;Supermercado;41.4087253;2.1511652;
bonÀrea;Travessera de Dalt, 48, 08024 Barcelona;3.5;146;Supermercado;41.4091981;2.1523848;
Aliprox;Travessera de Dalt, 78, 08024 Barcelona;4.0;5;Supermercado;41.4103475;2.1543046;
SUMA Supermercat;Carrer de Pau Alsina, 99, 08024 Barcelona;;;Supermercado;41.4104429;2.1596154;
Condis Express Supermercats;Carrer de Jaume Puigvert, 2, 08024 Barcelona;4.0;131;Supermercado;41.416002;2.1579113;
Veritas;Av. de la Mare de Déu de Montserrat, 19, 08023 Barcelona;4.0;114;Supermercado;41.4139988;2.1595064;
bonÀrea;Carrer de la Providència, 152, 08024 Barcelona;4.0;327;Supermercado;41.4095772;2.1601343;
Saiyed Md Zahanqr Alam;Añadir sitio web;5.0;2;Supermercado;41.412373;2.1524184;
Cal Juny;Añadir sitio web;4.3;7;Supermercado;41.4108971;2.1563586;
Surjeet Alimentacion;Añadir número de teléfono;4.7;3;Tienda de ultramarinos;41.4075266;2.1512809;
Suma;Passeig de la Mare de Déu del Coll, 52, 08023 Barcelona;3.1;82;Supermercado;41.4166581;2.1449909;
Condis Supermercats;Passeig de la Mare de Déu del Coll, 72, 08023 Barcelona;3.9;76;Supermercado;41.4174307;2.1454511;
Super Vallcarca;Baixada de Sant Marià, 18, 08023 Barcelona;4.4;88;Supermercado;41.417919;2.1469449;
Supermercat Suma;Móra d'Ebro, 33, 08023 Barcelona;3.4;8;Supermercado;41.4174771;2.1463876;
Supermercat Coviran;Añadir número de teléfono;;;Supermercado;41.4179635;2.1467767;
La Granja;Añadir sitio web;5.0;1;Supermercado;41.4182048;2.1467696;
El rebost de la creueta;Añadir sitio web;5.0;5;Supermercado;41.4188327;2.1462809;
Pak catalunya Alimentació;Añadir número de teléfono;4.5;12;Supermercado;41.416874;2.1460213;
Supermercat;Añadir sitio web;4.0;6;Supermercado;41.4168938;2.1394552;
DIA;Carrer de Fastenrath, 82, 08035 Barcelona;3.1;47;Supermercado;41.4223422;2.1443426;
Condis Supermercats;Carrer d'Arenys, 44-46, 08035 Barcelona;3.7;168;Supermercado;41.422394;2.1419016;
Caprabo;Carrer de la Mare de Déu del Coll, 119, 08023 Barcelona;3.9;65;Supermercado;41.4123499;2.1447007;
Suma;Plaça, Carrer de la Mare de Déu del Coll, 199, 08032 Barcelona;4.0;11;Supermercado;41.4131889;2.1446294;
Dia;Añadir número de teléfono;;;Supermercado;41.4213973;2.1402775;
fruver grupo continental;Añadir horario;;;Supermercado;41.4128919;2.136014;
La Sirena;Avinguda de la República Argentina, 250, 08023 Barcelona;4.1;93;Tienda de congelados;41.412915;2.13732;
BONBIO Supermercats ecològics i Dietistes;Avinguda de la República Argentina, 256, 08023 Barcelona;4.9;33;Nutricionista;41.4131381;2.1370353;
Escofet Oliver;Carrer de Craywinckel, 17, 08022 Barcelona;3.3;12;Carnicería;41.4117759;2.1369412;
CLAREL;Avinguda de la República Argentina, 266, 08023 Barcelona;3.7;19;Tienda de belleza y salud;41.4135585;2.136492;
bonÀrea;Carrer de Craywinckel, 8, 08022 Barcelona;4.1;151;Comercio;41.4124074;2.1376098;
Forn de Pa;Añadir número de teléfono;4.0;1;Tienda de ultramarinos;41.408664;2.1421735;
BMW Barcelona Premium Ronda de Dalt;Carrer d'Esteve Terradas, 77, 79, 08023 Barcelona;4.1;281;Concesionario BMW;41.414809;2.1367144;
MINI Barcelona Premium Ronda de Dalt;Carrer d'Esteve Terradas, 77, 79, 08023 Barcelona;4.6;41;Concesionario de automóviles;41.4148149;2.1368534;
BMW Barcelona Premium Ronda de Dalt;Carrer d'Esteve Terradas, 77, 79, 08023 Barcelona;4.1;281;Concesionario BMW;41.414809;2.1367144;
BMW Barcelona Premium Ronda de Dalt;Carrer d'Esteve Terradas, 77, 79, 08023 Barcelona;4.1;281;Concesionario BMW;41.414809;2.1367144;
Carrefour Express;Carrer de l'Alcalde de Móstoles, 12, 08025 Barcelona;4.4;14;Supermercado;41.410314;2.1648163;
Condis Express Supermercats;Ronda del Guinardó, 40, 08025 Barcelona;3.4;165;Supermercado;41.411654;2.1641613;
DIA;Carrer de Pau Alsina, 64, 08024 Barcelona;3.4;48;Supermercado;41.411662;2.1641613;
DIA;Carrer de los Castillejos, 424, 08024 Barcelona;3.4;24;Supermercado;41.4118225;2.1637114;
Gaudi Supermercat;Añadir número de teléfono;4.3;4;Supermercado;41.4099808;2.1726108;
Supermercado Consum Barcelona Ronda Guinardó;Ronda del Guinardó, 52, 08025 Barcelona;3.9;285;Supermercado;41.4121683;2.1653705;
Caprabo;Carrer de los Castillejos, 384, 08025 Barcelona;4.5;25;Supermercado;41.4122312;2.1688056;
Condis Express Supermercats;Av. de la Mare de Déu de Montserrat, 75, 08024 Barcelona;3.7;121;Supermercado;41.4148847;2.1628976;
Mercadona;Carrer de los Castillejos, 388, 08025 Barcelona;4.1;1584;Supermercado;41.412726;2.1682403;
Supermercados Sorli Horta-Guinardó;Carrer de Padilla, 358, 08025 Barcelona;3.1;44;Supermercado;41.4110381;2.1683564;
Faizan Supermercats;Añadir número de teléfono;;;Supermercado;41.3937896;2.1420353;
Legali Bcn Abogados;Plaça de Catalunya, 1, 08002 Barcelona;5.0;15;Abogado;41.3938514;2.1420353;
Mas Gourmets;Carrer de Sardenya, 494, 08024 Barcelona;4.4;7;Tienda de ultramarinos;41.4107681;2.1619078;
CLAREL;Carrer de los Castillejos, 378, 08025 Barcelona;3.1;12;Tienda de belleza y salud;41.4120942;2.1689695;
CLAREL;Ronda del Guinardó, 42, 08025 Barcelona;3.2;14;Tienda de belleza y salud;41.411654;2.1641613;
Carrefour Market;Guinardó Market, Carrer de Teodor Llorente, 10, 08041 Barcelona;3.8;946;Supermercado;41.4192194;2.1765463;
DIA;Carrer de Varsòvia, 83, 08041 Barcelona;3.2;62;Supermercado;41.4202624;2.1718428;
Caprabo;Carrer de la Renaixença, 14, 08041 Barcelona;3.8;70;Supermercado;41.4160079;2.1736255;
Caprabo;S.Antoni Mª Claret, 318, 08041 Barcelona;3.2;82;Supermercado;41.4147039;2.1771865;
DIA;Amèrica, 5- 7, 08041 Barcelona;3.8;74;Supermercado;41.4150381;2.1762545;
Condis Supermercats;Rambla de Volart, 12, 08026 Barcelona;4.0;108;Supermercado;41.4160024;2.1771167;
SUMA Supermercats;Av. de la Mare de Déu de Montserrat, 244, 08041 Barcelona;3.9;26;Supermercado;41.4224344;2.1726816;
Condis Supermercats;Calle, Plaça Catalana, 4, 08032 Barcelona;4.0;115;Supermercado;41.4219475;2.1704294;
SUMA SUPERMERCADOS 192;Av. de la Mare de Déu de Montserrat, 194, 08041 Barcelona;5.0;2;Supermercado;41.4202155;2.1710785;
Condis Express Supermercats;Av. de la Mare de Déu de Montserrat, 161, 08041 Barcelona;3.7;119;Supermercado;41.4176741;2.1689707;
DIA;Carrer de la Manigua, 2, 08027 Barcelona;3.8;41;Supermercado;41.4222477;2.1771654;
DIA;Carrer de Felip II, 192, 08027 Barcelona;3.7;18;Supermercado;41.4222557;2.1771654;
Suma Supermercats;Ronda del Guinardó, 210, 08041 Barcelona;3.2;65;Tienda de ultramarinos;41.4220735;2.1751633;
Rapid Caprabo Varsovia;Calle varsovia con, Carrer de Vinyals, 08041 Barcelona;4.2;22;Supermercado;41.4208342;2.172246;
Bon Supermercat Vinyals;Añadir número de teléfono;3.0;7;Supermercado;41.4194921;2.1735066;
SUPERMERCA Afrolatino;Carrer de la Garrotxa, nº 41, 08041 Barcelona;5.0;1;Supermercado;41.4198538;2.17773;
Supermercados Sorli Horta-Guinardó;Rambla de la Muntanya, 87, 08041 Barcelona;;;Supermercado;41.4198531;2.1727196;
Supermercat Sant Pau;Añadir horario;3.5;2;Supermercado;41.4459675;2.0106822;
Super Fresc;Añadir sitio web;4.0;11;Supermercado;41.4168934;2.1722738;
Tangerina;Añadir número de teléfono;;;Supermercado;41.4169014;2.1722738;
Dia Market;Añadir número de teléfono;5.0;2;Tienda de ultramarinos;41.4170372;2.1685902;
Co aliment;Añadir número de teléfono;5.0;5;Supermercado;41.41967;2.170708;
Autoservei Aguilera;Añadir sitio web;4.7;6;Tienda de ultramarinos;41.4183617;2.1703615;
Sorli Discau;Añadir número de teléfono;4.3;3;Tienda de ultramarinos;41.4197658;2.1726657;
Supermercat Holiday;Añadir sitio web;4.1;11;Tienda de ultramarinos;41.415721;2.1598893;
CLAREL;Rambla de Volart, 72, 08041 Barcelona;4.5;2;Tienda de belleza y salud;41.4171773;2.1736684;
Superverd;Av. de la Mare de Déu de Montserrat, 179, 08041 Barcelona;4.3;20;Frutería;41.4195256;2.1703473;
Ruso Interiorisme;Av. de la Mare de Déu de Montserrat, 165, 08041 Barcelona;4.8;30;Interiorista;41.417938;2.1691453;
La Wash;Av. de la Mare de Déu de Montserrat, 150, 08041 Barcelona;2.5;8;Lavandería de autoservicio;41.4181186;2.1696684;
Apartamentos Gaudint Barcelona Suites;Carrer de Varsòvia, 113-BIS, 08041 Barcelona;4.8;64;;41.4190027;2.1711588;
REMAX PROJECT;Av. de la Mare de Déu de Montserrat, 165, Local 2, 08041 Barcelona;4.2;6;Agencia inmobiliaria;41.4179811;2.1692394;
Sebastián;Añadir número de teléfono;4.8;10;Tienda de ultramarinos;41.4171863;2.1563756;
Clarel;Carrer de Bismarck, 33, 08024 Barcelona;4.3;4;Tienda de belleza y salud;41.4154248;2.1604221;
DIA;Carrer de la Conca de Tremp, 57, 59, 08032 Barcelona;4.0;77;Supermercado;41.4217435;2.1632144;
DIA;Passeig de la Mare de Déu del Coll, 95, 08032 Barcelona;3.4;115;Supermercado;41.4211789;2.1453856;
Condis Supermercats;Carrer del Santuari, 55, 08032 Barcelona;4.2;48;Supermercado;41.4210938;2.1502602;
Condis Supermercats;Carrer de Segimon, 19-23, 08032 Barcelona;4.0;106;Supermercado;41.4207418;2.1537867;
Condis Supermercats;Carrer del Llobregós, 132, 08032 Barcelona;3.9;57;Supermercado;41.4242233;2.153311;
Caprabo;Carrer de Calderón de la Barca, 66, 08032 Barcelona;3.6;33;Supermercado;41.4212314;2.1536408;
Caprabo supermercado;Carrer de la Conca de Tremp, 110, 08032 Barcelona;3.5;40;Tienda de ultramarinos;41.4198149;2.1553397;
DIA;Carrer de Dante Alighieri, 142, 08032 Barcelona;3.7;130;Supermercado;41.4159224;2.1552405;
Condis Supermercats;Carrer del Llobregós, 210, 08032 Barcelona;3.9;103;Supermercado;41.4220918;2.1497349;
bonÀrea;Carrer del Llobregós, 127, 08032 Barcelona;4.1;371;Supermercado;41.4243596;2.1543855;
DIA;Carrer del Llobregós, 119, 133, 08032 Barcelona;3.9;100;Supermercado;41.4351564;2.1743558;
Frutas y verduras;Añadir número de teléfono;5.0;1;Supermercado;41.4352181;2.1743558;
Coaliment;Añadir sitio web;4.0;1;Supermercado;41.422291;2.1596546;
Wendy Supermecat;Añadir sitio web;5.0;1;Supermercado;41.4239405;2.1527545;
Fruiteria la Moreneta 2;Añadir número de teléfono;5.0;1;Supermercado;41.4246421;2.1496624;
Alimentación Monferrer;Carrer del Llobregós, 149, 08032 Barcelona;;;Supermercado;41.4237115;2.1535028;
super marcat de catalyny;Añadir número de teléfono;2.0;1;Tienda de ultramarinos;41.4234842;2.1478986;
Pròxim;Añadir número de teléfono;5.0;2;Tienda de ultramarinos;41.4202842;2.1549288;
Jesús Moyá Fajas;Añadir horario;;;Supermercado;41.4234317;2.1595469;
Sandhu's News;Añadir número de teléfono;1.0;1;Tienda de ultramarinos;41.4239856;2.1488863;
Alimentación López Mora S L L;Añadir sitio web;;;Tienda de ultramarinos;41.4237115;2.1535028;
Asociación Vendedores del Mercado Carmel;Añadir número de teléfono;5.0;3;Tienda de ultramarinos;41.4237115;2.1535028;
Frutas y verduras Rosa;Carrer de Segimon, 1, 08032 Barcelona;4.7;11;Frutería;41.420621;2.1544183;
Fruteria Los Yayos;Añadir sitio web;5.0;1;Frutería;41.4232391;2.1534606;
El Super del Pedrell;Añadir sitio web;4.0;1;Tienda de alimentación;41.423802;2.1594871;
Carrefour Express;Carrer del Congrés, 64, 08031 Barcelona;4.2;38;Supermercado;41.436664;2.1594513;
Supermercados Arroyo Y Cervantes S L;Añadir sitio web;4.1;62;Supermercado;41.4318152;2.1581273;
Suma;Añadir número de teléfono;2.6;13;Supermercado;41.4319553;2.1413385;
Bonpreu;Carrer del Canigó, 48, 50, 08031 Barcelona;4.2;736;Supermercado;41.4356508;2.1581912;
Condis Supermercats;Carrer de Lloret de Mar, 65, 08031 Barcelona;4.2;63;Supermercado;41.4357646;2.1549227;
Supermercado Montbau;Añadir sitio web;4.1;14;Tienda de alimentación;41.4312543;2.1395623;
Supermercado Consum Barcelona Berruguete;Carrer de Berruguete, 106, 08035 Barcelona;4.1;705;Supermercado;41.4338333;2.146304;
Supermercado Victor;Añadir sitio web;;;Tienda de ultramarinos;41.4302934;2.1402264;
Merca Estalvi - Coviran;Añadir número de teléfono;4.0;1;Supermercado;41.4317166;2.159075;
Supermercado Lidl;Passeig de Valldaura, 136, 08042 Barcelona;4.1;2144;Supermercado de descuentos;41.4390308;2.162164;
Supermercat;Añadir número de teléfono;4.5;4;Tienda de ultramarinos;41.4365343;2.1558783;
Veritas;Plaça d'Eivissa, 6, 08032 Barcelona;4.1;62;Supermercado;41.430077;2.1584414;
Supermercado david;Añadir número de teléfono;4.0;1;Tienda de ultramarinos;41.4302443;2.140222;
Bodega Andres;Añadir sitio web;4.6;5;Supermercado;41.436566;2.1558969;
Hadi Supermercat;Añadir número de teléfono;4.8;10;Supermercado;41.4335489;2.1403991;
Condis Express Montbau;Añadir número de teléfono;4.5;4;Supermercado;41.4321963;2.1407769;
SUPAGRU;Añadir sitio web;4.8;5;Supermercado;41.4318152;2.1581273;
Pròxim Super Mercat;Añadir sitio web;4.0;2;Tienda de ultramarinos;41.4324399;2.1532884;
Fruita i hortalissa;Añadir sitio web;4.6;5;Supermercado;41.4315881;2.139713;
Gloyter super express;Añadir sitio web;5.0;2;Tienda de ultramarinos;41.4309399;2.1453297;
Carrefour Market;Carrer de Dante Alighieri, 119, 08032 Barcelona;3.8;764;Supermercado;41.4266836;2.1529438;
Keisy;Carrer de Dante Alighieri, 117, 08032 Barcelona;4.2;391;Supermercado;41.4267573;2.1530655;
El Súper Amb Mercat;Carrer de Dante Alighieri, 117, 08032 Barcelona;4.0;1;Tienda de ultramarinos;41.4267708;2.1530614;
La Sirena;Carrer de Tolrà, 2, 08032 Barcelona;4.0;318;Tienda de congelados;41.4269944;2.1537058;
Caprabo;Av. del Jordà, 20, 08035 Barcelona;3.6;298;Supermercado;41.4270521;2.1357385;
El Coto de Galán;Añadir horario;4.6;11;Tienda de ultramarinos;41.4341543;2.1478868;
To I Natura;Añadir horario;3.7;3;Tienda de ultramarinos;41.4309212;2.1408087;
Tot d'Avui Supermercats Estalvi;Carrer de Tir, 6, 08035 Barcelona;4.3;71;Supermercado;41.4246842;2.1384548;
Supermercats Bcn 76;Añadir horario;2.8;8;Supermercado;41.4216032;2.1438311;
Tot D'Avui Supermercats Estalvi;Carrer de Judea, 5, 08035 Barcelona;4.4;19;Supermercado;41.4247334;2.1384865;
Carnicería;Añadir número de teléfono;5.0;1;Supermercado;41.4247532;2.1319204;
Lidl;Passeig de la Vall d'Hebron, 130, 08035 Barcelona;4.1;1113;Supermercado de descuentos;41.4239689;2.1404827;
España Alimentación;Añadir sitio web;3.7;12;Tienda de ultramarinos;41.422933;2.1437373;
Alimentación Herber S L;Añadir horario;;;Supermercado;41.4222128;2.1417974;
Tot d'avui;Forn Tot D' Avui, Carrer de Judea, 2-4, 08035 Barcelona;4.0;156;Panadería;41.424717;2.1384285;
Alimentación Marga;Añadir sitio web;4.2;33;Frutería;41.4244822;2.1366592;
Suma Supermercats;Carrer de la Mare de Déu dels Angels, 54, 08035 Barcelona;3.8;26;Supermercado;41.4218919;2.146441;
SUPERMERCADO VIEL, S.L.;Añadir horario;;;Supermercado;41.4218836;2.145893;
supermercat santa rosalia;Añadir número de teléfono;4.3;3;Tienda de ultramarinos;41.4219459;2.1449268;
José Coma Orriols;Añadir horario;3.0;1;Tienda de ultramarinos;41.4218142;2.0092388;
Peixos Povedano;Añadir horario;3.0;1;Tienda de ultramarinos;41.4218142;2.0092388;
Menuts Milagros;Añadir horario;3.0;1;Tienda de ultramarinos;41.4218142;2.0092388;
José Coll Rovira;Añadir horario;;;Tienda de ultramarinos;41.4218142;2.0092388;
Pilar Molist Codina;Añadir horario;;;Tienda de ultramarinos;41.4214124;2.1470438;
OPTIMUS - Ferreteria Afonso en Barcelona;Carrer de Ventura Rodríguez, 6, 08035 Barcelona;4.3;106;Ferretería;41.4320204;2.1472105;
Diset Control de Plagas | Horta-Guinardó;Carrer de Can Travi, 47, local 7, 08035 Barcelona;5.0;5;Empresa de fumigación y control de plagas;41.4319597;2.1480625;
Pelo natural extensiones;Carrer de Can Travi, 08035 Barcelona;2.3;6;Tienda de suministros para peluquería;41.4327369;2.1485557;
CaixaBank;Carrer de Ventura Rodríguez, 2, 4, 08035 Barcelona;2.0;4;Banco;41.431773;2.1470198;
DIA;Passeig de Fabra i Puig, 318, 08031 Barcelona;3.7;78;Supermercado;41.4316009;2.1734014;
Caprabo;Passeig de Valldaura, 218, 220, 08042 Barcelona;3.4;292;Supermercado;41.437924;2.1715513;
Mercadona;Mercat de, Passeig de Valldaura, 186, 08042 Barcelona;4.0;1547;Supermercado;41.4383172;2.1679104;
DIA;Carrer del Doctor Pi i Molist, 118, 08016 Barcelona;3.5;68;Supermercado;41.4329155;2.1693934;
Condis Supermercats;Passeig d'Urrutia, 105, 08042 Barcelona;4.0;64;Supermercado;41.4349681;2.1675473;
Aneto Supermercat;Añadir sitio web;3.8;5;Supermercado;41.433128;2.1678683;
bonÀrea;Passeig de Valldaura, 192, 196, 08016 Barcelona;4.2;309;Supermercado;41.4382875;2.1686596;
CondisLife Supermercats;Carrer del Doctor Pi i Molist, 72, 08016 Barcelona;4.1;145;Supermercado;41.4334268;2.1710836;
DIA;Carrer d'Antonio Machado, 46, 08042 Barcelona;3.5;100;Supermercado;41.4225542;2.1570974;
Carrefour Express CEPSA;Junto A La Estación Cepsa, Passeig de Valldaura, 210-212, 08042 Barcelona;3.7;83;Supermercado;41.4384136;2.170402;
Mercadona;Carrer d'Aneto, 16, 08031 Barcelona;4.3;923;Supermercado;41.4319576;2.1695822;
Neila Garisol S.L.;Añadir número de teléfono;2.0;2;Supermercado;41.4305121;2.1679705;
supermarcat;Añadir sitio web;1.0;1;Supermercado;41.4349928;2.1695437;
Super Mercat;Añadir sitio web;;;Supermercado;41.4315484;2.1709232;
Gd Dusa Supermercats;Añadir número de teléfono;4.6;11;Supermercado;41.4305207;2.1680594;
Queviures Amelia;Añadir sitio web;4.6;21;Tienda de alimentos naturales;41.4359806;2.160793;
DIA;Carrer d'Antonio Machado, 46, 08042 Barcelona;3.5;100;Supermercado;41.4437028;2.166896;
Condis Supermercats;Carrer d'Antonio Machado, 18, 08042 Barcelona;3.9;62;Supermercado;41.4432949;2.1660532;
CLAREL;Plaça Isabel Villena, 8, 08042 Barcelona;4.0;7;Tienda de belleza y salud;41.4427631;2.1655545;
DIA;Carrer del Llobregós, 119, 133, 08032 Barcelona;3.9;100;Supermercado;41.4427979;2.1502336;
Condis Supermercats;Carrer de Vallcivera, 20, 08033 Barcelona;3.7;129;Supermercado;41.4604891;2.175755;
Supermercados Sorli Nou Barris;Carrer de Costabona, 4, p. 7-8, 08033 Barcelona;;;Supermercado;41.4616864;2.1758978;
Consum;Añadir número de teléfono;4.3;25;Supermercado;41.4617061;2.1693317;
Mercadona;Carrer Petúnies, 08110 Barcelona;4.1;877;Supermercado;41.4633576;2.1686042;
Bon Àrea;Carrer de Sant Feliu de Codines, 3, 08033 Barcelona;4.4;236;Supermercado;41.4604618;2.1786781;
Supermercado Cash Carry;Añadir sitio web;4.3;17;Supermercado;41.4613725;2.1763147;
Supermercados Charter;Av. dels Rasos de Peguera, 186, 08033 Barcelona;4.5;2;Tienda de alimentación;41.4599567;2.1701769;
Av. dels Rasos de Peguera, 70C;F55G+V3 Barcelona;;;;41.4597174;2.1730069;
S.Z. Supermercat Alimentacio;Añadir número de teléfono;;;Tienda de ultramarinos;41.461594;2.1681913;
Adam Super Mercat;Añadir horario;3.5;2;Tienda de ultramarinos;41.4597946;2.1790645;
CLAREL;Av. dels Rasos de Peguera, 23, 08033 Barcelona;4.5;8;Tienda de belleza y salud;41.4612427;2.1759672;
Mercat de Ciutat Meridiana;Carrer de Costabona, 4, 08033 Barcelona;3.8;130;Mercado;41.4616335;2.1758043;
Ca la Mari;Añadir sitio web;5.0;2;Tienda de jamones;41.4616335;2.1758043;
Consum;Carrer d'Alcúdia, 43, 08016 Barcelona;4.2;330;Supermercado;41.435958;2.1720277;
Condis Supermercats;Carrer de la Font d'en Canyelles, 74, 08042 Barcelona;4.2;142;Supermercado;41.44065;2.1732303;
DIA;Carrer d'Antonio Machado, 46, 08042 Barcelona;3.5;100;Supermercado;41.4086142;2.1437068;
Mi Alcampo;Carrer de la Guineueta, 23, 08042 Barcelona;4.2;91;Supermercado;41.4406506;2.1644659;
Eurosol Supermercat;Añadir número de teléfono;;;Supermercado;41.4369949;2.172549;
Latino Supermercat;Añadir sitio web;3.0;9;Supermercado;41.4370426;2.1729095;
Bodega Dani alimentación;Añadir horario;;;Supermercado;41.4407461;2.1720884;
Ratna Paúl;Añadir horario;4.0;2;Supermercado;41.4401072;2.1682605;
Monte Ararat;P72X+XJ Karagüney, Iğdır Merkez/Iğdır, Turquía;4.5;2012;Pico de montaña;39.7024549;44.2903213;
Esclat;Passeig de Valldaura, 148, 08042 Barcelona;4.2;1019;Hipermercado;41.4391181;2.1631458;
F.M.F S.L,;Añadir sitio web;1.0;1;Supermercado;41.4391529;2.1478249;
La Sirena;Passeig de Valldaura, 142, 08042 Barcelona;4.2;63;Tienda de congelados;41.4391601;2.1627923;
Carmen González Belmonte;Passeig de Valldaura, 186, 08042 Barcelona;;;Tienda de ultramarinos;41.4382191;2.1678574;
SISCU POLLASTRES i ALTRES;Passeig Valldaura 186-190, Mercat de la Guineueta, Parada 81, 08016 Barcelona;4.7;3;Tienda de delicatessen;41.4382973;2.1678874;
Once;Añadir número de teléfono;;;Tienda de lotería;41.4395759;2.1645156;
DIA;Carrer d'Arnau d'Oms, 47, 08016 Barcelona;3.9;89;Supermercado;41.4304319;2.1750917;
Condis Supermercats;Passeig de Valldaura, 242, 08016 Barcelona;3.3;97;Supermercado;41.4386484;2.1755273;
DIA;Plaça de les Palmeres, 7, 8, 08030 Barcelona;3.6;48;Supermercado;41.4326407;2.1835176;
Condis Supermercats;Carrer de Piferrer, 154, 08016 Barcelona;3.6;174;Supermercado;41.4322483;2.1753261;
Caprabo;Carrer de Concepción Arenal, 257, 08030 Barcelona;3.5;35;Supermercado;41.4317655;2.1821272;
bonÀrea;Carrer d'Arnau d'Oms, 54, 56, 08016 Barcelona;3.8;268;Supermercado;41.4308477;2.1753259;
Mercadona;Passeig d'Andreu Nin, 31-37, 08016 Barcelona;4.0;1302;Supermercado;41.4351141;2.1793239;
Mercadona;Avinguda de Rio de Janeiro, 63, 08016 Barcelona;4.1;1227;Supermercado;41.4376874;2.1783149;
Condis Express Supermercats;Avinguda Meridiana, 488, 08027 Barcelona;3.8;85;Supermercado;41.4362996;2.1825796;
Supermercat Pa Callent Fresc;Añadir número de teléfono;;;Tienda de ultramarinos;41.4332862;2.1765204;
El Corte Inglés;Passeig d'Andreu Nin, 51, 08016 Barcelona;4.1;9552;Grandes almacenes;41.4361736;2.1792208;
Aceite Mito Dorado;Carrer de Deià, 9-15, Tienda 1, 08016 Barcelona;4.2;6;Tienda de alimentos naturales;41.4329657;2.1744709;
MANGO;Avinguda de Rio de Janeiro, 42, L 0 13, 08016 Barcelona;3.4;238;Tienda de ropa de mujer;41.4355208;2.1783;
Lefties;Avinguda de Rio de Janeiro, 42, 08016 Barcelona;4.1;871;Tienda de ropa;41.4352479;2.1782616;
Druni;Añadir horario;4.2;208;Perfumería;41.4354744;2.1784283;
TerranovaCNC 120;Carrer de Valldemossa, 6, 08016 Barcelona;4.1;79;Tienda de productos para mascotas;41.4342482;2.1752584;
Dongbu Daewoo Electronics Iberia SAU;Avinguda de Rio de Janeiro, 56, 08016 Barcelona;2.1;17;Tienda de electrodomésticos;41.4360262;2.1782705;
Restaurante La Tagliatella | Som Multiespai, Barcelona;Avinguda de Rio de Janeiro, 42, 08016 Barcelona;3.8;805;Restaurante italiano;41.4355208;2.1783;
Pans & Company;Avinguda de Rio de Janeiro, 42, 08016 Barcelona;3.4;202;Restaurante de comida rápida;41.4357712;2.1781405;
Carrefour Express;Carrer de Pablo Iglesias, 49, 08016 Barcelona;3.4;212;Supermercado;41.4442268;2.1797791;
Caprabo;Carrer Gran de Sant Andreu, 456, 462, 08030 Barcelona;3.4;118;Supermercado;41.4415649;2.1862284;
DIA;Av. dels Rasos de Peguera, 17, 08033 Barcelona;3.6;71;Supermercado;41.4767239;2.1741935;
DIA;Carrer d'Antonio Machado, 46, 08042 Barcelona;3.5;100;Supermercado;41.4094244;2.1266967;
Condis Supermercats;Carrer de Baltasar Gracián, 3, 08016 Barcelona;4.1;34;Supermercado;41.4401675;2.1795243;
Condis Supermercats;Carrer del Mas Duran, 33-37, 08042 Barcelona;3.7;34;Supermercado;41.4439979;2.1760555;
Condis Supermercats;Carrer del Molí, 25-27, 08016 Barcelona;4.2;21;Supermercado;41.4428874;2.1775222;
Supermercado Consum Barcelona Sant Francesc Xavier;Carrer de Sant Francesc Xavier, 8, 08016 Barcelona;4.2;509;Supermercado;41.4417043;2.1757076;
Condis Supermercats;Carrer de Teresa de Cofrents, 23, 08042 Barcelona;3.5;74;Supermercado;41.4430813;2.1742877;
DIA;Via Júlia, 76, 82, 08016 Barcelona;3.6;65;Supermercado;41.4255468;2.1503309;
DIA;Carrer de Viladrosa, 78-80, 08042 Barcelona;2.1;9;Supermercado;41.4431693;2.1741837;
Carrefour Express;Carrer de la Font d'en Canyelles, 37, 08016 Barcelona;3.6;155;Supermercado;41.439729;2.1746213;
DIA;Carrer de Palamós, 25, 08033 Barcelona;3.5;40;Supermercado;41.4464035;2.1824481;
Supermercados Sorli Nou Barris;Avinguda de Rio de Janeiro, 125, 08016 Barcelona;;;Supermercado;41.4423339;2.1826846;
DIA;Carrer de Viladrosa, 138, 08031 Barcelona;3.9;61;Supermercado;41.4450904;2.1760268;
Condis Express Supermercats;Carrer del Pou, 25, 08016 Barcelona;4.1;54;Supermercado;41.4438646;2.1790377;
CAPRABO;Añadir número de teléfono;4.4;26;Supermercado;41.4438844;2.1724716;
Trady's;Añadir sitio web;4.0;1;Supermercado;41.4436544;2.1799078;
Moyer Sa;Añadir sitio web;4.5;47;Supermercado;41.4416257;2.1805195;
La Sirena;C/ de Joaquim Valls, 75, 08016 Barcelona;4.2;68;Tienda de congelados;41.4437603;2.1778594;
Angel Luis Costa Rodríguez;Añadir horario;;;Tienda de ultramarinos;41.4409362;2.1810728;
Fruites I Verdures Jordi;Añadir número de teléfono;4.3;3;Tienda de ultramarinos;41.4409442;2.1810728;
El rincón de Siria;Añadir sitio web;;;Tienda de ultramarinos;41.4418805;2.1819739;
D'lucas Productos Latinos;Añadir número de teléfono;5.0;1;Tienda de ultramarinos;41.4425069;2.1761181;
bonÀrea;Carrer de Pablo Iglesias, 14, 08016 Barcelona;4.0;323;Comercio;41.4426803;2.1789719;
CLAREL;Carrer del Vinyar, 24, 08016 Barcelona;4.0;1;Tienda de belleza y salud;41.4414859;2.1804002;
CLAREL;C/ de Joaquim Valls, 96, 08042 Barcelona;3.9;17;Tienda de belleza y salud;41.4446719;2.1762171;
CLAREL;Carrer dels Nou Pins, 48, 08016 Barcelona;1.5;2;Tienda de belleza y salud;41.4432816;2.180239;
Superverd;Carrer de Pablo Iglesias, 36, 08016 Barcelona;4.6;7;Frutería;41.4433644;2.179459;
GRANERIA BODEGA 9BARRIS;Añadir sitio web;4.7;66;Tienda de alimentos naturales;41.4425546;2.1804118;
ErgoNatura;Carrer d'Argullós, 88, 08016 Barcelona;5.0;9;Comercio;41.4422248;2.1787703;
Condis Supermercats;Carrer d'Alcàntara, 14, 08042 Barcelona;3.5;75;Supermercado;41.4458046;2.1704338;
Supermercado Khan;Añadir número de teléfono;4.0;4;Supermercado;41.4469749;2.1740383;
Condis Supermercats;Carrer de les Torres, 66-68, 08042 Barcelona;3.8;75;Supermercado;41.4468824;2.1726213;
Supermercados Charter;Carrer de Simancas, 78, 82, 08024 Barcelona;3.9;90;Supermercado;41.44548;2.1710773;
DIA;Carrer de la Fosca, 11, 08033 Barcelona;3.4;39;Supermercado;41.4480745;2.1810323;
DIA;Carrer del Pla de Fornells, 51, 08042 Barcelona;3.4;84;Supermercado;41.448214;2.1729613;
Mercadona;Carrer de les Torres, 2, 08042 Barcelona;4.1;1541;Supermercado;41.4472618;2.1777848;
Supermercado Shiny;Añadir sitio web;;;Tienda de ultramarinos;41.4456531;2.1767453;
Condis el Teu Super;Carrer del Vesuvi, 3-5, 08016 Barcelona;4.0;85;Supermercado;41.4459531;2.1813286;
bonÀrea;Carrer de la Mina de la Ciutat, 27, 08042 Barcelona;4.3;149;Supermercado;41.4473203;2.1716728;
Alvi supermercat;Añadir sitio web;5.0;1;Supermercado;41.4484116;2.1734815;
Co Aliment;Añadir número de teléfono;2.0;4;Supermercado;41.4460645;2.1744694;
Saim khan;Añadir número de teléfono;;;Supermercado;41.4472406;2.1737237;
Alvi ria monay exchang;Añadir sitio web;;;Supermercado;41.4484116;2.1734815;
Coaliment;Añadir sitio web;3.3;15;Supermercado indio;41.4484416;2.1737372;
Alimentación Carmen;Añadir sitio web;4.8;6;Tienda de ultramarinos;41.4484614;2.1671711;
Shafqat;Añadir número de teléfono;;;Tienda de ultramarinos;41.4458017;2.1745788;
el as de los pollos;Via Favència, 193, 08042 Barcelona;4.3;75;Tienda de ultramarinos;41.4452296;2.1732164;
Mercado de Montserrat;08042, Via Favència, 247, 08042 Barcelona;4.2;1030;Mercado;41.4465051;2.1770354;
CLAREL;Carrer de la Mina de la Ciutat, 43, 08042 Barcelona;4.1;12;Tienda de belleza y salud;41.4476633;2.1723048;
Plataforma Cárnica;Carrer de la Mina de la Ciutat, 11, 08042 Barcelona;4.3;12;Carnicería;41.4469961;2.1710906;
Samskara;Carrer de la Mina de la Ciutat, 81, BJ, 08042 Barcelona;5.0;1;Tienda de alimentos orgánicos;41.4485341;2.1739166;
Farmàcia;Añadir sitio web;4.1;7;Farmacia;41.4488636;2.1742045;
DIA;Carrer del Llobregós, 119, 133, 08032 Barcelona;3.9;100;Supermercado;41.436037;2.1595389;
Supermercado Consum Barcelona Chafarinas;Carrer de las Chafarinas, 08033 Barcelona;4.2;225;Supermercado;41.4482633;2.1816471;
Condis Express Supermercats;Carrer de la Mare de Déu de Lorda, 7, 08033 Barcelona;3.7;69;Supermercado;41.450757;2.188937;
bonÀrea;Passatge de Torné, 3, 08033 Barcelona;4.2;121;Supermercado;41.4492214;2.1890198;
Mercadillo Montserrat;Añadir número de teléfono;;;Supermercado;41.4484547;2.1817032;
Saith Alimentacion;Añadir número de teléfono;;;Supermercado;41.450354;2.1832605;
Suma;Añadir número de teléfono;4.0;1;Tienda de ultramarinos;41.4519296;2.1993823;
Multinova Super Alimentació;Añadir número de teléfono;;;Tienda de ultramarinos;41.4488349;2.1847182;
CLAREL;Carrer del Turó de la Trinitat, 50, 08033 Barcelona;;;Tienda de belleza y salud;41.450912;2.1885264;
CaixaBank;Carrer de Palamós, 50, 62, 08033 Barcelona;3.2;5;Banco;41.4494315;2.18401;
Juan Costa Carne;Añadir sitio web;5.0;1;Tienda de ultramarinos;41.4311595;2.1659391;
Tocineria Teide;Añadir sitio web;4.5;2;Tienda de ultramarinos;41.4312019;2.1660078;
Armando Calvo Xiques;Añadir horario;4.0;1;Tienda de ultramarinos;41.4314964;2.1665636;
100 grams - Venta de Productos a Granel en Barcelona;Carrer del Doctor Pi i Molist, 89, 08031 Barcelona;4.9;29;Tienda de ultramarinos;41.4341187;2.1704198;
Charcutería Martín Castro;Passeig d'Urrutia, 96, 08031 Barcelona;4.7;18;Tienda de fiambres;41.4346926;2.1680875;
Farmacia Barceló;Añadir sitio web;4.2;5;Farmacia;41.4347331;2.1630401;
ONCE;Añadir número de teléfono;;;Tienda de lotería;41.4346005;2.170044;
María del Carmen Rodomero Gibert;Añadir horario;;;Zapatería;41.4321684;2.1674351;
Zeeman;Carrer del Doctor Pi i Molist, 102, 08016 Barcelona;4.0;561;Tienda de ropa;41.4345942;2.1705027;
Minimarket Beroe;C. de Batllori, 26, 08042 Barcelona;4.6;15;Supermercado;41.4437781;2.1751632;
Ismar;Añadir número de teléfono;;;Tienda de ultramarinos;41.4419422;2.17419;
Pescadería Baile;Añadir sitio web;5.0;2;Pescadería;41.4441247;2.1759886;
Fruteria Del Camp;Añadir número de teléfono;2.7;3;Frutería;41.4410988;2.1745268;
Plataforma Cárnica;Via Júlia, 78, 08016 Barcelona;4.5;2;Carnicería;41.4413936;2.1753452;
Supermercat Neus;Añadir sitio web;4.7;3;Comercio;41.4420139;2.173769;
Install Beer;C/ de Joaquim Valls, 109, Local, 08042 Barcelona;4.6;20;Fábrica de cerveza;41.4445869;2.1760547;
La Wash;Carrer d'Almansa, 44, 08042 Barcelona;3.7;36;Lavandería de autoservicio;41.44263;2.1734323;
CaixaBank;Carrer de Viladrosa, 62-64, 08042 Barcelona;1.8;9;Banco;41.4429537;2.1737813;
Condis Supermercats;Carrer de la Riera d'Horta, 44, 08027 Barcelona;3.8;186;Supermercado;41.4280092;2.1773014;
Coviran;Carrer d'Escòcia, 58, 08016 Barcelona;3.3;8;Supermercado;41.4287697;2.1783215;
Condis Supermercats;Carrer Alt de Pedrell, 64, 08032 Barcelona;4.1;70;Supermercado;41.4258552;2.167416;
Jespac;Avinguda dels Quinze, 64, 66, 08016 Barcelona;4.3;188;Supermercado;41.4287053;2.1728096;
Caprabo;Carrer de Cartellà, 87, 89, 08031 Barcelona;3.6;148;Supermercado;41.4281843;2.1681709;
Caprabo;Antoni, Carrer de Costa i Cuxart, 23, 08031 Barcelona;3.5;158;Supermercado;41.4279676;2.1720758;
Caprabo;Passeig de Fabra i Puig, 299, 08031 Barcelona;3.7;103;Supermercado;41.430262;2.1666193;
Supermarcat 24 houra;Añadir sitio web;4.7;9;Tienda de ultramarinos;41.4299663;2.1730381;
SUPER ALIMENTACION;Añadir sitio web;4.5;4;Supermercado;41.4282172;2.1784558;
Condis el Teu Super;Carrer de Cartellà, 79, 08031 Barcelona;4.0;95;Supermercado;41.4278913;2.1689925;
Aldi;Carrer de Ramon Albó, 37, 08027 Barcelona;4.1;489;Supermercado de descuentos;41.4257993;2.1749235;
DIA;Carrer de Laforja, 12-14, 08006 Barcelona;3.3;28;Supermercado;41.402588;2.1434066;
Condis Express Supermercats;Passeig de Fabra i Puig, 315, 08031 Barcelona;3.9;78;Supermercado;41.4303113;2.1656078;
DIA;Passeig de Maragall, 263, 08032 Barcelona;3.6;113;Supermercado;41.425698;2.1666528;
Bonpreu;Carrer de Santanyí, 6, 08016 Barcelona;4.2;545;Supermercado;41.4307689;2.1734445;
Supermercados Sorli Horta-Guinardó;Av. de la Mare de Déu de Montserrat, 267, 08041 Barcelona;3.5;50;Supermercado;41.4247894;2.1738941;
Coaliment;Añadir número de teléfono;;;Supermercado;41.4248092;2.167328;
Alimentació Barcelona II;Añadir número de teléfono;;;Tienda de ultramarinos;41.4244258;2.1752801;
Jinglin Supermarket;Añadir número de teléfono;4.5;2;Supermercado;41.4266077;2.1703024;
bonÀrea;Passeig de Fabra i Puig, 259, 08031 Barcelona;3.9;117;Comercio;41.4302321;2.1701227;
La Sirena;Carrer d'Arnau d'Oms, 34, 08016 Barcelona;4.1;203;Tienda de congelados;41.4298867;2.1752987;
CLAREL;Carrer de Costa i Cuxart, 10, 08031 Barcelona;3.9;42;Tienda de belleza y salud;41.4277168;2.1723681;
Xarcuteria Delicatessen Garciz;Carrer d'Escòcia, 134, 08016 Barcelona;4.3;364;Tienda de jamones;41.4287799;2.1742013;
Santiveri Maragall;Añadir sitio web;4.4;15;Herbolario;41.4263023;2.1705422;
Comercial Lluch S.A.;Añadir número de teléfono;;;Tienda de material sanitario;41.4465489;2.2005593;
Alain Afflelou Óptico;C.C. CARREFOUR LA MAQUINISTA - C/ CIUDAD ASUNCION S/N C.C. CARREFOUR LA MAQUINISTA, 08030 Barcelona;3.7;32;Óptica;41.446644;2.1959563;
Talleres Caracas 50;Carrer de Caracas, 50, 08030 Barcelona;4.4;37;Taller de reparación de automóviles;41.4461605;2.1999854;
DIA;Carrer del Cinca, 69, 08030 Barcelona;3.6;105;Supermercado;41.4461803;2.1934193;
Carrefour;LA MAQUINISTA, Carrer de Potosí, 2, 08030 Barcelona;4.0;3447;Hipermercado;41.4419935;2.1963875;
Condis Supermercats;Passeig de Torras i Bages, 72, 08030 Barcelona;3.4;273;Supermercado;41.4394298;2.1890159;
DIA;del Bes s, Carretera de Mataró, 10, 08930 Sant Adrià de Besòs, Barcelona;4.1;57;Supermercado;41.4291863;2.2092196;
DIA;Carrer de Sas, 23, 08030 Barcelona;3.4;97;Supermercado;41.4759481;2.0541878;
Suma;Carrer de l'Estadella, 51-53, 08030 Barcelona;4.0;22;Supermercado;41.4353902;2.2013892;
Caprabo;Carrer del Cinca, 48, 56, 08030 Barcelona;3.6;98;Supermercado;41.438165;2.1902075;
Condis Express Supermercats;Passeig de Torras i Bages, 9, 08030 Barcelona;3.4;86;Supermercado;41.4368682;2.1888161;
Caprabo;Carrer Gran de Sant Andreu, 140, 08030 Barcelona;3.3;127;Supermercado;41.4315391;2.1873048;
Supermercados Sorli Sant Andreu;Carrer de Sas, 21, 08030 Barcelona;4.1;21;Supermercado;41.4369509;2.2020164;
DIA;Passeig de Fabra i Puig, 5, 08030 Barcelona;3.5;88;Supermercado;41.4369707;2.1954503;
Suma Express;Añadir número de teléfono;5.0;1;Supermercado;41.4304425;2.1907733;
Supermercado Consum Barcelona Gran de Sant Andreu;Carrer Gran de Sant Andreu, 358, 08030 Barcelona;4.1;247;Supermercado;41.4382435;2.186961;
Tienda de Alimentación;Añadir número de teléfono;;;Supermercado;41.4382633;2.1803949;
Condis Supermercats;Carrer Gran de Sant Andreu, 228, 08030 Barcelona;3.4;36;Supermercado;41.4342958;2.1874139;
Veritas;Carrer Gran de Sant Andreu, 122, 08030 Barcelona;3.7;285;Supermercado;41.4309546;2.1873924;
Suma;Carrer d'Europa, 2, 08913 Badalona, Barcelona;3.0;1;Supermercado;41.4381045;2.2147054;
Mercadona;Passeig de Santa Coloma, 23, 08030 Barcelona;4.0;181;Supermercado;41.4451215;2.1874201;
bonÀrea;Carrer de Sas, 1, 08030 Barcelona;4.1;101;Supermercado;41.4363402;2.2020604;
Bonpreu;Carrer Dr. Santponç, 125, 08030 Barcelona;4.2;494;Supermercado;41.432144;2.1921036;
Super express 3;Añadir sitio web;4.0;23;Supermercado;41.4386265;2.1941599;
Condis Supermercats;Carrer d'Alfarràs, 21-23, 08030 Barcelona;3.9;50;Supermercado;41.4371944;2.2027511;
Lidl;Carrer de Sant Adrià, 154, 162, 08030 Barcelona;4.3;274;Supermercado de descuentos;41.4372142;2.196185;
Chahat;Añadir sitio web;;;Supermercado;41.4352391;2.2007464;
CLAREL;Carrer d'Alfarràs, 6, 08030 Barcelona;2.5;6;Tienda de belleza y salud;41.4365542;2.2030441;
Sex Toys Center Barcelona;Carrer de São Paulo, 34, 08030 Barcelona;2.7;179;Comercio;41.4388127;2.1963882;
San Pol Simon;Añadir número de teléfono;;;Tienda de ultramarinos;41.4371046;2.2009791;
DIA;Carrer de Cienfuegos, 7-9, 08027 Barcelona;3.6;74;Supermercado;41.4238968;2.1827042;
Condis Supermercats;Plaça de Maragall, 16, 08027 Barcelona;3.9;16;Supermercado;41.4204848;2.179054;
Caprabo;Felip Ii Cantonada, Carrer d'Olesa, 08027 Barcelona;2.2;10;Supermercado;41.422138;2.1827726;
Caprabo;Carrer d'Hondures, 74, 76, 08027 Barcelona;3.8;23;Supermercado;41.4218677;2.1852406;
Supermercados Charter;Carrer de Concepción Arenal, 144, 146, 08027 Barcelona;4.1;223;Supermercado;41.426143;2.1822166;
Supermercados Charter;Av. de la Mare de Déu de Montserrat, 268, 08041 Barcelona;3.5;34;Supermercado;41.423587;2.1735573;
Supermercados Sorli Sagrera;Carrer d'Olesa, 53, 08027 Barcelona;3.8;145;Supermercado;41.4235653;2.1833282;
Condis Supermercats;Carrer de la Manigua, 19, 08027 Barcelona;4.0;167;Supermercado;41.4232834;2.1771149;
Bonpreu;C. de Jordi de Sant Jordi, 1, 3, 08027 Barcelona;4.3;631;Supermercado;41.4209482;2.1803639;
bonÀrea;Carrer de les Acàcies, 4, 08027 Barcelona;4.0;189;Comercio;41.4233957;2.1761318;
Sorli;Carrer de Ramon Albó, 50, 08027 Barcelona;3.7;17;Supermercado;41.4259044;2.1752358;
Sorly Discau;Carrer de Ramon Albó, 50, 08027 Barcelona;2.5;2;Supermercado;41.4258616;2.1753115;
supermercat 24hr;Añadir sitio web;4.4;14;Tienda de ultramarinos;41.4231244;2.1750097;
Super garcilaso;Añadir número de teléfono;4.0;1;Supermercado;41.4235992;2.1779406;
Market casa italia maragall;Passeig de Maragall, 159, 08041 Barcelona;4.4;79;Supermercado italiano;41.4220236;2.1768876;
Superestalvi Ramón Albó;Carrer de Ramon Albó, 40, 08027 Barcelona;3.5;2;Tienda de ultramarinos;41.4254118;2.1752702;
Congrés Alimentació;Añadir número de teléfono;3.0;2;Tienda de ultramarinos;41.4234755;2.1799178;
Shabir Pak Sl;Añadir sitio web;4.5;2;Tienda de ultramarinos;41.42348;2.1798923;
bonÀrea;Carrer de les Acàcies, 4, 08027 Barcelona;4.0;189;Comercio;41.4233957;2.1761318;
CLAREL;Carrer de Ramon Albó, 14, 08027 Barcelona;2.9;12;Tienda de belleza y salud;41.4247249;2.1752789;
Molsa Manduca;Carrer de Garcilaso, 193, 08027 Barcelona;4.2;16;Tienda naturista;41.4233613;2.1784925;
Supermercats Llobet;Plaça de l'Estació, s/n, 08670 Navàs, Barcelona;4.1;31;Supermercado;41.9004094;1.8769584;
DIA;Plaça d'Antoni Gaudí, 14, 08670 Navàs, Barcelona;3.8;89;Supermercado;41.8975566;1.8755067;
Supermercado Consum Navás;Passeig Ramon Vall, Carr. de Berga, 72, 08670 Navàs, Barcelona;4.0;264;Supermercado;41.902113;1.8756403;
Queviures Costa;Añadir número de teléfono;4.0;4;Supermercado;41.9041646;1.8768375;
Roges Supermercats - SPAR | Navàs;69, Carrer de Pau Duarri, 67, 08670 Navàs, Barcelona;4.1;44;Supermercado;41.9016253;1.8769559;
Supermercat Busquets S.l.;Añadir número de teléfono;;;Tienda de ultramarinos;41.8987844;1.87626;
El Bouquet;Añadir horario;;;Tienda de ultramarinos;41.8991194;1.8770731;
Peñacorada Zafra 2010 S.L.;Añadir horario;4.9;7;Tienda de ultramarinos;41.897654;1.8749813;
Ca l'Arpellot;Passeig Ramon Vall, 55, 08670 Navàs, Barcelona;4.2;34;Tienda de alimentos naturales;41.9000264;1.8749657;
Bon Área;Passeig Ramon Vall, 21, 08670 Navàs, Barcelona;4.2;67;Carnicería;41.8987881;1.8749401;
CLAREL;Carr. de Berga, 48, 08670 Navàs, Barcelona;3.9;48;Tienda de belleza y salud;41.8995114;1.8762769;
Carnisseria, Xarcuteria, Celler de Vins, Supermercat Cal Valentí;Añadir sitio web;3.9;7;Carnicería;41.8987777;1.8762441;
Citypaq de Correos;SUPERMERCADO LLOBET, Passeig Ramon Vall, 55, 08670 Navàs, Barcelona;;;Taquilla para paquetes;41.900004;1.8749113;
Ferretería Torrabadella;Passeig Ramon Vall, 31, 08670 Navàs, Barcelona;4.7;50;Ferretería;41.8992568;1.8749504;
Artigas;Añadir sitio web;;;Tienda de ropa de mujer;41.8996472;1.8753507;
Rostisseria Cal Jaume;Añadir sitio web;4.3;51;Comercio;41.9001453;1.8756598;
Supermercat Consum Barcelona Rogent;Carrer de Rogent, 65, 08026 Barcelona;3.8;260;Supermercado;41.411008;2.1798635;
Condis Supermercats;Carrer de Còrsega, 663, 08026 Barcelona;3.9;96;Supermercado;41.4109683;2.1761946;
Bonpreu;Carrer de la Independència, 313, 08026 Barcelona;4.3;839;Supermercado;41.4086725;2.1790594;
DIA;Carrer de los Castillejos, 361, 08025 Barcelona;3.6;58;Supermercado;41.4082099;2.1700306;
Supermercados Sorli Sagrada Família;Carrer del Rosselló, 490, 08025 Barcelona;4.1;87;Supermercado;41.4090747;2.1762826;
Maracuyá Supermarket;Carrer del Rosselló, 513 bis, local 2, 08025 Barcelona;4.9;35;Supermercado;41.4048734;2.1738888;
Alfer Queviures;Añadir sitio web;4.5;60;Tienda de ultramarinos;41.4080121;2.1739805;
Rossello 460;Añadir horario;2.5;2;Supermercado;41.4058995;2.171679;
All Sanoorfa;Añadir horario;4.0;1;Supermercado;41.4079681;2.1725137;
FRUTERIA SHAYDA Frutas y V. Selectas;Añadir sitio web;;;Supermercado;41.4106441;2.1726611;
Pulgarcito - Carnicería y Productos Latinos;Añadir número de teléfono;;;Supermercado;41.4099558;2.1736115;
Super Mercat Seven 11;Añadir número de teléfono;5.0;2;Tienda de ultramarinos;41.4078064;2.1763598;
Maracuyá Supermarket;Añadir horario;4.8;4;Tienda de ultramarinos;41.4087031;2.1750837;
Cansaladeria Ros;Añadir número de teléfono;;;Tienda de ultramarinos;41.4090009;2.1730363;
Món Verd;Carrer del Dos de Maig, 277, 08025 Barcelona;4.5;4;Tienda de ultramarinos;41.4089564;2.1771696;
Carrefour Market;Carrer de Menorca, 19, 08020 Barcelona;3.8;560;Supermercado;41.4198364;2.1943003;
Condis Express Supermercats;Carrer de la Selva de Mar, 265, 08020 Barcelona;4.0;160;Supermercado;41.418313;2.1941028;
Condis Supermercats;Carrer de Vallès i Ribot, 46, 08027 Barcelona;3.9;51;Supermercado;41.4248997;2.1866928;
Condis Express Supermercats;Carrer d'Hondures, 39, 08027 Barcelona;4.1;136;Supermercado;41.4203216;2.1869534;
Caprabo;Carrer de Felip II, 31, 08027 Barcelona;4.0;3;Supermercado;41.4180176;2.1875878;
Bonpreu;Carrer de la Ciutat d'Elx, 23, 08027 Barcelona;4.2;512;Supermercado;41.421834;2.1883987;
Supermarket claret;Añadir número de teléfono;;;Supermercado;41.4218538;2.1818326;
Condis el Teu Super;Carrer de las Navas de Tolosa, 355, 08041 Barcelona;4.2;85;Supermercado;41.4181018;2.180783;
Supermercado Consum Barcelona Meridiana;Avinguda Meridiana, 256, 08027 Barcelona;4.2;352;Supermercado;41.4192473;2.1850539;
Supermercado Frutas y Verduras;Añadir número de teléfono;;;Supermercado chino;41.4175684;2.1944265;
Lidl;Carrer de las Navas de Tolosa, 318, 08027 Barcelona;4.1;1825;Supermercado de descuentos;41.4179996;2.1821894;
bonÀrea;Carrer de Concepción Arenal, 98, 08027 Barcelona;4.1;250;Supermercado;41.4236959;2.1819758;
Mercadona;Carrer d'Olesa, 30, 08027 Barcelona;4.0;1307;Supermercado;41.4209639;2.1808422;
Mercadona bizcaia;Añadir número de teléfono;2.7;3;Supermercado;41.4208397;2.1812877;
Supermercados Sorli Sagrera;Carrer de Felip II, 86, 08027 Barcelona;3.9;8;Supermercado;41.4201394;2.1853614;
Superficies De Alimentación;Añadir horario;;;Supermercado;41.4199562;2.1855755;
Super Meridiana 1;Añadir horario;2.6;5;Supermercado;41.4221939;2.1850544;
Colmado Solofer;Añadir sitio web;4.1;11;Supermercado;41.4223071;2.1850437;
Verneda Bodega;Añadir horario;;;Supermercado;41.4218633;2.1863;
Bon Veí Alimentació;Añadir número de teléfono;4.0;7;Tienda de ultramarinos;41.4221306;2.1866542;
supermercat bulgaria;Passatge de Coello, n9, 08027 Barcelona;5.0;1;Tienda de alimentación;41.4219801;2.1856567;
Alimentación Etnica de Armenia;Carrer de Garcilaso, 23, 08027 Barcelona;4.5;64;Restaurante armenio;41.4225204;2.1876558;
Cal Fruitós;Avinguda Meridiana, 291, 08027 Barcelona;4.1;195;Frutería;41.4234672;2.1844198;
Sant Antoni Maria Claret - Felip II;08027 Barcelona;5.0;1;Bus stop;41.420147;2.1841013;
Condis Supermercats;Av. de Francesc Macià, 144, 08924 Santa Coloma de Gramenet, Barcelona;4.1;177;Supermercado;41.4574084;2.1996362;
Co aliment;Añadir horario;4.5;2;Supermercado;41.4537177;2.1918247;
DIA;Carrer de Cristóbal de Moura, 227, 08019 Barcelona;4.0;46;Supermercado;41.4164482;2.2112048;
Carrefour Express;Parada 254, Calle Puigcerdá, 206-212 Mercat De, 08020 Barcelona;3.0;11;Supermercado;41.4186727;2.2031863;
DIA;Carrer d'Alfons el Magnànim, 5-7, 08019 Barcelona;3.8;147;Supermercado;41.4139215;2.2150907;
Supermercado Consum Barcelona Llull;Carrer de Llull, 465, 08019 Barcelona;4.1;313;Supermercado;41.4130739;2.2154645;
Condis Supermercats;Av. d'Eduard Maristany, 33, 08930 Sant Adrià de Besòs, Barcelona;4.2;70;Supermercado;41.416198;2.2212413;
Mercadona;Carrer de Veneçuela, 139, 08019 Barcelona;4.1;1667;Supermercado;41.4139084;2.2098558;
Condis Express Supermercats;Carrer de Jaume Huguet, 4, 08019 Barcelona;4.0;21;Supermercado;41.4170651;2.2102566;
DIA;Ronda de Sant Ramon de Penyafort, 40, 08930 Barcelona;3.4;23;Supermercado;41.4177293;2.2069482;
bonArea Diagonal Mar;Plaça Diagonal Mar, 08019 Barcelona;4.3;265;Supermercado;41.4110751;2.2115578;
Condis Express;Carrer de Jaume Huguet, 2, 08019 Barcelona;5.0;2;Supermercado;41.4171527;2.2103191;
PRIM FRUTERIA Y VERDURAS;Añadir número de teléfono;;;Supermercado;41.4150211;2.2148953;
Supermercat;Passatge Prim, 22, 08019 Barcelona;;;Supermercado;41.4143182;2.2140645;
Alimentació Lim-Da;Añadir número de teléfono;4.0;1;Supermercado;41.4111651;2.2112818;
Alimentación de Qasim;Añadir número de teléfono;3.7;3;Supermercado;41.4118075;2.2148988;
Carnicería Montón;Añadir sitio web;4.7;11;Supermercado;41.4175974;2.209291;
Alimentació Basar;Añadir número de teléfono;4.4;8;Tienda de ultramarinos;41.4117674;2.2160375;
"Tienda Rusa ""Magnit""";Añadir sitio web;4.4;29;Tienda de ultramarinos;41.4114526;2.2142881;
Servistyles 2007 S L;Añadir horario;5.0;1;Tienda de ultramarinos;41.4184198;2.2172652;
Batulate Sasser;Añadir número de teléfono;4.0;2;Tienda de ultramarinos;41.4181443;2.2129492;
Diego Pérez;Añadir horario;;;Tienda de ultramarinos;41.4150498;2.2140841;
Magnit;Carrer de Llull, 394, baja, 08019 Barcelona;4.2;91;Tienda de productos de temporada;41.4114985;2.2143074;
Superverd;Rambla de Prim, 20, 2, 08019 Barcelona;5.0;4;Frutería;41.4133029;2.2149923;
Carrefour;Carrer de la Llacuna, 155, 08018 Barcelona;4.1;5537;Hipermercado;41.405937;2.1893772;
Cs Establiments De Proximitat S L;Carrer de Rogent, 34, 08026 Barcelona;3.0;2;Supermercado;41.4092706;2.1827323;
Condis Supermercats;Carrer de la Muntanya, 17, 08026 Barcelona;3.6;95;Supermercado;41.4108419;2.1859541;
Condis Supermercats;Carrer de Rogent, 34, 08026 Barcelona;4.0;222;Supermercado;41.4092237;2.182731;
Caprabo;Carrer de la Independència, 261, 08026 Barcelona;4.8;6;Supermercado;41.4065512;2.1826674;
CondisLife Supermercats;Plaça Carme Monturiol, 11, 08026 Barcelona;3.9;76;Supermercado;41.4130422;2.1824458;
Condis Express Supermercats;C. d'Espronceda, 271, 08018 Barcelona;3.6;171;Supermercado;41.4130956;2.1920018;
DIA;Carrer de Rossend Nobas, 25-27, 08018 Barcelona;3.3;85;Supermercado;41.4118225;2.1688261;
DIA;Carrer de Mallorca, 604, 608, 08026 Barcelona;4.0;121;Supermercado;41.3987759;2.1668394;
Supercor Exprés;Carrer d'Andrade, 50-46, 08020 Barcelona;3.9;201;Supermercado;41.4121679;2.1940737;
Bonpreu;Carrer d'Andrade, 58, 08018 Barcelona;4.3;652;Supermercado;41.412279;2.1942141;
Supermercados Sorli Clot;Carrer de Mallorca, 588, 08026 Barcelona;3.4;54;Supermercado;41.4103288;2.1825742;
Mercadona;Carrer d'Andrade, 22, 08018 Barcelona;3.9;1384;Supermercado;41.410679;2.192517;
Mercadona;Carrer de la Muntanya, 8, 08026 Barcelona;4.1;1116;Supermercado;41.4108943;2.1865395;
Muntanya super mercado;Añadir número de teléfono;4.0;1;Supermercado;41.411763;2.182992;
Supermercados Sorli Verneda;C/ d'Aragó, 647, 08026 Barcelona;3.6;22;Supermercado;41.4116093;2.1881582;
Euro Latino Supermercat;Añadir sitio web;4.9;68;Supermercado;41.4108142;2.1828775;
Keysi Supermercats;Rambla del Poblenou, 141, 08018 Barcelona;3.6;7;Supermercado;41.405978;2.1923504;
Condis Express Supermercats;AV, Gran Via de les Corts Catalanes, 940, 08018 Barcelona;;;Supermercado;41.4087354;2.1927399;
Keisy;Rambla del Poblenou, 145, 08018 Barcelona;4.4;249;Supermercado;41.4059047;2.1924973;
Superficies De Alimentación;Añadir horario;;;Supermercado;41.4116038;2.1880921;
bonÀrea;Carrer del Cabanyal, 4, 08018 Barcelona;3.9;44;Supermercado;41.407687;2.1871616;
SUMA Supermercat;Carrer de Monturiol, 17, 08018 Barcelona;;;Supermercado;41.4096688;2.1907217;
Queen's Supermercat;Añadir sitio web;5.0;5;Supermercado;41.4105075;2.1850422;
SuperMercat Dua Alimentacion;Avinguda Meridiana, 141, 08026 Barcelona;5.0;2;Supermercado;41.4104517;2.1843992;
Super Market;Añadir número de teléfono;3.0;2;Tienda de ultramarinos;41.4179556;2.1781607;
LOS MAÑOS Queviures;Añadir sitio web;4.5;33;Tienda de ultramarinos;41.4082337;2.1854074;
Llegums Cuits;Añadir número de teléfono;5.0;1;Tienda de ultramarinos;41.4083809;2.1852809;
Rostisseria Xarcuteria Isabel;Añadir sitio web;4.6;45;Tienda de ultramarinos;41.4086767;2.1905632;
CLAREL;Carrer de Rossend Nobas, 29, 08018 Barcelona;3.9;12;Tienda de belleza y salud;41.4088485;2.1873948;
CoAliment Supermercado;Añadir número de teléfono;3.8;18;Supermercado;41.4135753;2.1787944;
Industria Supermercado;Añadir número de teléfono;1.0;1;Supermercado;41.4124437;2.1761266;
Supermercat Provenza;Añadir número de teléfono;;;Supermercado;41.3973859;2.1562857;
Superficies De Alimentación;Añadir horario;;;Supermercado;41.4104297;2.1827163;
bonÀrea;Passeig de Maragall, 5, 08026 Barcelona;4.1;221;Supermercado;41.413548;2.1787797;
Tabajo Condis Dega Bahi;Añadir número de teléfono;3.2;6;Supermercado;41.4123748;2.1825502;
La Sirena;Carrer de Rogent, 73, 75, 08026 Barcelona;4.2;125;Tienda de congelados;41.4115815;2.1792074;
CLAREL;Carrer de la Muntanya, 113, 08026 Barcelona;3.9;11;Tienda de belleza y salud;41.4127459;2.1806674;
Plataforma Cárnica;Carrer de Rogent, 69, 08026 Barcelona;3.8;5;Carnicería;41.4111477;2.1797827;
Mi Alcampo;C. del Consell de Cent, 541, 08013 Barcelona;3.4;34;Supermercado;41.4030593;2.179276;
Bonpreu;Carrer de Sardenya, 278, 08088 Barcelona;4.2;397;Supermercado;41.4014802;2.1741081;
DIA;Carrer d'Àvila, 90, 08005 Barcelona;3.0;97;Supermercado;41.3979931;2.1920382;
Pròxim;Añadir número de teléfono;;;Supermercado;41.3980129;2.1854721;
Coviran;Añadir horario;;;Supermercado;41.401994;2.1818613;
Alimentación 24h (Badulake);Añadir número de teléfono;2.0;4;Supermercado;41.3960692;2.1850072;
SUPERMERCAT PARIS;Añadir número de teléfono;1.0;2;Supermercado;41.394403;2.1856832;
Rapid;Añadir número de teléfono;5.0;1;Supermercado;41.4004202;2.1811563;
Fruites i verdures Javier;Añadir número de teléfono;5.0;1;Supermercado;41.3977133;2.1821015;
Ch Alimetació;Añadir sitio web;5.0;1;Supermercado;41.4011323;2.1824278;
Terra Mullada;Añadir número de teléfono;;;Supermercado;41.3971337;2.1803755;
Francisco Aparicio Navarro;Añadir sitio web;4.0;3;Tienda de ultramarinos;41.4019749;2.181823;
Arkucer Europa S.L.;Añadir horario;;;Tienda de ultramarinos;41.3983499;2.1933939;
Natur Manjares;Añadir horario;4.3;12;Tienda de ultramarinos;41.3992194;2.1855981;
Cap Cap;Añadir número de teléfono;;;Mercado de productos agrícolas;41.39721;2.1886708;
Comprar-TPV Caja Registradora y TPV;Calle Pamplona 92-94 Planta 3, Puerta 2A, 08018 Barcelona;3.6;18;Tienda de informática;41.3973465;2.188689;
Equipo Vertical;Carrer dels Almogàvers, 145, 08018 Barcelona;4.5;36;Tienda de herramientas;41.3987692;2.1898073;
Digital 1to1;Carrer d'Àvila, 112, 2B, 08018 Barcelona;5.0;1;Organizador de eventos;41.3995174;2.1902428;
La Wash;Carrer de Pere IV, 77, 08018 Barcelona;3.7;30;Lavandería de autoservicio;41.3970332;2.1906003;
Mercadona;Mercat de Poblenou, Plaça de la Unió, s/n, 08005 Barcelona;3.9;868;Supermercado;41.4009524;2.2032535;
Supermercado;Añadir número de teléfono;4.7;3;Supermercado;41.399385;2.160325;
DIA;Rambla del Poblenou, 55, 08005 Barcelona;2.9;34;Supermercado;41.4003763;2.1997928;
CondisLife Supermercats;Carrer de Bilbao, 53-55, 08005 Barcelona;4.0;422;Supermercado;41.4027167;2.2013567;
Mercadona;C. de Pallars, 221, 08005 Barcelona;3.9;1654;Supermercado;41.402363;2.1970029;
Supermercados Sorli Poblenou;Carrer del Dr. Trueta, 223, 08005 Barcelona;4.0;36;Supermercado;41.3993908;2.2021571;
Condis Supermercats;Rambla del Poblenou, 38, 08005 Barcelona;3.3;49;Supermercado;41.3995994;2.201248;
Veritas;Carrer de Marià Aguiló, 104, 106, 08005 Barcelona;3.9;222;Supermercado;41.4005467;2.2019199;
Condis Supermercats;Carrer de Pere IV, 177, 08018 Barcelona;;;Supermercado;41.4037391;2.196003;
needle supermercats;Rambla del Poblenou, 61, 08005 Barcelona;3.3;37;Supermercado;41.4008827;2.199167;
DIA;C. d'Espronceda, 57, 08005 Barcelona;3.5;48;Supermercado;41.4517974;2.0926248;
Bonpreu;Carrer de Llull, 200, 08005 Barcelona;4.3;1075;Supermercado;41.4012405;2.2004702;
needle express 24h;Rambla del Poblenou, 38, 08005 Barcelona;4.1;15;Supermercado;41.399591;2.2012423;
Supermercado América;Carrer de l'Amistat, 28, 08005 Barcelona;5.0;2;Supermercado;41.4002302;2.2037824;
Bonpreu & Sabadell;Añadir número de teléfono;1.0;1;Supermercado;41.4004541;2.2012977;
Grocery Store;Añadir sitio web;5.0;1;Supermercado;41.4001342;2.2026494;
Alimentación-Frutas Y Verduras;Añadir sitio web;4.7;17;Supermercado;41.402289;2.2037393;
Olé mart-1;Añadir sitio web;5.0;2;Supermercado;41.402297;2.2037393;
Needle Supermercat 24h;Añadir número de teléfono;3.8;5;Supermercado;41.3971646;2.1977519;
KING SUPERMERCAT;Añadir sitio web;3.0;6;Supermercado;41.3996716;2.2000918;
Supermercat Alimentació Taulat;Añadir número de teléfono;4.0;3;Supermercado;41.3994957;2.2036337;
KING SUPERMERCAT;Añadir número de teléfono;5.0;1;Supermercado;41.4002764;2.200953;
Parking BONPREU;Añadir número de teléfono;;;Supermercado;41.4005246;2.201358;
Alimentació LOMBARTE;Añadir sitio web;4.8;11;Supermercado;41.4010445;2.2014384;
KING SUPERMERKET;Añadir sitio web;3.0;3;Supermercado;41.3997373;2.2003838;
Ametller Origen;Añadir sitio web;5.0;2;Tienda de alimentación;41.400982;2.1994187;
La Sirena;Carrer del Joncar, 17, 19, 08005 Barcelona;4.4;43;Tienda de congelados;41.4006093;2.2014817;
La Fruteria De La Rambla;Añadir número de teléfono;5.0;1;Tienda de ultramarinos;41.399602;2.2008574;
Organic Market;Carrer de Ramon Turró, 201, 08005 Barcelona;4.1;52;Tienda de alimentos naturales;41.4004262;2.2012383;
Suma;Añadir número de teléfono;2.7;3;Tienda de ultramarinos;41.3988591;2.2014603;
bonÀrea;Carrer de Ramon Turró, 220, 08005 Barcelona;4.2;165;Comercio;41.4004287;2.2016408;
Horchatería El Tío Che;Rambla del Poblenou, 44, 46, 08005 Barcelona;4.4;3809;Heladería;41.400108;2.2007348;
365 obrador;Añadir número de teléfono;3.9;298;Panadería;41.3999195;2.2003892;
DIA;Gran Via de les Corts Catalanes, 1035, 08020 Barcelona;3.7;116;Supermercado;41.3971269;2.1606898;
Carrefour Express CEPSA;Carrer del Clot, 181, 08027 Barcelona;3.6;47;Supermercado;41.4146038;2.1883657;
CondisLife Supermercats;Avinguda Diagonal, 88, 08019 Barcelona;4.1;283;Supermercado;41.4085003;2.2044554;
Condis Supermercats;Calle, Gran Via de les Corts Catalanes, 1060, 08020 Barcelona;4.3;62;Supermercado;41.41391;2.1996557;
Caprabo;Carrer de Fluvià, 247, 08020 Barcelona;3.0;57;Supermercado;41.41591;2.1928265;
CondisLife Supermercats;Carrer del Concili de Trento, 123, 08020 Barcelona;4.1;72;Supermercado;41.4156327;2.195179;
Supermercat Sorli;Carrer del Concili de Trento, 114, 08020 Barcelona;3.0;8;Supermercado;41.4141934;2.1940362;
DIA;Carrer de Fluvià, 249, 251, 08020 Barcelona;3.8;51;Supermercado;41.3956657;2.147744;
Mercadona;C/ del Perú, 151, 08018 Barcelona;3.9;1601;Supermercado;41.410383;2.1961823;
Lidl;Carrer de Bac de Roda, 178, 08020 Barcelona;4.1;1213;Supermercado de descuentos;41.4127882;2.1952394;
Sorli Discau;Plaça Porxos, 1, 08020 Barcelona;4.0;61;Supermercado;41.4138468;2.1974507;
Elalui - Casa Balkan;Carrer de Veneçuela, 11, 08019 Barcelona;5.0;4;Supermercado;41.4086377;2.203056;
Momma;Añadir número de teléfono;;;Supermercado;41.4129322;2.202887;
Pescaderia Luna;Añadir número de teléfono;4.5;2;Tienda de ultramarinos;41.4119373;2.1971696;
Herboristeria;Añadir número de teléfono;4.3;3;Tienda de ultramarinos;41.415205;2.1513035;
Omnilife España;Añadir sitio web;5.0;1;Tienda de ultramarinos;41.404846;2.1306676;
Tomato Monterosa;Añadir horario;2.8;4;Tienda de alimentos naturales;41.4114858;2.2029481;
Del poble... A granel;Añadir sitio web;4.5;16;Tienda de alimentos naturales;41.4133509;2.1988057;
"Xarcuteria, Comidas preparadas ""Don Charcutón""";Añadir sitio web;4.4;10;Tienda de fiambres;41.412765;2.1980933;
El Corte Inglés;Carrer de Bolívia, 234, 08020 Barcelona;3.4;184;Oficinas de empresa;41.410509;2.1992021;
Condis Supermercats;Carrer de Puigcerdà, 211, 08020 Barcelona;3.9;188;Supermercado;41.4188744;2.2024406;
Mi Alcampo;Carrer de Puigcerdà, 207, 08020 Barcelona;3.9;76;Supermercado;41.4186313;2.2031319;
Alimentació;Añadir número de teléfono;3.5;28;Supermercado;41.3945256;2.1581756;
bonÀrea;Gran Via de les Corts Catalanes, 1107, 1109, 08020 Barcelona;4.1;293;Supermercado;41.417622;2.2027708;
CondisLife Supermercats;Rambla de Guipúscoa, 132, 08020 Barcelona;4.0;190;Supermercado;41.4207673;2.20119;
Caprabo;Guipúzcoa, 116, 08020 Barcelona;3.8;576;Supermercado;41.4200363;2.2002456;
bonÀrea;Gran Via de les Corts Catalanes, 1107, 1109, 08020 Barcelona;4.1;293;Supermercado;41.417622;2.2027708;
Lidl;Carrer del Treball, 238, 08020 Barcelona;4.2;1020;Supermercado de descuentos;41.4185744;2.1965998;
bonÀrea;Rambla de Guipúscoa, 67, 08020 Barcelona;4.0;216;Comercio;41.4174797;2.1958256;
Ramón Tena Subira;Añadir número de teléfono;4.5;2;Tienda de ultramarinos;41.418432;2.1988989;
Más Y Más;Añadir número de teléfono;;;Tienda de ultramarinos;41.41844;2.1988989;
CLAREL;Carrer de la Selva de Mar, 243, 08020 Barcelona;3.4;28;Tienda de belleza y salud;41.4174657;2.1952479;
Castiñeiro;Añadir horario;3.0;2;Tienda de delicatessen;41.4185006;2.195684;
Pargesco S.L.;Carrer de la Selva de Mar, 232, 08020 Barcelona;;;Agentes inmobiliarios;41.4175514;2.1956945;
Farmacia Guipuscoa 69;Rambla de Guipúscoa, 69, 08020 Barcelona;4.2;74;Farmacia;41.4175658;2.1961997;
Supermercado Co Aliment;Añadir número de teléfono;3.8;53;Supermercado;41.4206416;2.208495;
Caprabo;Rambla de Prim, 139, 08020 Barcelona;3.6;152;Supermercado;41.4206282;2.2042686;
Caprabo;C/ del Camp Arriassa, 94, 08020 Barcelona;3.6;52;Supermercado;41.4250155;2.2002335;
Condis Express Supermercats;Carrer de Cantàbria, 73-75, 08020 Barcelona;3.8;67;Supermercado;41.4240266;2.1966569;
Caprabo;Carrer de Cantàbria, 62, 64, 08020 Barcelona;2.9;20;Supermercado;41.4226079;2.1965262;
DIA;Carrer de Menorca, 49, 08020 Barcelona;3.6;67;Supermercado;41.4195045;2.2000471;
DIA;Carrer de Menorca, 49, 08020 Barcelona;3.6;67;Supermercado;41.4195125;2.2000471;
Condis el Teu Super;Gran Via de les Corts Catalanes, 1176, 08020 Barcelona;4.0;298;Supermercado;41.4195686;2.2071368;
Supermercados Sorli Sant Martí;C/ del Camp Arriassa, 110, 08020 Barcelona;4.3;19;Supermercado;41.4259394;2.199038;
bonÀrea;Rambla de Guipúscoa, núm. 140-142, 08020 Barcelona;4.2;235;Supermercado;41.4259592;2.1924719;
Condis Life;Añadir horario;;;Supermercado;41.4207676;2.2011377;
bonÀrea;Rambla de Guipúscoa, 67, 08020 Barcelona;4.0;216;Comercio;41.4194055;2.1988446;
Gm Cash;Añadir número de teléfono;3.7;3;Tienda de ultramarinos;41.4274264;2.208098;
Soler Capellá;Añadir horario;5.0;1;Tienda de ultramarinos;41.4196601;2.1941988;
Reformes Llobet;Rambla de Guipúscoa, 176, 178, 08020 Barcelona;3.0;1;Contratista general;41.4240902;2.2056147;
BonÀrea;Rambla de Prim, 151, 08020 Barcelona;4.4;97;Comercio;41.42411;2.1990486;
CLAREL;Carrer de Menorca, 49, 08020 Barcelona;4.4;35;Tienda de belleza y salud;41.4226128;2.1982944;
Congelats Elma;Añadir número de teléfono;;;Tienda de ultramarinos;41.4241975;2.2006153;
Superverd;Rambla de Prim, 226, 228, 08020 Barcelona;;;Frutería;41.424234;2.2010318;
Plataforma Cárnica;Rambla de Prim, 234, 08020 Barcelona;4.5;4;Carnicería;41.4240489;2.2008127;
Fruiteria Racris;Añadir número de teléfono;4.0;1;Frutería;41.4198627;2.1955088;
Petardos CM;Rambla de Guipúscoa, 145, Local 1, 08020 Barcelona;5.0;2;Tienda de artículos pirotécnicos;41.4229085;2.2030328;
La Wash;Añadir sitio web;;;Lavandería de autoservicio;41.4243812;2.2006521;
Alimentacion Iranzo;Añadir número de teléfono;;;Tienda de ultramarinos;41.4083914;2.165748;
Carnicería Delgado;Añadir sitio web;4.5;10;Carnicería;41.4230451;2.2021181;
Miró Electrodomésticos Rambla Guipúscoa;Rambla de Guipúscoa, 147, 08020 Barcelona;3.2;68;Tienda de electrodomésticos;41.4229572;2.2033681;
Antonio Broggi;Añadir sitio web;4.2;5;Farmacia;41.4237082;2.2024071;
GAES una marca amplifon;Rambla de Guipúscoa, 141, 08020 Barcelona;3.9;13;Tienda de audífonos;41.4226657;2.2030185;
Tecnocasa Sant Marti Rambla Prim;Rambla de Prim, 202, 08020 Barcelona;2.9;15;Agencia inmobiliaria;41.4228264;2.2024211;
Caprabo;Ctra. Antiga de Mataró, 20-20 bis, 08005 Barcelona;3.6;158;Supermercado;41.3918114;2.1872312;
Condis el Teu Super;Av. d'Icària, 144, 08005 Barcelona;4.0;131;Supermercado;41.3900199;2.193807;
Supermercado Consum Barcelona Icària;Av. d'Icària, 160, 08005 Barcelona;4.5;225;Supermercado;41.39089;2.1951735;
Supermercados Sorli Marina;Carrer de la Marina, 63, 08005 Barcelona;4.0;94;Supermercado;41.3916869;2.1883968;
Coviran;Carrer de la Marina, 51, 08005 Barcelona;4.0;4;Tienda de ultramarinos;41.3999417;2.1392615;
Supermercat Olimpic;Añadir número de teléfono;2.5;4;Supermercado;41.399939;2.1392615;
Organic es natural;Añadir número de teléfono;3.5;6;Supermercado;41.39192;2.1877642;
Supercor Exprés;Carrer de la Marina, 304, 08025 Barcelona;3.8;158;Supermercado;41.4055747;2.1712562;
Co Aliment;Añadir sitio web;5.0;2;Supermercado;41.3927074;2.1937141;
Trady's Supermercat;Añadir número de teléfono;5.0;2;Tienda de ultramarinos;41.3940055;2.1876428;
Amigo Super Market;Carrer de la Marina, 52, 08005 Barcelona;5.0;1;Supermercado;41.3916855;2.1892602;
Trady's Supermercat;Añadir número de teléfono;5.0;2;Tienda de ultramarinos;41.3911658;2.1963287;
La Sirena;Carrer de la Marina, 75, 77, 08005 Barcelona;4.1;46;Tienda de congelados;41.3925847;2.1872972;
TABACS La Vila;Añadir número de teléfono;4.7;3;Tienda de ultramarinos;41.3892306;2.1928459;
Fruites i verdures;Añadir número de teléfono;1.0;1;Tienda de ultramarinos;41.3918919;2.1878617;
Juan Cayro Sagrera;Añadir horario;;;Tienda de ultramarinos;41.3900821;2.1895959;
Huella Natural;Añadir horario;;;Tienda de ultramarinos;41.3900817;2.1830298;
Ecogourmet;Av. d'Icària, 150, 08005 Barcelona;3.7;30;Tienda de alimentos naturales;41.390486;2.1943869;
